{"[\"4\",{\"events\":{\"limit\":\"1\",\"before\":\"12.01.2012\"}}]":{"USER_kalender-1.0":{"type":"user","content":{"userid":"kalender-1.0","firstname":"Kalender","surname":"1.0","sex":"m"}},"STUFE_16":{"type":"stufe","content":{"id":1,"verband":2,"bezeichnung":"W\u00f6lflinge","farbe":"#FF8000","startalter":7,"endalter":10,"Keywords_ID":16}},"STUFE_17":{"type":"stufe","content":{"id":2,"verband":2,"bezeichnung":"Jungpfadfinder","farbe":"#0080FF","startalter":10,"endalter":13,"Keywords_ID":17}},"STUFE_18":{"type":"stufe","content":{"id":3,"verband":2,"bezeichnung":"Pfadfinder","farbe":"#00C000","startalter":13,"endalter":16,"Keywords_ID":18}},"STUFE_19":{"type":"stufe","content":{"id":4,"verband":2,"bezeichnung":"Rover","farbe":"#FF0000","startalter":16,"endalter":20,"Keywords_ID":19}},"STUFE_20":{"type":"stufe","content":{"id":5,"verband":2,"bezeichnung":"Leiter","farbe":"#FFFF80","startalter":18,"endalter":255,"Keywords_ID":20}},"KALENDER_4":{"type":"kalender","content":{"ID":"4","Ebene":"Di\u00f6zese","Name":"K\u00f6ln","Verband":"DPSG","Ident":"Di\u00f6zesanverband K\u00f6ln","Ebene_Id":7,"Used_Kategories":{"858":"AGMedien","4":"Aktion","882":"Bausteinwochenende","7":"Bezirksleitung","12":"Di\u00f6zesanleitung","3":"Fahrt\/Lager","105":"Freunde und F\u00f6rderer","5":"Gemeinde","11":"Gremium\/AK","182":"Gruppenstunde","810":"Jamb","43":"Leiterrunde","125":"Ranger & Rover","59":"Ranger\/Rover","10":"Schulung\/Kurs","2":"Stamm","9":"Stufenkonferenz","881":"Teamer Starter Training","38":"Truppstunde","6":"Vorst\u00e4nde"},"Forced_Kategories":{"sections\/leaders":{"886":"Vorgruppe","16":"W\u00f6lflinge","17":"Jungpfadfinder","18":"Pfadfinder","19":"Rover","20":"Leiter"},"DPSG-Ausbildung":{"476":"Einstieg Schritt 1","179":"Einstieg Schritt 2","331":"Baustein 1 a","330":"Baustein 1 b","477":"Baustein 1 c","865":"Baustein 1 d","478":"Baustein 2 a","479":"Baustein 2 b","333":"Baustein 2 c","480":"Baustein 2 d","820":"Baustein 2 e","332":"Baustein 3 a","328":"Baustein 3 b","481":"Baustein 3 c","483":"Baustein 3 e","484":"Baustein 3 f","485":"Woodbadgekurs","36":"Ausbildungstagung","486":"Modulleitungstraining (MLT)","701":"Teamer-Training I","702":"Teamer-Training II","489":"Assistent Leader Training (ALT)","897":"Fort-\/Weiterbildung"}}}},"EVENT_792":{"type":"event","content":{"ID":792,"UID":792,"SSID":"4","Title":"Bezirksvorst\u00e4ndestreffen","Organizer":"","Target_Group":"","Start":"984684600","End":"984684600","All_Day":false,"ZIP":"","Location":"","URL_Text":"","URL":"","Description":"im Di\u00f6zesanzentrum Rolandstra\u00dfe\n\n(Autor: Webteam (mfl))","Stufen":[16,17,18,19,20],"Keywords":{"1":"Sonstiges"},"Kalender":"4","Last_Modified_By":"kalender-1.0","Last_Modified_At":"1058229629","Created_By":"kalender-1.0","Created_At":"1058229629"}}},"[\"4\",{\"kalenders\":[]}]":{"KALENDER_4":{"type":"kalender","content":{"ID":"4","Ebene":"Di\u00f6zese","Name":"K\u00f6ln","Verband":"DPSG","Ident":"Di\u00f6zesanverband K\u00f6ln","Ebene_Id":7,"Used_Kategories":{"858":"AGMedien","4":"Aktion","882":"Bausteinwochenende","7":"Bezirksleitung","12":"Di\u00f6zesanleitung","3":"Fahrt\/Lager","105":"Freunde und F\u00f6rderer","5":"Gemeinde","11":"Gremium\/AK","182":"Gruppenstunde","810":"Jamb","43":"Leiterrunde","125":"Ranger & Rover","59":"Ranger\/Rover","10":"Schulung\/Kurs","2":"Stamm","9":"Stufenkonferenz","881":"Teamer Starter Training","38":"Truppstunde","6":"Vorst\u00e4nde"},"Forced_Kategories":{"sections\/leaders":{"886":"Vorgruppe","16":"W\u00f6lflinge","17":"Jungpfadfinder","18":"Pfadfinder","19":"Rover","20":"Leiter"},"DPSG-Ausbildung":{"476":"Einstieg Schritt 1","179":"Einstieg Schritt 2","331":"Baustein 1 a","330":"Baustein 1 b","477":"Baustein 1 c","865":"Baustein 1 d","478":"Baustein 2 a","479":"Baustein 2 b","333":"Baustein 2 c","480":"Baustein 2 d","820":"Baustein 2 e","332":"Baustein 3 a","328":"Baustein 3 b","481":"Baustein 3 c","483":"Baustein 3 e","484":"Baustein 3 f","485":"Woodbadgekurs","36":"Ausbildungstagung","486":"Modulleitungstraining (MLT)","701":"Teamer-Training I","702":"Teamer-Training II","489":"Assistent Leader Training (ALT)","897":"Fort-\/Weiterbildung"}}}}},"[\"4\",{\"index\":{\"deeps\":\"2\"}}]":{"IDX_4":{"type":"index","content":{"id":"4","number":"10\/00\/00","ebene":"Di\u00f6zese","name":"K\u00f6ln","ort":"K\u00f6ln-S\u00fcdstadt","plz":"50677","url":"www.dpsg-koeln.de\/","latitude":"50.918823633","longitude":"6.9568240642","parent_id":"2618"}},"IDX_5":{"type":"index","content":{"id":"5","number":"10\/01\/00","ebene":"Bezirk","name":"Bergisch Land","ort":"Solingen-Mangenberg","plz":"42655","url":"www.dpsgbergischland.de\/","latitude":"51.177457042","longitude":"7.0720550716","parent_id":"4"}},"IDX_384":{"type":"index","content":{"id":"384","number":"10\/01\/01","ebene":"Stamm","name":"von Berg","ort":"Solingen-Ohligs-Aufderh\u00f6he","plz":"42697","url":"gemeinden.erzbistum-koeln.de\/st_joseph_solingen\/kinder_und_jugend\/pfadfinder.html","latitude":"51.157452","longitude":"7.001825","parent_id":"5"}},"IDX_1254":{"type":"index","content":{"id":"1254","number":"10\/01\/02","ebene":"Stamm","name":"Gallier","ort":"Wuppertal-Barmen","plz":"42281","url":"www.dpsg-wuppertal.org\/","latitude":"51.294253","longitude":"7.197412","parent_id":"5"}},"IDX_431":{"type":"index","content":{"id":"431","number":"10\/01\/03","ebene":"Stamm","name":"Sugambrer","ort":"Solingen-H\u00f6hscheid","plz":"42657","url":"www.pfadfinder-weeg.de\/","latitude":"51.160435728","longitude":"7.0759603679","parent_id":"5"}},"IDX_249":{"type":"index","content":{"id":"249","number":"10\/01\/04","ebene":"Stamm","name":"Gravenrode","ort":"Solingen-Gr\u00e4frath","plz":"42653","url":"www.gravenrode.de\/","latitude":"51.209273","longitude":"7.072249","parent_id":"5"}},"IDX_27":{"type":"index","content":{"id":"27","number":"10\/01\/05","ebene":"Stamm","name":"Silva","ort":"Solingen-Wald","plz":"42719","url":"www.stamm-silva.de\/","latitude":"51.180620","longitude":"7.033630","parent_id":"5"}},"IDX_70":{"type":"index","content":{"id":"70","number":"10\/01\/06","ebene":"Stamm","name":"Lennep","ort":"Remscheid-Lennep","plz":"42897","url":"www.dpsg-lennep.de\/","latitude":"51.194515104","longitude":"7.2617120150","parent_id":"5"}},"IDX_7":{"type":"index","content":{"id":"7","number":"10\/01\/08","ebene":"Stamm","name":"Tenkterer","ort":"Solingen-L\u00f6hdorf","plz":"42699","url":"www.stamm-tenkterer.de\/","latitude":"51.149492485","longitude":"7.0177805721","parent_id":"5"}},"IDX_6":{"type":"index","content":{"id":"6","number":"10\/01\/09","ebene":"Stamm","name":"Gandalf","ort":"Solingen-Mangenberg","plz":"42655","url":"www.gandalf.wtal.de\/","latitude":"51.177457042","longitude":"7.0720550716","parent_id":"5"}},"IDX_8":{"type":"index","content":{"id":"8","number":"10\/03\/00","ebene":"Bezirk","name":"D\u00fcsseldorf","ort":"","plz":"40219","url":"www.dpsg-duesseldorf.de\/","latitude":"51.22807","longitude":"6.771171","parent_id":"4"}},"IDX_2343":{"type":"index","content":{"id":"2343","number":"10\/03\/01","ebene":"Stamm","name":"Castanea","ort":"Langenfeld (Rheinland)","plz":"40764","url":"www.stamm-castanea.de\/","latitude":"51.110733","longitude":"6.951292","parent_id":"8"}},"IDX_1444":{"type":"index","content":{"id":"1444","number":"10\/03\/02","ebene":"Stamm","name":"Franz von Assisi","ort":"Erkrath-Hochdahl","plz":"40699","url":"www.dpsg-hochdahl.de\/","latitude":"51.210769","longitude":"6.948375","parent_id":"8"}},"IDX_67":{"type":"index","content":{"id":"67","number":"10\/03\/03","ebene":"Stamm","name":"L\u00f6rick","ort":"D\u00fcsseldorf-L\u00f6rick","plz":"40547","url":"www.stamm-loerick.de\/","latitude":"51.245278","longitude":"6.722611","parent_id":"8"}},"IDX_13":{"type":"index","content":{"id":"13","number":"10\/03\/04","ebene":"Stamm","name":"Gerrich","ort":"D\u00fcsseldorf-Gerresheim","plz":"40625","url":"www.gerrich.de\/","latitude":"51.23704","longitude":"6.863155","parent_id":"8"}},"IDX_2459":{"type":"index","content":{"id":"2459","number":"10\/03\/06","ebene":"Stamm","name":"Vennhausen","ort":"D\u00fcsseldorf-Vennhausen","plz":"40627","url":"www.dpsg-vennhausen.de\/","latitude":"51.217446","longitude":"6.863659","parent_id":"8"}},"IDX_1220":{"type":"index","content":{"id":"1220","number":"10\/03\/07","ebene":"Stamm","name":"St. Martin","ort":"Langenfeld (Rheinland)-Richrath","plz":"40764","url":"gemeinden.erzbistum-koeln.de\/kklangenfeld\/_orte_kirchl_lebens\/okl_martin\/8500_Martin_Pfadfinder.html","latitude":"51.129652","longitude":"6.944526","parent_id":"8"}},"IDX_1154":{"type":"index","content":{"id":"1154","number":"10\/03\/08","ebene":"Stamm","name":"Hohenstaufen","ort":"D\u00fcsseldorf-Bilk","plz":"40223","url":"www.dpsg-hohenstaufen-bilk.de\/","latitude":"51.204003","longitude":"6.781842","parent_id":"8"}},"IDX_1768":{"type":"index","content":{"id":"1768","number":"10\/03\/10","ebene":"Stamm","name":"Anton","ort":"D\u00fcsseldorf","plz":"40210","url":"","latitude":"51.213058","longitude":"6.787539","parent_id":"8"}},"IDX_119":{"type":"index","content":{"id":"119","number":"10\/03\/12","ebene":"Stamm","name":"St. Bruno","ort":"D\u00fcsseldorf-Unterrath","plz":"40468","url":"www.brunopfadis.de\/","latitude":"51.266123","longitude":"6.775426","parent_id":"8"}},"IDX_61":{"type":"index","content":{"id":"61","number":"10\/03\/16","ebene":"Stamm","name":"Winfried","ort":"D\u00fcsseldorf-Bilk","plz":"40223","url":"www.stamm-winfried.de\/","latitude":"51.203599","longitude":"6.764754","parent_id":"8"}},"IDX_478":{"type":"index","content":{"id":"478","number":"10\/03\/19","ebene":"Stamm","name":"Erkrath","ort":"Erkrath","plz":"40699","url":"www.dpsg-erkrath.de\/","latitude":"51.222045","longitude":"6.913547","parent_id":"8"}},"IDX_3437":{"type":"index","content":{"id":"3437","number":"10\/03\/11","ebene":"Stamm","name":"Hilden","ort":"Hilden","plz":"40721","url":"","latitude":"51.170007","longitude":"6.939619","parent_id":"8"}},"IDX_17":{"type":"index","content":{"id":"17","number":"10\/04\/00","ebene":"Bezirk","name":"Erft","ort":"Frechen-K\u00f6nigsdorf","plz":"50226","url":"www.dpsg-erft.de\/","latitude":"50.937174954","longitude":"6.7756301164","parent_id":"4"}},"IDX_2311":{"type":"index","content":{"id":"2311","number":"10\/04\/01","ebene":"Stamm","name":"von Merode","ort":"Kerpen (Rheinl)-Horrem","plz":"50169","url":"www.dpsghorrem.de\/","latitude":"50.911861593","longitude":"6.7103344202","parent_id":"17"}},"IDX_103":{"type":"index","content":{"id":"103","number":"10\/04\/02","ebene":"Stamm","name":"Pulheim","ort":"Pulheim","plz":"50259","url":"www.dpsg-pulheim.de\/","latitude":"51.000531","longitude":"6.798209","parent_id":"17"}},"IDX_332":{"type":"index","content":{"id":"332","number":"10\/04\/04","ebene":"Stamm","name":"Kurf\u00fcrst","ort":"Br\u00fchl","plz":"50321","url":"www.stamm-kurfuerst.de\/","latitude":"50.835960816","longitude":"6.9078898430","parent_id":"17"}},"IDX_1907":{"type":"index","content":{"id":"1907","number":"10\/04\/05","ebene":"Stamm","name":"Reuschenberg","ort":"Elsdorf","plz":"50189","url":"www.dpsg-elsdorf.de","latitude":"50.937394686","longitude":"6.5692985057","parent_id":"17"}},"IDX_18":{"type":"index","content":{"id":"18","number":"10\/04\/06","ebene":"Stamm","name":"Hildebold","ort":"Frechen-K\u00f6nigsdorf","plz":"50226","url":"www.dpsg-koenigsdorf.de\/","latitude":"50.937479198","longitude":"6.7756891250","parent_id":"17"}},"IDX_2011":{"type":"index","content":{"id":"2011","number":"10\/04\/07","ebene":"Stamm","name":"Bernhard von Clairvaux","ort":"Pulheim-Brauweiler","plz":"50259","url":"www.dpsg-brauweiler.de\/","latitude":"50.959632997","longitude":"6.7849963903","parent_id":"17"}},"IDX_2056":{"type":"index","content":{"id":"2056","number":"10\/04\/08","ebene":"Stamm","name":"Gl\u00fcckauf","ort":"Kerpen-Neu Bottenbroich","plz":"50169","url":"www.neubottenbroich.de\/","latitude":"50.916191","longitude":"6.726927","parent_id":"17"}},"IDX_180":{"type":"index","content":{"id":"180","number":"10\/04\/10","ebene":"Stamm","name":"Maximilian Kolbe","ort":"Pulheim-Sinnersdorf","plz":"50259","url":"www.dpsg-sinnersdorf.de\/","latitude":"51.024318","longitude":"6.815792","parent_id":"17"}},"IDX_152":{"type":"index","content":{"id":"152","number":"10\/04\/12","ebene":"Stamm","name":"St. Quirinus","ort":"Kerpen-M\u00f6drath","plz":"50171","url":"gemeinden.erzbistum-koeln.de\/seelsorgebereich_kerpen_sued_west\/dpsg\/index.html","latitude":"50.875774885","longitude":"6.6978406906","parent_id":"17"}},"IDX_151":{"type":"index","content":{"id":"151","number":"10\/04\/13","ebene":"Stamm","name":"Las Casas","ort":"Erftstadt-Liblar","plz":"50374","url":"www.dpsg-liblar.de\/","latitude":"50.807335469","longitude":"6.8299857081","parent_id":"17"}},"IDX_2652":{"type":"index","content":{"id":"2652","number":"10\/04\/16","ebene":"Stamm","name":"Bedburg-Kaster","ort":"Bedburg-Kaster","plz":"50181","url":"www.dpsg-kaster.de\/","latitude":"51.00417","longitude":"6.54948","parent_id":"17"}},"IDX_144":{"type":"index","content":{"id":"144","number":"10\/05\/00","ebene":"Bezirk","name":"K\u00f6ln Linksrheinisch","ort":"K\u00f6ln","plz":"","url":"www.dpsgk\u00f6ln.de\/","latitude":"","longitude":"","parent_id":"4"}},"IDX_145":{"type":"index","content":{"id":"145","number":"10\/05\/01","ebene":"Stamm","name":"Rochus Spiecker","ort":"Br\u00fchl-Schwadorf","plz":"50321","url":"www.rochus-spiecker.de\/","latitude":"50.802650","longitude":"6.916720","parent_id":"144"}},"IDX_230":{"type":"index","content":{"id":"230","number":"10\/05\/03","ebene":"Stamm","name":"Gilwell","ort":"K\u00f6ln-Worringen","plz":"50769","url":"www.stamm-gilwell.de\/","latitude":"51.063900","longitude":"6.864770","parent_id":"144"}},"IDX_2228":{"type":"index","content":{"id":"2228","number":"10\/05\/04","ebene":"Stamm","name":"Edith Stein","ort":"K\u00f6ln-S\u00fclz","plz":"50937","url":"www.pfadfinder-suelz.de\/","latitude":"50.918889579","longitude":"6.9267833232","parent_id":"144"}},"IDX_1215":{"type":"index","content":{"id":"1215","number":"10\/05\/06","ebene":"Stamm","name":"Dom H\u00e9lder C\u00e2mara","ort":"K\u00f6ln-Kriel","plz":"50935","url":"www.helder-camara.de\/","latitude":"50.920034756","longitude":"6.9071987754","parent_id":"144"}},"IDX_501":{"type":"index","content":{"id":"501","number":"10\/05\/08","ebene":"Stamm","name":"St. Walburga","ort":"Bornheim (Rheinl)-Walberberg","plz":"53332","url":"www.dpsg-walberberg.de\/","latitude":"50.793241","longitude":"6.910298","parent_id":"144"}},"IDX_690":{"type":"index","content":{"id":"690","number":"10\/05\/09","ebene":"Stamm","name":"St. Katharina von Siena","ort":"K\u00f6ln-Blumenberg","plz":"50765","url":"","latitude":"51.037147","longitude":"6.885916","parent_id":"144"}},"IDX_306":{"type":"index","content":{"id":"306","number":"10\/05\/10","ebene":"Stamm","name":"St. Franziskus","ort":"Bornheim (Rheinl)-Hersel","plz":"53332","url":"","latitude":"50.77442","longitude":"7.045642","parent_id":"144"}},"IDX_2609":{"type":"index","content":{"id":"2609","number":"10\/05\/11","ebene":"Stamm","name":"Rondorf","ort":"K\u00f6ln-Rondorf","plz":"50997","url":"www.rumenthorp.de\/","latitude":"","longitude":"","parent_id":"144"}},"IDX_532":{"type":"index","content":{"id":"532","number":"10\/05\/18","ebene":"Stamm","name":"St. Markus","ort":"K\u00f6ln-Seeberg","plz":"50767","url":"www.stamm-st-markus.de","latitude":"51.01438","longitude":"6.912778","parent_id":"144"}},"IDX_3438":{"type":"index","content":{"id":"3438","number":"10\/05\/19","ebene":"Stamm","name":"St. Pankratius","ort":"K\u00f6ln-Junkersdorf","plz":"50858","url":"http:\/\/www.pfadfinder-junkersdorf.de\/","latitude":"50.932374","longitude":"6.856305","parent_id":"144"}},"IDX_301":{"type":"index","content":{"id":"301","number":"10\/06\/00","ebene":"Bezirk","name":"Rhein-Erft","ort":"","plz":"41515","url":"www.bezirk-rhein-erft.de\/","latitude":"","longitude":"","parent_id":"4"}},"IDX_2316":{"type":"index","content":{"id":"2316","number":"10\/06\/02","ebene":"Stamm","name":"Malteser","ort":"Neuss-Dreik\u00f6nigenviertel","plz":"41464","url":"www.dpsg-malteser.de\/","latitude":"51.1894563","longitude":"6.6906529","parent_id":"301"}},"IDX_1558":{"type":"index","content":{"id":"1558","number":"10\/06\/03","ebene":"Stamm","name":"Greifen","ort":"Dormagen-Delrath","plz":"41542","url":"www.stamm-greifen.de\/","latitude":"51.1285329","longitude":"6.7871592","parent_id":"301"}},"IDX_300":{"type":"index","content":{"id":"300","number":"10\/06\/04","ebene":"Stamm","name":"Deutschritter","ort":"Grevenbroich-Gustorf","plz":"41517","url":"www.dpsg-gustorf.de\/","latitude":"51.071499","longitude":"6.567246","parent_id":"301"}},"IDX_1097":{"type":"index","content":{"id":"1097","number":"10\/06\/06","ebene":"Stamm","name":"St. Josef","ort":"Grevenbroich-S\u00fcdstadt","plz":"41515","url":"www.dpsg-grevenbroich.de\/","latitude":"51.0804754","longitude":"6.6043004","parent_id":"301"}},"IDX_407":{"type":"index","content":{"id":"407","number":"10\/06\/09","ebene":"Stamm","name":"Alfred Delp","ort":"Neuss-Weckhoven","plz":"41466","url":"www.dpsg-neuss.de\/","latitude":"51.156215","longitude":"6.6985121","parent_id":"301"}},"IDX_10":{"type":"index","content":{"id":"10","number":"10\/07\/00","ebene":"Bezirk","name":"Niederberg","ort":"","plz":"42553","url":"www.bezirk-niederberg.de\/","latitude":"","longitude":"","parent_id":"4"}},"IDX_52":{"type":"index","content":{"id":"52","number":"10\/07\/01","ebene":"Stamm","name":"Kizito","ort":"Ratingen-West","plz":"40880","url":"www.dpsg-kizito.de\/","latitude":"51.29272","longitude":"6.822687","parent_id":"10"}},"IDX_9":{"type":"index","content":{"id":"9","number":"10\/07\/02","ebene":"Stamm","name":"Hardenberg","ort":"Velbert-Neviges","plz":"42553","url":"www.dpsg-hardenberg.de","latitude":"51.317283","longitude":"7.08605","parent_id":"10"}},"IDX_1554":{"type":"index","content":{"id":"1554","number":"10\/07\/03","ebene":"Stamm","name":"Heiligenhaus","ort":"Heiligenhaus (b Velbert)","plz":"42579","url":"www.pfadfinder-heiligenhaus.de\/","latitude":"51.326669721","longitude":"6.9738775491","parent_id":"10"}},"IDX_12":{"type":"index","content":{"id":"12","number":"10\/07\/04","ebene":"Stamm","name":"Mettmann","ort":"Mettmann","plz":"40822","url":"www.dpsg-mettmann.de\/","latitude":"51.253401105","longitude":"6.9772410392","parent_id":"10"}},"IDX_1101":{"type":"index","content":{"id":"1101","number":"10\/07\/05","ebene":"Stamm","name":"Franken","ort":"W\u00fclfrath","plz":"42489","url":"www.dpsg-wuelfrath.de\/","latitude":"51.280330171","longitude":"7.0294475555","parent_id":"10"}},"IDX_87":{"type":"index","content":{"id":"87","number":"10\/07\/06","ebene":"Stamm","name":"Wikinger Lintorf","ort":"Ratingen-Lintorf","plz":"40885","url":"www.dpsg-lintorf.de\/","latitude":"51.333270899","longitude":"6.8337270767","parent_id":"10"}},"IDX_19":{"type":"index","content":{"id":"19","number":"10\/07\/10","ebene":"Stamm","name":"Kattwiga","ort":"Essen-Kettwig","plz":"45219","url":"www.dpsg-kattwiga.de\/","latitude":"51.374893496","longitude":"6.9404455684","parent_id":"10"}},"IDX_3413":{"type":"index","content":{"id":"3413","number":"10\/07\/07","ebene":"Stamm","name":"Siedlung Velbert","ort":"Velbert","plz":"42551","url":"","latitude":"","longitude":"","parent_id":"10"}},"IDX_2114":{"type":"index","content":{"id":"2114","number":"10\/09\/00","ebene":"Bezirk","name":"Sieg","ort":"","plz":"53797","url":"www.dpsg-sieg.de\/","latitude":"","longitude":"","parent_id":"4"}},"IDX_947":{"type":"index","content":{"id":"947","number":"10\/09\/01","ebene":"Stamm","name":"St. Anno","ort":"Siegburg","plz":"53721","url":"www.dpsg-siegburg.de\/","latitude":"50.804562","longitude":"7.190175","parent_id":"2114"}},"IDX_1076":{"type":"index","content":{"id":"1076","number":"10\/09\/02","ebene":"Stamm","name":"Exodus","ort":"Siegburg-Kaldauen","plz":"53721","url":"www.dpsg-kaldauen.de\/","latitude":"50.804174","longitude":"7.26169","parent_id":"2114"}},"IDX_2136":{"type":"index","content":{"id":"2136","number":"10\/09\/03","ebene":"Stamm","name":"Franziskus","ort":"Niederkassel-L\u00fclsdorf-Ranzel","plz":"53859","url":"","latitude":"50.829322","longitude":"7.01231","parent_id":"2114"}},"IDX_1452":{"type":"index","content":{"id":"1452","number":"10\/09\/04","ebene":"Stamm","name":"St. Johannes","ort":"Troisdorf-Sieglar","plz":"53844","url":"www.ffk-dpsg.de\/","latitude":"50.799674","longitude":"7.126478","parent_id":"2114"}},"IDX_1603":{"type":"index","content":{"id":"1603","number":"10\/09\/05","ebene":"Stamm","name":"St. Johannes","ort":"Lohmar (Rheinl)","plz":"53797","url":"www.dpsg-lohmar.de\/","latitude":"50.840990","longitude":"7.20524","parent_id":"2114"}},"IDX_1471":{"type":"index","content":{"id":"1471","number":"10\/09\/06","ebene":"Stamm","name":"Roncalli","ort":"Niederkassel (Rhein)","plz":"53859","url":"www.stamm-roncalli.de\/","latitude":"50.810851","longitude":"7.035567","parent_id":"2114"}},"IDX_2288":{"type":"index","content":{"id":"2288","number":"10\/09\/12","ebene":"Stamm","name":"Sankt Augustin Menden","ort":"Sankt Augustin-Menden","plz":"53757","url":"","latitude":"50.792062","longitude":"7.158493","parent_id":"2114"}},"IDX_712":{"type":"index","content":{"id":"712","number":"10\/09\/20","ebene":"Stamm","name":"Ichtys Neuhonrath","ort":"Lohmar-Neuhonrath","plz":"53797","url":"www.stamm-ichtys.org\/","latitude":"50.901154","longitude":"7.27529","parent_id":"2114"}},"IDX_109":{"type":"index","content":{"id":"109","number":"10\/09\/21","ebene":"Stamm","name":"St. Felicitas","ort":"Gummersbach","plz":"51643","url":"www.dpsg-gummersbach.de\/","latitude":"51.026365","longitude":"7.568764","parent_id":"2114"}},"IDX_3533":{"type":"index","content":{"id":"3533","number":"10\/09\/09","ebene":"Stamm","name":"Albatros Spich","ort":"","plz":"","url":"","latitude":"","longitude":"","parent_id":"2114"}},"IDX_2024":{"type":"index","content":{"id":"2024","number":"10\/10\/00","ebene":"Bezirk","name":"Voreifel","ort":"","plz":"50667","url":"","latitude":"","longitude":"","parent_id":"4"}},"IDX_1208":{"type":"index","content":{"id":"1208","number":"10\/10\/01","ebene":"Stamm","name":"Kreuzritter","ort":"Euskirchen","plz":"53881","url":"www.dpsg-eu.eu\/","latitude":"50.662275135","longitude":"6.7912673950","parent_id":"2024"}},"IDX_2584":{"type":"index","content":{"id":"2584","number":"10\/10\/03","ebene":"Stamm","name":"Antoine de Saint-Exup\u00e9ry","ort":"Rheinbach","plz":"53359","url":"www.kallenturm.de\/","latitude":"50.626059965","longitude":"6.9512879848","parent_id":"2024"}},"IDX_2174":{"type":"index","content":{"id":"2174","number":"10\/10\/04","ebene":"Stamm","name":"Swabidua","ort":"Meckenheim","plz":"53340","url":"","latitude":"50.625944260","longitude":"7.0253276824","parent_id":"2024"}},"IDX_1783":{"type":"index","content":{"id":"1783","number":"10\/10\/05","ebene":"Stamm","name":"Carpe diem","ort":"Euskirchen-Euenheim","plz":"53881","url":"","latitude":"50.653641","longitude":"6.751012","parent_id":"2024"}},"IDX_2312":{"type":"index","content":{"id":"2312","number":"10\/10\/06","ebene":"Stamm","name":"Heimerzheim","ort":"Swisttal-Heimerzheim","plz":"53913","url":"","latitude":"50.716841061","longitude":"6.9164085388","parent_id":"2024"}},"IDX_1251":{"type":"index","content":{"id":"1251","number":"10\/10\/07","ebene":"Stamm","name":"St. Quirinus","ort":"Z\u00fclpich","plz":"53909","url":"","latitude":"50.691360392","longitude":"6.6530585289","parent_id":"2024"}},"IDX_1952":{"type":"index","content":{"id":"1952","number":"10\/10\/08","ebene":"Stamm","name":"St. Hubertus","ort":"Euskirchen-Stotzheim","plz":"53881","url":"www.dpsg-stotzheim.de\/","latitude":"50.629701113","longitude":"6.8117809295","parent_id":"2024"}},"IDX_2546":{"type":"index","content":{"id":"2546","number":"10\/12\/00","ebene":"Bezirk","name":"Bonn","ort":"Bonn","plz":"53175","url":"www.dpsg-bonn.de\/","latitude":"","longitude":"","parent_id":"4"}},"IDX_1447":{"type":"index","content":{"id":"1447","number":"10\/12\/01","ebene":"Stamm","name":"St. Rochus","ort":"Bonn-Hardtberg","plz":"53123","url":"duisdorf.dpsg-bonn.de\/","latitude":"50.71402","longitude":"7.04681","parent_id":"2546"}},"IDX_1977":{"type":"index","content":{"id":"1977","number":"10\/12\/02","ebene":"Stamm","name":"Graf Galen","ort":"Bonn-Friesdorf","plz":"53175","url":"www.dpsg-badgodesberg.de\/","latitude":"50.69594","longitude":"7.12611","parent_id":"2546"}},"IDX_1016":{"type":"index","content":{"id":"1016","number":"10\/12\/03","ebene":"Stamm","name":"Ph\u00f6nix","ort":"Bonn-Stadtmitte","plz":"53111","url":"www.dpsg-phoenix.net\/","latitude":"50.737980","longitude":"7.089270","parent_id":"2546"}},"IDX_2318":{"type":"index","content":{"id":"2318","number":"10\/12\/04","ebene":"Stamm","name":"Sugambrer Bonn-Beuel","ort":"Bonn-Beuel","plz":"53225","url":"www.pfadfinder-beuel.de\/","latitude":"50.736717","longitude":"7.117840","parent_id":"2546"}},"IDX_68":{"type":"index","content":{"id":"68","number":"10\/13\/00","ebene":"Bezirk","name":"Siebengebirge","ort":"K\u00f6nigswinter-Thomasberg","plz":"53639","url":"www.dpsg-siebengebirge.de\/","latitude":"50.706356019","longitude":"7.2493562867","parent_id":"4"}},"IDX_530":{"type":"index","content":{"id":"530","number":"10\/13\/15","ebene":"Stamm","name":"St. Georg","ort":"Waldbr\u00f6l","plz":"51545","url":"www.dpsg-waldbroel.de\/","latitude":"50.876462","longitude":"7.614715","parent_id":"68"}},"IDX_281":{"type":"index","content":{"id":"281","number":"10\/13\/01","ebene":"Stamm","name":"Heisterbacherrott","ort":"K\u00f6nigswinter-Thomasberg","plz":"53639","url":"www.dpsg-heisterbacherrott.de\/","latitude":"50.699169141","longitude":"7.2464060783","parent_id":"68"}},"IDX_1368":{"type":"index","content":{"id":"1368","number":"10\/13\/02","ebene":"Stamm","name":"Sugambrer","ort":"Hennef-Warth","plz":"53721","url":"www.sugambrer.de\/","latitude":"","longitude":"","parent_id":"68"}},"IDX_1182":{"type":"index","content":{"id":"1182","number":"10\/13\/03","ebene":"Stamm","name":"Idubag K\u00f6nigswinter-Ittenbach","ort":"K\u00f6nigswinter-Ittenbach","plz":"53639","url":"dpsg-ittenbach.de","latitude":"50.682133","longitude":"7.272056","parent_id":"68"}},"IDX_1001":{"type":"index","content":{"id":"1001","number":"10\/13\/04","ebene":"Stamm","name":"Ruppichterroth","ort":"Ruppichterroth","plz":"53809","url":"","latitude":"","longitude":"","parent_id":"68"}},"IDX_216":{"type":"index","content":{"id":"216","number":"10\/13\/05","ebene":"Stamm","name":"Winterscheid","ort":"Ruppichteroth-Winterscheid","plz":"53809","url":"www.dpsg-winterscheid.de\/","latitude":"50.814987","longitude":"7.377837","parent_id":"68"}},"IDX_850":{"type":"index","content":{"id":"850","number":"10\/13\/06","ebene":"Stamm","name":"Isenburg","ort":"Walterschen","plz":"57632","url":"www.dpsg-isenburg.de\/","latitude":"","longitude":"","parent_id":"68"}},"IDX_1171":{"type":"index","content":{"id":"1171","number":"10\/13\/07","ebene":"Stamm","name":"Terra Nova","ort":"Rheinbreitbach","plz":"53619","url":"dpsg-rheinbreitbach.de.vu\/","latitude":"50.617671","longitude":"7.229829","parent_id":"68"}},"IDX_69":{"type":"index","content":{"id":"69","number":"10\/13\/08","ebene":"Stamm","name":"Romero","ort":"K\u00f6nigswinter-Stieldorf","plz":"53639","url":"www.stamm-romero.de\/","latitude":"50.730826","longitude":"7.220779","parent_id":"68"}},"IDX_1634":{"type":"index","content":{"id":"1634","number":"10\/13\/09","ebene":"Stamm","name":"Oberpleis","ort":"K\u00f6nigswinter-Oberpleis","plz":"53639","url":"www.dpsgoberpleis.de\/","latitude":"50.708968","longitude":"7.278312","parent_id":"68"}},"IDX_417":{"type":"index","content":{"id":"417","number":"10\/13\/10","ebene":"Stamm","name":"Edelweiss","ort":"Neunkirchen-Seelscheid","plz":"53819","url":"www.pfadfinder-seelscheid.de\/","latitude":"","longitude":"","parent_id":"68"}},"IDX_908":{"type":"index","content":{"id":"908","number":"10\/13\/13","ebene":"Stamm","name":"Shamrock","ort":"Eitorf","plz":"53783","url":"www.dpsg-eitorf.de\/","latitude":"","longitude":"","parent_id":"68"}},"IDX_130":{"type":"index","content":{"id":"130","number":"10\/14\/00","ebene":"Bezirk","name":"Rhein-Berg","ort":"","plz":"51107","url":"www.dpsg-rhein-berg.de\/","latitude":"","longitude":"","parent_id":"4"}},"IDX_250":{"type":"index","content":{"id":"250","number":"10\/14\/14","ebene":"Stamm","name":"St. Engelbert","ort":"Wipperf\u00fcrth","plz":"51688","url":"www.dpsg-wipperfuerth.de\/","latitude":"51.118364770","longitude":"7.3990351259","parent_id":"130"}},"IDX_267":{"type":"index","content":{"id":"267","number":"10\/14\/01","ebene":"Stamm","name":"Johannes Bosco","ort":"K\u00f6ln-Rath\/Heumar","plz":"51107","url":"http:\/\/dpsg-rath-heumar.de\/jugendheim\/jugendheim-st-georg-e-v\/","latitude":"50.917464","longitude":"7.093399","parent_id":"130"}},"IDX_973":{"type":"index","content":{"id":"973","number":"10\/14\/02","ebene":"Stamm","name":"Impeesa","ort":"K\u00f6ln-Porz-Urbach","plz":"51145","url":"www.dpsg-impeesa-porz.de\/","latitude":"","longitude":"","parent_id":"130"}},"IDX_131":{"type":"index","content":{"id":"131","number":"10\/14\/03","ebene":"Stamm","name":"Hohenstaufen","ort":"K\u00f6ln-Kalk","plz":"51103","url":"www.dpsg-koeln-kalk.de\/","latitude":"50.938727","longitude":"7.009658","parent_id":"130"}},"IDX_2143":{"type":"index","content":{"id":"2143","number":"10\/14\/04","ebene":"Stamm","name":"Ostgoten","ort":"K\u00f6ln-Br\u00fcck","plz":"51109","url":"www.dpsg-brueck.de\/","latitude":"50.945342","longitude":"7.080323","parent_id":"130"}},"IDX_1541":{"type":"index","content":{"id":"1541","number":"10\/14\/05","ebene":"Stamm","name":"St. Adelheid","ort":"K\u00f6ln-Neubr\u00fcck","plz":"51109","url":"www.dpsg-st-adelheid.de\/","latitude":"50.934667","longitude":"7.060335","parent_id":"130"}},"IDX_391":{"type":"index","content":{"id":"391","number":"10\/14\/06","ebene":"Stamm","name":"Gilwell","ort":"K\u00f6ln-Stammheim","plz":"51061","url":"www.stammgilwell.de\/","latitude":"50.987115","longitude":"6.985925","parent_id":"130"}},"IDX_1409":{"type":"index","content":{"id":"1409","number":"10\/14\/07","ebene":"Stamm","name":"St. Laurentius","ort":"K\u00f6ln-Ensen","plz":"51149","url":"www.pfadfinder-ensen.de\/","latitude":"50.897599","longitude":"7.035074","parent_id":"130"}},"IDX_1605":{"type":"index","content":{"id":"1605","number":"10\/14\/08","ebene":"Stamm","name":"Ommerborn","ort":"Bensberg","plz":"51429","url":"www.dpsgbensberg.de\/","latitude":"50.951165","longitude":"7.131492","parent_id":"130"}},"IDX_1523":{"type":"index","content":{"id":"1523","number":"10\/14\/09","ebene":"Stamm","name":"Widukind","ort":"Bergisch Gladbach-Refrath","plz":"51427","url":"www.dpsg-refrath.de\/","latitude":"50.958283","longitude":"7.117087","parent_id":"130"}},"IDX_2263":{"type":"index","content":{"id":"2263","number":"10\/14\/10","ebene":"Stamm","name":"Woodstock","ort":"Leverkusen","plz":"51377","url":"www.stamm-woodstock.de\/","latitude":"","longitude":"","parent_id":"130"}},"IDX_1917":{"type":"index","content":{"id":"1917","number":"10\/14\/11","ebene":"Stamm","name":"Gezelin","ort":"Leverkusen-Schlebusch","plz":"51375","url":"www.stamm-gezelin.de\/","latitude":"51.034808","longitude":"7.051328","parent_id":"130"}},"IDX_3379":{"type":"index","content":{"id":"3379","number":"10\/14\/12","ebene":"Stamm","name":"Heideland","ort":"K\u00f6ln-H\u00f6henberg","plz":"51103","url":"dpsg.hoevi.info\/","latitude":"50.941537","longitude":"7.027532","parent_id":"130"}},"IDX_3399":{"type":"index","content":{"id":"3399","number":"10\/14\/13","ebene":"Stamm","name":"Wippera","ort":"Leichlingen","plz":"42799","url":"www.wippera.org\/","latitude":"51.106769","longitude":"7.017307","parent_id":"130"}}},"[4,{\"events\":{\"limit\":\"1\",\"before\":\"12.01.2012\"}}]":{"USER_kalender-1.0":{"type":"user","content":{"userid":"kalender-1.0","firstname":"Kalender","surname":"1.0","sex":"m"}},"STUFE_16":{"type":"stufe","content":{"id":1,"verband":2,"bezeichnung":"W\u00f6lflinge","farbe":"#FF8000","startalter":7,"endalter":10,"Keywords_ID":16}},"STUFE_17":{"type":"stufe","content":{"id":2,"verband":2,"bezeichnung":"Jungpfadfinder","farbe":"#0080FF","startalter":10,"endalter":13,"Keywords_ID":17}},"STUFE_18":{"type":"stufe","content":{"id":3,"verband":2,"bezeichnung":"Pfadfinder","farbe":"#00C000","startalter":13,"endalter":16,"Keywords_ID":18}},"STUFE_19":{"type":"stufe","content":{"id":4,"verband":2,"bezeichnung":"Rover","farbe":"#FF0000","startalter":16,"endalter":20,"Keywords_ID":19}},"STUFE_20":{"type":"stufe","content":{"id":5,"verband":2,"bezeichnung":"Leiter","farbe":"#FFFF80","startalter":18,"endalter":255,"Keywords_ID":20}},"KALENDER_4":{"type":"kalender","content":{"ID":"4","Ebene":"Di\u00f6zese","Name":"K\u00f6ln","Verband":"DPSG","Ident":"Di\u00f6zesanverband K\u00f6ln","Ebene_Id":7,"Used_Kategories":{"858":"AGMedien","4":"Aktion","882":"Bausteinwochenende","7":"Bezirksleitung","12":"Di\u00f6zesanleitung","3":"Fahrt\/Lager","105":"Freunde und F\u00f6rderer","5":"Gemeinde","11":"Gremium\/AK","182":"Gruppenstunde","810":"Jamb","43":"Leiterrunde","125":"Ranger & Rover","59":"Ranger\/Rover","10":"Schulung\/Kurs","2":"Stamm","9":"Stufenkonferenz","881":"Teamer Starter Training","38":"Truppstunde","6":"Vorst\u00e4nde"},"Forced_Kategories":{"sections\/leaders":{"886":"Vorgruppe","16":"W\u00f6lflinge","17":"Jungpfadfinder","18":"Pfadfinder","19":"Rover","20":"Leiter"},"DPSG-Ausbildung":{"476":"Einstieg Schritt 1","179":"Einstieg Schritt 2","331":"Baustein 1 a","330":"Baustein 1 b","477":"Baustein 1 c","865":"Baustein 1 d","478":"Baustein 2 a","479":"Baustein 2 b","333":"Baustein 2 c","480":"Baustein 2 d","820":"Baustein 2 e","332":"Baustein 3 a","328":"Baustein 3 b","481":"Baustein 3 c","483":"Baustein 3 e","484":"Baustein 3 f","485":"Woodbadgekurs","36":"Ausbildungstagung","486":"Modulleitungstraining (MLT)","701":"Teamer-Training I","702":"Teamer-Training II","489":"Assistent Leader Training (ALT)","897":"Fort-\/Weiterbildung"}}}},"EVENT_792":{"type":"event","content":{"ID":792,"UID":792,"SSID":"4","Title":"Bezirksvorst\u00e4ndestreffen","Organizer":"","Target_Group":"","Start":"984684600","End":"984684600","All_Day":false,"ZIP":"","Location":"","URL_Text":"","URL":"","Description":"im Di\u00f6zesanzentrum Rolandstra\u00dfe\n\n(Autor: Webteam (mfl))","Stufen":[16,17,18,19,20],"Keywords":{"1":"Sonstiges"},"Kalender":"4","Last_Modified_By":"kalender-1.0","Last_Modified_At":"1058229629","Created_By":"kalender-1.0","Created_At":"1058229629"}}},"[4,{\"index\":{\"deeps\":\"2\"}}]":{"IDX_4":{"type":"index","content":{"id":"4","number":"10\/00\/00","ebene":"Di\u00f6zese","name":"K\u00f6ln","ort":"K\u00f6ln-S\u00fcdstadt","plz":"50677","url":"www.dpsg-koeln.de\/","latitude":"50.918823633","longitude":"6.9568240642","parent_id":"2618"}},"IDX_5":{"type":"index","content":{"id":"5","number":"10\/01\/00","ebene":"Bezirk","name":"Bergisch Land","ort":"Solingen-Mangenberg","plz":"42655","url":"www.dpsgbergischland.de\/","latitude":"51.177457042","longitude":"7.0720550716","parent_id":"4"}},"IDX_384":{"type":"index","content":{"id":"384","number":"10\/01\/01","ebene":"Stamm","name":"von Berg","ort":"Solingen-Ohligs-Aufderh\u00f6he","plz":"42697","url":"gemeinden.erzbistum-koeln.de\/st_joseph_solingen\/kinder_und_jugend\/pfadfinder.html","latitude":"51.157452","longitude":"7.001825","parent_id":"5"}},"IDX_1254":{"type":"index","content":{"id":"1254","number":"10\/01\/02","ebene":"Stamm","name":"Gallier","ort":"Wuppertal-Barmen","plz":"42281","url":"www.dpsg-wuppertal.org\/","latitude":"51.294253","longitude":"7.197412","parent_id":"5"}},"IDX_431":{"type":"index","content":{"id":"431","number":"10\/01\/03","ebene":"Stamm","name":"Sugambrer","ort":"Solingen-H\u00f6hscheid","plz":"42657","url":"www.pfadfinder-weeg.de\/","latitude":"51.160435728","longitude":"7.0759603679","parent_id":"5"}},"IDX_249":{"type":"index","content":{"id":"249","number":"10\/01\/04","ebene":"Stamm","name":"Gravenrode","ort":"Solingen-Gr\u00e4frath","plz":"42653","url":"www.gravenrode.de\/","latitude":"51.209273","longitude":"7.072249","parent_id":"5"}},"IDX_27":{"type":"index","content":{"id":"27","number":"10\/01\/05","ebene":"Stamm","name":"Silva","ort":"Solingen-Wald","plz":"42719","url":"www.stamm-silva.de\/","latitude":"51.180620","longitude":"7.033630","parent_id":"5"}},"IDX_70":{"type":"index","content":{"id":"70","number":"10\/01\/06","ebene":"Stamm","name":"Lennep","ort":"Remscheid-Lennep","plz":"42897","url":"www.dpsg-lennep.de\/","latitude":"51.194515104","longitude":"7.2617120150","parent_id":"5"}},"IDX_7":{"type":"index","content":{"id":"7","number":"10\/01\/08","ebene":"Stamm","name":"Tenkterer","ort":"Solingen-L\u00f6hdorf","plz":"42699","url":"www.stamm-tenkterer.de\/","latitude":"51.149492485","longitude":"7.0177805721","parent_id":"5"}},"IDX_6":{"type":"index","content":{"id":"6","number":"10\/01\/09","ebene":"Stamm","name":"Gandalf","ort":"Solingen-Mangenberg","plz":"42655","url":"www.gandalf.wtal.de\/","latitude":"51.177457042","longitude":"7.0720550716","parent_id":"5"}},"IDX_8":{"type":"index","content":{"id":"8","number":"10\/03\/00","ebene":"Bezirk","name":"D\u00fcsseldorf","ort":"","plz":"40219","url":"www.dpsg-duesseldorf.de\/","latitude":"51.22807","longitude":"6.771171","parent_id":"4"}},"IDX_2343":{"type":"index","content":{"id":"2343","number":"10\/03\/01","ebene":"Stamm","name":"Castanea","ort":"Langenfeld (Rheinland)","plz":"40764","url":"www.stamm-castanea.de\/","latitude":"51.110733","longitude":"6.951292","parent_id":"8"}},"IDX_1444":{"type":"index","content":{"id":"1444","number":"10\/03\/02","ebene":"Stamm","name":"Franz von Assisi","ort":"Erkrath-Hochdahl","plz":"40699","url":"www.dpsg-hochdahl.de\/","latitude":"51.210769","longitude":"6.948375","parent_id":"8"}},"IDX_67":{"type":"index","content":{"id":"67","number":"10\/03\/03","ebene":"Stamm","name":"L\u00f6rick","ort":"D\u00fcsseldorf-L\u00f6rick","plz":"40547","url":"www.stamm-loerick.de\/","latitude":"51.245278","longitude":"6.722611","parent_id":"8"}},"IDX_13":{"type":"index","content":{"id":"13","number":"10\/03\/04","ebene":"Stamm","name":"Gerrich","ort":"D\u00fcsseldorf-Gerresheim","plz":"40625","url":"www.gerrich.de\/","latitude":"51.23704","longitude":"6.863155","parent_id":"8"}},"IDX_2459":{"type":"index","content":{"id":"2459","number":"10\/03\/06","ebene":"Stamm","name":"Vennhausen","ort":"D\u00fcsseldorf-Vennhausen","plz":"40627","url":"www.dpsg-vennhausen.de\/","latitude":"51.217446","longitude":"6.863659","parent_id":"8"}},"IDX_1220":{"type":"index","content":{"id":"1220","number":"10\/03\/07","ebene":"Stamm","name":"St. Martin","ort":"Langenfeld (Rheinland)-Richrath","plz":"40764","url":"gemeinden.erzbistum-koeln.de\/kklangenfeld\/_orte_kirchl_lebens\/okl_martin\/8500_Martin_Pfadfinder.html","latitude":"51.129652","longitude":"6.944526","parent_id":"8"}},"IDX_1154":{"type":"index","content":{"id":"1154","number":"10\/03\/08","ebene":"Stamm","name":"Hohenstaufen","ort":"D\u00fcsseldorf-Bilk","plz":"40223","url":"www.dpsg-hohenstaufen-bilk.de\/","latitude":"51.204003","longitude":"6.781842","parent_id":"8"}},"IDX_1768":{"type":"index","content":{"id":"1768","number":"10\/03\/10","ebene":"Stamm","name":"Anton","ort":"D\u00fcsseldorf","plz":"40210","url":"","latitude":"51.213058","longitude":"6.787539","parent_id":"8"}},"IDX_119":{"type":"index","content":{"id":"119","number":"10\/03\/12","ebene":"Stamm","name":"St. Bruno","ort":"D\u00fcsseldorf-Unterrath","plz":"40468","url":"www.brunopfadis.de\/","latitude":"51.266123","longitude":"6.775426","parent_id":"8"}},"IDX_61":{"type":"index","content":{"id":"61","number":"10\/03\/16","ebene":"Stamm","name":"Winfried","ort":"D\u00fcsseldorf-Bilk","plz":"40223","url":"www.stamm-winfried.de\/","latitude":"51.203599","longitude":"6.764754","parent_id":"8"}},"IDX_478":{"type":"index","content":{"id":"478","number":"10\/03\/19","ebene":"Stamm","name":"Erkrath","ort":"Erkrath","plz":"40699","url":"www.dpsg-erkrath.de\/","latitude":"51.222045","longitude":"6.913547","parent_id":"8"}},"IDX_3437":{"type":"index","content":{"id":"3437","number":"10\/03\/11","ebene":"Stamm","name":"Hilden","ort":"Hilden","plz":"40721","url":"","latitude":"51.170007","longitude":"6.939619","parent_id":"8"}},"IDX_17":{"type":"index","content":{"id":"17","number":"10\/04\/00","ebene":"Bezirk","name":"Erft","ort":"Frechen-K\u00f6nigsdorf","plz":"50226","url":"www.dpsg-erft.de\/","latitude":"50.937174954","longitude":"6.7756301164","parent_id":"4"}},"IDX_2311":{"type":"index","content":{"id":"2311","number":"10\/04\/01","ebene":"Stamm","name":"von Merode","ort":"Kerpen (Rheinl)-Horrem","plz":"50169","url":"www.dpsghorrem.de\/","latitude":"50.911861593","longitude":"6.7103344202","parent_id":"17"}},"IDX_103":{"type":"index","content":{"id":"103","number":"10\/04\/02","ebene":"Stamm","name":"Pulheim","ort":"Pulheim","plz":"50259","url":"www.dpsg-pulheim.de\/","latitude":"51.000531","longitude":"6.798209","parent_id":"17"}},"IDX_332":{"type":"index","content":{"id":"332","number":"10\/04\/04","ebene":"Stamm","name":"Kurf\u00fcrst","ort":"Br\u00fchl","plz":"50321","url":"www.stamm-kurfuerst.de\/","latitude":"50.835960816","longitude":"6.9078898430","parent_id":"17"}},"IDX_1907":{"type":"index","content":{"id":"1907","number":"10\/04\/05","ebene":"Stamm","name":"Reuschenberg","ort":"Elsdorf","plz":"50189","url":"www.dpsg-elsdorf.de","latitude":"50.937394686","longitude":"6.5692985057","parent_id":"17"}},"IDX_18":{"type":"index","content":{"id":"18","number":"10\/04\/06","ebene":"Stamm","name":"Hildebold","ort":"Frechen-K\u00f6nigsdorf","plz":"50226","url":"www.dpsg-koenigsdorf.de\/","latitude":"50.937479198","longitude":"6.7756891250","parent_id":"17"}},"IDX_2011":{"type":"index","content":{"id":"2011","number":"10\/04\/07","ebene":"Stamm","name":"Bernhard von Clairvaux","ort":"Pulheim-Brauweiler","plz":"50259","url":"www.dpsg-brauweiler.de\/","latitude":"50.959632997","longitude":"6.7849963903","parent_id":"17"}},"IDX_2056":{"type":"index","content":{"id":"2056","number":"10\/04\/08","ebene":"Stamm","name":"Gl\u00fcckauf","ort":"Kerpen-Neu Bottenbroich","plz":"50169","url":"www.neubottenbroich.de\/","latitude":"50.916191","longitude":"6.726927","parent_id":"17"}},"IDX_180":{"type":"index","content":{"id":"180","number":"10\/04\/10","ebene":"Stamm","name":"Maximilian Kolbe","ort":"Pulheim-Sinnersdorf","plz":"50259","url":"www.dpsg-sinnersdorf.de\/","latitude":"51.024318","longitude":"6.815792","parent_id":"17"}},"IDX_152":{"type":"index","content":{"id":"152","number":"10\/04\/12","ebene":"Stamm","name":"St. Quirinus","ort":"Kerpen-M\u00f6drath","plz":"50171","url":"gemeinden.erzbistum-koeln.de\/seelsorgebereich_kerpen_sued_west\/dpsg\/index.html","latitude":"50.875774885","longitude":"6.6978406906","parent_id":"17"}},"IDX_151":{"type":"index","content":{"id":"151","number":"10\/04\/13","ebene":"Stamm","name":"Las Casas","ort":"Erftstadt-Liblar","plz":"50374","url":"www.dpsg-liblar.de\/","latitude":"50.807335469","longitude":"6.8299857081","parent_id":"17"}},"IDX_2652":{"type":"index","content":{"id":"2652","number":"10\/04\/16","ebene":"Stamm","name":"Bedburg-Kaster","ort":"Bedburg-Kaster","plz":"50181","url":"www.dpsg-kaster.de\/","latitude":"51.00417","longitude":"6.54948","parent_id":"17"}},"IDX_144":{"type":"index","content":{"id":"144","number":"10\/05\/00","ebene":"Bezirk","name":"K\u00f6ln Linksrheinisch","ort":"K\u00f6ln","plz":"","url":"www.dpsgk\u00f6ln.de\/","latitude":"","longitude":"","parent_id":"4"}},"IDX_145":{"type":"index","content":{"id":"145","number":"10\/05\/01","ebene":"Stamm","name":"Rochus Spiecker","ort":"Br\u00fchl-Schwadorf","plz":"50321","url":"www.rochus-spiecker.de\/","latitude":"50.802650","longitude":"6.916720","parent_id":"144"}},"IDX_230":{"type":"index","content":{"id":"230","number":"10\/05\/03","ebene":"Stamm","name":"Gilwell","ort":"K\u00f6ln-Worringen","plz":"50769","url":"www.stamm-gilwell.de\/","latitude":"51.063900","longitude":"6.864770","parent_id":"144"}},"IDX_2228":{"type":"index","content":{"id":"2228","number":"10\/05\/04","ebene":"Stamm","name":"Edith Stein","ort":"K\u00f6ln-S\u00fclz","plz":"50937","url":"www.pfadfinder-suelz.de\/","latitude":"50.918889579","longitude":"6.9267833232","parent_id":"144"}},"IDX_1215":{"type":"index","content":{"id":"1215","number":"10\/05\/06","ebene":"Stamm","name":"Dom H\u00e9lder C\u00e2mara","ort":"K\u00f6ln-Kriel","plz":"50935","url":"www.helder-camara.de\/","latitude":"50.920034756","longitude":"6.9071987754","parent_id":"144"}},"IDX_501":{"type":"index","content":{"id":"501","number":"10\/05\/08","ebene":"Stamm","name":"St. Walburga","ort":"Bornheim (Rheinl)-Walberberg","plz":"53332","url":"www.dpsg-walberberg.de\/","latitude":"50.793241","longitude":"6.910298","parent_id":"144"}},"IDX_690":{"type":"index","content":{"id":"690","number":"10\/05\/09","ebene":"Stamm","name":"St. Katharina von Siena","ort":"K\u00f6ln-Blumenberg","plz":"50765","url":"","latitude":"51.037147","longitude":"6.885916","parent_id":"144"}},"IDX_306":{"type":"index","content":{"id":"306","number":"10\/05\/10","ebene":"Stamm","name":"St. Franziskus","ort":"Bornheim (Rheinl)-Hersel","plz":"53332","url":"","latitude":"50.77442","longitude":"7.045642","parent_id":"144"}},"IDX_2609":{"type":"index","content":{"id":"2609","number":"10\/05\/11","ebene":"Stamm","name":"Rondorf","ort":"K\u00f6ln-Rondorf","plz":"50997","url":"www.rumenthorp.de\/","latitude":"","longitude":"","parent_id":"144"}},"IDX_532":{"type":"index","content":{"id":"532","number":"10\/05\/18","ebene":"Stamm","name":"St. Markus","ort":"K\u00f6ln-Seeberg","plz":"50767","url":"www.stamm-st-markus.de","latitude":"51.01438","longitude":"6.912778","parent_id":"144"}},"IDX_3438":{"type":"index","content":{"id":"3438","number":"10\/05\/19","ebene":"Stamm","name":"St. Pankratius","ort":"K\u00f6ln-Junkersdorf","plz":"50858","url":"http:\/\/www.pfadfinder-junkersdorf.de\/","latitude":"50.932374","longitude":"6.856305","parent_id":"144"}},"IDX_301":{"type":"index","content":{"id":"301","number":"10\/06\/00","ebene":"Bezirk","name":"Rhein-Erft","ort":"","plz":"41515","url":"www.bezirk-rhein-erft.de\/","latitude":"","longitude":"","parent_id":"4"}},"IDX_2316":{"type":"index","content":{"id":"2316","number":"10\/06\/02","ebene":"Stamm","name":"Malteser","ort":"Neuss-Dreik\u00f6nigenviertel","plz":"41464","url":"www.dpsg-malteser.de\/","latitude":"51.1894563","longitude":"6.6906529","parent_id":"301"}},"IDX_1558":{"type":"index","content":{"id":"1558","number":"10\/06\/03","ebene":"Stamm","name":"Greifen","ort":"Dormagen-Delrath","plz":"41542","url":"www.stamm-greifen.de\/","latitude":"51.1285329","longitude":"6.7871592","parent_id":"301"}},"IDX_300":{"type":"index","content":{"id":"300","number":"10\/06\/04","ebene":"Stamm","name":"Deutschritter","ort":"Grevenbroich-Gustorf","plz":"41517","url":"www.dpsg-gustorf.de\/","latitude":"51.071499","longitude":"6.567246","parent_id":"301"}},"IDX_1097":{"type":"index","content":{"id":"1097","number":"10\/06\/06","ebene":"Stamm","name":"St. Josef","ort":"Grevenbroich-S\u00fcdstadt","plz":"41515","url":"www.dpsg-grevenbroich.de\/","latitude":"51.0804754","longitude":"6.6043004","parent_id":"301"}},"IDX_407":{"type":"index","content":{"id":"407","number":"10\/06\/09","ebene":"Stamm","name":"Alfred Delp","ort":"Neuss-Weckhoven","plz":"41466","url":"www.dpsg-neuss.de\/","latitude":"51.156215","longitude":"6.6985121","parent_id":"301"}},"IDX_10":{"type":"index","content":{"id":"10","number":"10\/07\/00","ebene":"Bezirk","name":"Niederberg","ort":"","plz":"42553","url":"www.bezirk-niederberg.de\/","latitude":"","longitude":"","parent_id":"4"}},"IDX_52":{"type":"index","content":{"id":"52","number":"10\/07\/01","ebene":"Stamm","name":"Kizito","ort":"Ratingen-West","plz":"40880","url":"www.dpsg-kizito.de\/","latitude":"51.29272","longitude":"6.822687","parent_id":"10"}},"IDX_9":{"type":"index","content":{"id":"9","number":"10\/07\/02","ebene":"Stamm","name":"Hardenberg","ort":"Velbert-Neviges","plz":"42553","url":"www.dpsg-hardenberg.de","latitude":"51.317283","longitude":"7.08605","parent_id":"10"}},"IDX_1554":{"type":"index","content":{"id":"1554","number":"10\/07\/03","ebene":"Stamm","name":"Heiligenhaus","ort":"Heiligenhaus (b Velbert)","plz":"42579","url":"www.pfadfinder-heiligenhaus.de\/","latitude":"51.326669721","longitude":"6.9738775491","parent_id":"10"}},"IDX_12":{"type":"index","content":{"id":"12","number":"10\/07\/04","ebene":"Stamm","name":"Mettmann","ort":"Mettmann","plz":"40822","url":"www.dpsg-mettmann.de\/","latitude":"51.253401105","longitude":"6.9772410392","parent_id":"10"}},"IDX_1101":{"type":"index","content":{"id":"1101","number":"10\/07\/05","ebene":"Stamm","name":"Franken","ort":"W\u00fclfrath","plz":"42489","url":"www.dpsg-wuelfrath.de\/","latitude":"51.280330171","longitude":"7.0294475555","parent_id":"10"}},"IDX_87":{"type":"index","content":{"id":"87","number":"10\/07\/06","ebene":"Stamm","name":"Wikinger Lintorf","ort":"Ratingen-Lintorf","plz":"40885","url":"www.dpsg-lintorf.de\/","latitude":"51.333270899","longitude":"6.8337270767","parent_id":"10"}},"IDX_19":{"type":"index","content":{"id":"19","number":"10\/07\/10","ebene":"Stamm","name":"Kattwiga","ort":"Essen-Kettwig","plz":"45219","url":"www.dpsg-kattwiga.de\/","latitude":"51.374893496","longitude":"6.9404455684","parent_id":"10"}},"IDX_3413":{"type":"index","content":{"id":"3413","number":"10\/07\/07","ebene":"Stamm","name":"Siedlung Velbert","ort":"Velbert","plz":"42551","url":"","latitude":"","longitude":"","parent_id":"10"}},"IDX_2114":{"type":"index","content":{"id":"2114","number":"10\/09\/00","ebene":"Bezirk","name":"Sieg","ort":"","plz":"53797","url":"www.dpsg-sieg.de\/","latitude":"","longitude":"","parent_id":"4"}},"IDX_947":{"type":"index","content":{"id":"947","number":"10\/09\/01","ebene":"Stamm","name":"St. Anno","ort":"Siegburg","plz":"53721","url":"www.dpsg-siegburg.de\/","latitude":"50.804562","longitude":"7.190175","parent_id":"2114"}},"IDX_1076":{"type":"index","content":{"id":"1076","number":"10\/09\/02","ebene":"Stamm","name":"Exodus","ort":"Siegburg-Kaldauen","plz":"53721","url":"www.dpsg-kaldauen.de\/","latitude":"50.804174","longitude":"7.26169","parent_id":"2114"}},"IDX_2136":{"type":"index","content":{"id":"2136","number":"10\/09\/03","ebene":"Stamm","name":"Franziskus","ort":"Niederkassel-L\u00fclsdorf-Ranzel","plz":"53859","url":"","latitude":"50.829322","longitude":"7.01231","parent_id":"2114"}},"IDX_1452":{"type":"index","content":{"id":"1452","number":"10\/09\/04","ebene":"Stamm","name":"St. Johannes","ort":"Troisdorf-Sieglar","plz":"53844","url":"www.ffk-dpsg.de\/","latitude":"50.799674","longitude":"7.126478","parent_id":"2114"}},"IDX_1603":{"type":"index","content":{"id":"1603","number":"10\/09\/05","ebene":"Stamm","name":"St. Johannes","ort":"Lohmar (Rheinl)","plz":"53797","url":"www.dpsg-lohmar.de\/","latitude":"50.840990","longitude":"7.20524","parent_id":"2114"}},"IDX_1471":{"type":"index","content":{"id":"1471","number":"10\/09\/06","ebene":"Stamm","name":"Roncalli","ort":"Niederkassel (Rhein)","plz":"53859","url":"www.stamm-roncalli.de\/","latitude":"50.810851","longitude":"7.035567","parent_id":"2114"}},"IDX_2288":{"type":"index","content":{"id":"2288","number":"10\/09\/12","ebene":"Stamm","name":"Sankt Augustin Menden","ort":"Sankt Augustin-Menden","plz":"53757","url":"","latitude":"50.792062","longitude":"7.158493","parent_id":"2114"}},"IDX_712":{"type":"index","content":{"id":"712","number":"10\/09\/20","ebene":"Stamm","name":"Ichtys Neuhonrath","ort":"Lohmar-Neuhonrath","plz":"53797","url":"www.stamm-ichtys.org\/","latitude":"50.901154","longitude":"7.27529","parent_id":"2114"}},"IDX_109":{"type":"index","content":{"id":"109","number":"10\/09\/21","ebene":"Stamm","name":"St. Felicitas","ort":"Gummersbach","plz":"51643","url":"www.dpsg-gummersbach.de\/","latitude":"51.026365","longitude":"7.568764","parent_id":"2114"}},"IDX_3533":{"type":"index","content":{"id":"3533","number":"10\/09\/09","ebene":"Stamm","name":"Albatros Spich","ort":"","plz":"","url":"","latitude":"","longitude":"","parent_id":"2114"}},"IDX_2024":{"type":"index","content":{"id":"2024","number":"10\/10\/00","ebene":"Bezirk","name":"Voreifel","ort":"","plz":"50667","url":"","latitude":"","longitude":"","parent_id":"4"}},"IDX_1208":{"type":"index","content":{"id":"1208","number":"10\/10\/01","ebene":"Stamm","name":"Kreuzritter","ort":"Euskirchen","plz":"53881","url":"www.dpsg-eu.eu\/","latitude":"50.662275135","longitude":"6.7912673950","parent_id":"2024"}},"IDX_2584":{"type":"index","content":{"id":"2584","number":"10\/10\/03","ebene":"Stamm","name":"Antoine de Saint-Exup\u00e9ry","ort":"Rheinbach","plz":"53359","url":"www.kallenturm.de\/","latitude":"50.626059965","longitude":"6.9512879848","parent_id":"2024"}},"IDX_2174":{"type":"index","content":{"id":"2174","number":"10\/10\/04","ebene":"Stamm","name":"Swabidua","ort":"Meckenheim","plz":"53340","url":"","latitude":"50.625944260","longitude":"7.0253276824","parent_id":"2024"}},"IDX_1783":{"type":"index","content":{"id":"1783","number":"10\/10\/05","ebene":"Stamm","name":"Carpe diem","ort":"Euskirchen-Euenheim","plz":"53881","url":"","latitude":"50.653641","longitude":"6.751012","parent_id":"2024"}},"IDX_2312":{"type":"index","content":{"id":"2312","number":"10\/10\/06","ebene":"Stamm","name":"Heimerzheim","ort":"Swisttal-Heimerzheim","plz":"53913","url":"","latitude":"50.716841061","longitude":"6.9164085388","parent_id":"2024"}},"IDX_1251":{"type":"index","content":{"id":"1251","number":"10\/10\/07","ebene":"Stamm","name":"St. Quirinus","ort":"Z\u00fclpich","plz":"53909","url":"","latitude":"50.691360392","longitude":"6.6530585289","parent_id":"2024"}},"IDX_1952":{"type":"index","content":{"id":"1952","number":"10\/10\/08","ebene":"Stamm","name":"St. Hubertus","ort":"Euskirchen-Stotzheim","plz":"53881","url":"www.dpsg-stotzheim.de\/","latitude":"50.629701113","longitude":"6.8117809295","parent_id":"2024"}},"IDX_2546":{"type":"index","content":{"id":"2546","number":"10\/12\/00","ebene":"Bezirk","name":"Bonn","ort":"Bonn","plz":"53175","url":"www.dpsg-bonn.de\/","latitude":"","longitude":"","parent_id":"4"}},"IDX_1447":{"type":"index","content":{"id":"1447","number":"10\/12\/01","ebene":"Stamm","name":"St. Rochus","ort":"Bonn-Hardtberg","plz":"53123","url":"duisdorf.dpsg-bonn.de\/","latitude":"50.71402","longitude":"7.04681","parent_id":"2546"}},"IDX_1977":{"type":"index","content":{"id":"1977","number":"10\/12\/02","ebene":"Stamm","name":"Graf Galen","ort":"Bonn-Friesdorf","plz":"53175","url":"www.dpsg-badgodesberg.de\/","latitude":"50.69594","longitude":"7.12611","parent_id":"2546"}},"IDX_1016":{"type":"index","content":{"id":"1016","number":"10\/12\/03","ebene":"Stamm","name":"Ph\u00f6nix","ort":"Bonn-Stadtmitte","plz":"53111","url":"www.dpsg-phoenix.net\/","latitude":"50.737980","longitude":"7.089270","parent_id":"2546"}},"IDX_2318":{"type":"index","content":{"id":"2318","number":"10\/12\/04","ebene":"Stamm","name":"Sugambrer Bonn-Beuel","ort":"Bonn-Beuel","plz":"53225","url":"www.pfadfinder-beuel.de\/","latitude":"50.736717","longitude":"7.117840","parent_id":"2546"}},"IDX_68":{"type":"index","content":{"id":"68","number":"10\/13\/00","ebene":"Bezirk","name":"Siebengebirge","ort":"K\u00f6nigswinter-Thomasberg","plz":"53639","url":"www.dpsg-siebengebirge.de\/","latitude":"50.706356019","longitude":"7.2493562867","parent_id":"4"}},"IDX_530":{"type":"index","content":{"id":"530","number":"10\/13\/15","ebene":"Stamm","name":"St. Georg","ort":"Waldbr\u00f6l","plz":"51545","url":"www.dpsg-waldbroel.de\/","latitude":"50.876462","longitude":"7.614715","parent_id":"68"}},"IDX_281":{"type":"index","content":{"id":"281","number":"10\/13\/01","ebene":"Stamm","name":"Heisterbacherrott","ort":"K\u00f6nigswinter-Thomasberg","plz":"53639","url":"www.dpsg-heisterbacherrott.de\/","latitude":"50.699169141","longitude":"7.2464060783","parent_id":"68"}},"IDX_1368":{"type":"index","content":{"id":"1368","number":"10\/13\/02","ebene":"Stamm","name":"Sugambrer","ort":"Hennef-Warth","plz":"53721","url":"www.sugambrer.de\/","latitude":"","longitude":"","parent_id":"68"}},"IDX_1182":{"type":"index","content":{"id":"1182","number":"10\/13\/03","ebene":"Stamm","name":"Idubag K\u00f6nigswinter-Ittenbach","ort":"K\u00f6nigswinter-Ittenbach","plz":"53639","url":"dpsg-ittenbach.de","latitude":"50.682133","longitude":"7.272056","parent_id":"68"}},"IDX_1001":{"type":"index","content":{"id":"1001","number":"10\/13\/04","ebene":"Stamm","name":"Ruppichterroth","ort":"Ruppichterroth","plz":"53809","url":"","latitude":"","longitude":"","parent_id":"68"}},"IDX_216":{"type":"index","content":{"id":"216","number":"10\/13\/05","ebene":"Stamm","name":"Winterscheid","ort":"Ruppichteroth-Winterscheid","plz":"53809","url":"www.dpsg-winterscheid.de\/","latitude":"50.814987","longitude":"7.377837","parent_id":"68"}},"IDX_850":{"type":"index","content":{"id":"850","number":"10\/13\/06","ebene":"Stamm","name":"Isenburg","ort":"Walterschen","plz":"57632","url":"www.dpsg-isenburg.de\/","latitude":"","longitude":"","parent_id":"68"}},"IDX_1171":{"type":"index","content":{"id":"1171","number":"10\/13\/07","ebene":"Stamm","name":"Terra Nova","ort":"Rheinbreitbach","plz":"53619","url":"dpsg-rheinbreitbach.de.vu\/","latitude":"50.617671","longitude":"7.229829","parent_id":"68"}},"IDX_69":{"type":"index","content":{"id":"69","number":"10\/13\/08","ebene":"Stamm","name":"Romero","ort":"K\u00f6nigswinter-Stieldorf","plz":"53639","url":"www.stamm-romero.de\/","latitude":"50.730826","longitude":"7.220779","parent_id":"68"}},"IDX_1634":{"type":"index","content":{"id":"1634","number":"10\/13\/09","ebene":"Stamm","name":"Oberpleis","ort":"K\u00f6nigswinter-Oberpleis","plz":"53639","url":"www.dpsgoberpleis.de\/","latitude":"50.708968","longitude":"7.278312","parent_id":"68"}},"IDX_417":{"type":"index","content":{"id":"417","number":"10\/13\/10","ebene":"Stamm","name":"Edelweiss","ort":"Neunkirchen-Seelscheid","plz":"53819","url":"www.pfadfinder-seelscheid.de\/","latitude":"","longitude":"","parent_id":"68"}},"IDX_908":{"type":"index","content":{"id":"908","number":"10\/13\/13","ebene":"Stamm","name":"Shamrock","ort":"Eitorf","plz":"53783","url":"www.dpsg-eitorf.de\/","latitude":"","longitude":"","parent_id":"68"}},"IDX_130":{"type":"index","content":{"id":"130","number":"10\/14\/00","ebene":"Bezirk","name":"Rhein-Berg","ort":"","plz":"51107","url":"www.dpsg-rhein-berg.de\/","latitude":"","longitude":"","parent_id":"4"}},"IDX_250":{"type":"index","content":{"id":"250","number":"10\/14\/14","ebene":"Stamm","name":"St. Engelbert","ort":"Wipperf\u00fcrth","plz":"51688","url":"www.dpsg-wipperfuerth.de\/","latitude":"51.118364770","longitude":"7.3990351259","parent_id":"130"}},"IDX_267":{"type":"index","content":{"id":"267","number":"10\/14\/01","ebene":"Stamm","name":"Johannes Bosco","ort":"K\u00f6ln-Rath\/Heumar","plz":"51107","url":"http:\/\/dpsg-rath-heumar.de\/jugendheim\/jugendheim-st-georg-e-v\/","latitude":"50.917464","longitude":"7.093399","parent_id":"130"}},"IDX_973":{"type":"index","content":{"id":"973","number":"10\/14\/02","ebene":"Stamm","name":"Impeesa","ort":"K\u00f6ln-Porz-Urbach","plz":"51145","url":"www.dpsg-impeesa-porz.de\/","latitude":"","longitude":"","parent_id":"130"}},"IDX_131":{"type":"index","content":{"id":"131","number":"10\/14\/03","ebene":"Stamm","name":"Hohenstaufen","ort":"K\u00f6ln-Kalk","plz":"51103","url":"www.dpsg-koeln-kalk.de\/","latitude":"50.938727","longitude":"7.009658","parent_id":"130"}},"IDX_2143":{"type":"index","content":{"id":"2143","number":"10\/14\/04","ebene":"Stamm","name":"Ostgoten","ort":"K\u00f6ln-Br\u00fcck","plz":"51109","url":"www.dpsg-brueck.de\/","latitude":"50.945342","longitude":"7.080323","parent_id":"130"}},"IDX_1541":{"type":"index","content":{"id":"1541","number":"10\/14\/05","ebene":"Stamm","name":"St. Adelheid","ort":"K\u00f6ln-Neubr\u00fcck","plz":"51109","url":"www.dpsg-st-adelheid.de\/","latitude":"50.934667","longitude":"7.060335","parent_id":"130"}},"IDX_391":{"type":"index","content":{"id":"391","number":"10\/14\/06","ebene":"Stamm","name":"Gilwell","ort":"K\u00f6ln-Stammheim","plz":"51061","url":"www.stammgilwell.de\/","latitude":"50.987115","longitude":"6.985925","parent_id":"130"}},"IDX_1409":{"type":"index","content":{"id":"1409","number":"10\/14\/07","ebene":"Stamm","name":"St. Laurentius","ort":"K\u00f6ln-Ensen","plz":"51149","url":"www.pfadfinder-ensen.de\/","latitude":"50.897599","longitude":"7.035074","parent_id":"130"}},"IDX_1605":{"type":"index","content":{"id":"1605","number":"10\/14\/08","ebene":"Stamm","name":"Ommerborn","ort":"Bensberg","plz":"51429","url":"www.dpsgbensberg.de\/","latitude":"50.951165","longitude":"7.131492","parent_id":"130"}},"IDX_1523":{"type":"index","content":{"id":"1523","number":"10\/14\/09","ebene":"Stamm","name":"Widukind","ort":"Bergisch Gladbach-Refrath","plz":"51427","url":"www.dpsg-refrath.de\/","latitude":"50.958283","longitude":"7.117087","parent_id":"130"}},"IDX_2263":{"type":"index","content":{"id":"2263","number":"10\/14\/10","ebene":"Stamm","name":"Woodstock","ort":"Leverkusen","plz":"51377","url":"www.stamm-woodstock.de\/","latitude":"","longitude":"","parent_id":"130"}},"IDX_1917":{"type":"index","content":{"id":"1917","number":"10\/14\/11","ebene":"Stamm","name":"Gezelin","ort":"Leverkusen-Schlebusch","plz":"51375","url":"www.stamm-gezelin.de\/","latitude":"51.034808","longitude":"7.051328","parent_id":"130"}},"IDX_3379":{"type":"index","content":{"id":"3379","number":"10\/14\/12","ebene":"Stamm","name":"Heideland","ort":"K\u00f6ln-H\u00f6henberg","plz":"51103","url":"dpsg.hoevi.info\/","latitude":"50.941537","longitude":"7.027532","parent_id":"130"}},"IDX_3399":{"type":"index","content":{"id":"3399","number":"10\/14\/13","ebene":"Stamm","name":"Wippera","ort":"Leichlingen","plz":"42799","url":"www.wippera.org\/","latitude":"51.106769","longitude":"7.017307","parent_id":"130"}}},"[4,{\"events\":{\"event_ids\":[792]}}]":{"USER_kalender-1.0":{"type":"user","content":{"userid":"kalender-1.0","firstname":"Kalender","surname":"1.0","sex":"m"}},"STUFE_16":{"type":"stufe","content":{"id":1,"verband":2,"bezeichnung":"W\u00f6lflinge","farbe":"#FF8000","startalter":7,"endalter":10,"Keywords_ID":16}},"STUFE_17":{"type":"stufe","content":{"id":2,"verband":2,"bezeichnung":"Jungpfadfinder","farbe":"#0080FF","startalter":10,"endalter":13,"Keywords_ID":17}},"STUFE_18":{"type":"stufe","content":{"id":3,"verband":2,"bezeichnung":"Pfadfinder","farbe":"#00C000","startalter":13,"endalter":16,"Keywords_ID":18}},"STUFE_19":{"type":"stufe","content":{"id":4,"verband":2,"bezeichnung":"Rover","farbe":"#FF0000","startalter":16,"endalter":20,"Keywords_ID":19}},"STUFE_20":{"type":"stufe","content":{"id":5,"verband":2,"bezeichnung":"Leiter","farbe":"#FFFF80","startalter":18,"endalter":255,"Keywords_ID":20}},"KALENDER_4":{"type":"kalender","content":{"ID":"4","Ebene":"Di\u00f6zese","Name":"K\u00f6ln","Verband":"DPSG","Ident":"Di\u00f6zesanverband K\u00f6ln","Ebene_Id":7,"Used_Kategories":{"858":"AGMedien","4":"Aktion","882":"Bausteinwochenende","7":"Bezirksleitung","12":"Di\u00f6zesanleitung","3":"Fahrt\/Lager","105":"Freunde und F\u00f6rderer","5":"Gemeinde","11":"Gremium\/AK","182":"Gruppenstunde","810":"Jamb","43":"Leiterrunde","125":"Ranger & Rover","59":"Ranger\/Rover","10":"Schulung\/Kurs","2":"Stamm","9":"Stufenkonferenz","881":"Teamer Starter Training","38":"Truppstunde","6":"Vorst\u00e4nde"},"Forced_Kategories":{"sections\/leaders":{"886":"Vorgruppe","16":"W\u00f6lflinge","17":"Jungpfadfinder","18":"Pfadfinder","19":"Rover","20":"Leiter"},"DPSG-Ausbildung":{"476":"Einstieg Schritt 1","179":"Einstieg Schritt 2","331":"Baustein 1 a","330":"Baustein 1 b","477":"Baustein 1 c","865":"Baustein 1 d","478":"Baustein 2 a","479":"Baustein 2 b","333":"Baustein 2 c","480":"Baustein 2 d","820":"Baustein 2 e","332":"Baustein 3 a","328":"Baustein 3 b","481":"Baustein 3 c","483":"Baustein 3 e","484":"Baustein 3 f","485":"Woodbadgekurs","36":"Ausbildungstagung","486":"Modulleitungstraining (MLT)","701":"Teamer-Training I","702":"Teamer-Training II","489":"Assistent Leader Training (ALT)","897":"Fort-\/Weiterbildung"}}}},"EVENT_792":{"type":"event","content":{"ID":792,"UID":792,"SSID":"4","Title":"Bezirksvorst\u00e4ndestreffen","Organizer":"","Target_Group":"","Start":"984684600","End":"984684600","All_Day":false,"ZIP":"","Location":"","URL_Text":"","URL":"","Description":"im Di\u00f6zesanzentrum Rolandstra\u00dfe\n\n(Autor: Webteam (mfl))","Stufen":[16,17,18,19,20],"Keywords":{"1":"Sonstiges"},"Kalender":"4","Last_Modified_By":"kalender-1.0","Last_Modified_At":"1058229629","Created_By":"kalender-1.0","Created_At":"1058229629"}}},"[4,{\"kalenders\":[]}]":{"KALENDER_4":{"type":"kalender","content":{"ID":"4","Ebene":"Di\u00f6zese","Name":"K\u00f6ln","Verband":"DPSG","Ident":"Di\u00f6zesanverband K\u00f6ln","Ebene_Id":7,"Used_Kategories":{"4":"Aktion","7":"Bezirksleitung","12":"Di\u00f6zesanleitung","3":"Fahrt\/Lager","5":"Gemeinde","11":"Gremium\/AK","182":"Gruppenstunde","950":"Leiter*innen","43":"Leiterrunde","59":"Ranger\/Rover","10":"Schulung\/Kurs","2":"Stamm","9":"Stufenkonferenz","38":"Truppstunde","6":"Vorst\u00e4nde"},"Forced_Kategories":{"sections\/leaders":{"952":"Biber","16":"W\u00f6lflinge","17":"Jungpfadfinder","18":"Pfadfinder","19":"Rover","20":"Leiter"},"DPSG-Ausbildung":{"476":"Einstieg Schritt 1","179":"Einstieg Schritt 2","331":"Baustein 1 a","330":"Baustein 1 b","477":"Baustein 1 c","865":"Baustein 1 d","478":"Baustein 2 a","479":"Baustein 2 b","333":"Baustein 2 c","480":"Baustein 2 d","820":"Baustein 2 e","332":"Baustein 3 a","328":"Baustein 3 b","481":"Baustein 3 c","483":"Baustein 3 e","484":"Baustein 3 f","485":"Woodbadgekurs","36":"Ausbildungstagung","486":"Modulleitungstraining (MLT)","701":"Teamer-Training I","702":"Teamer-Training II","489":"Assistent Leader Training (ALT)","897":"Fort-\/Weiterbildung"}}}}},"[[],{\"categories\":{\"uid\":[23,42]}}]":{"CATEGORIE_23":{"type":"categorie","content":{"ID":23,"Text":"Baustein 1a (alt)","Selected":"no"}},"CATEGORIE_42":{"type":"categorie","content":{"ID":42,"Text":"pl","Selected":"no"}}},"[[],{\"categories\":{\"all\":true}}]":{"CATEGORIE_956":{"type":"categorie","content":{"ID":956,"Text":" Regenbogen ","Selected":"no"}},"CATEGORIE_634":{"type":"categorie","content":{"ID":634,"Text":"& Interessenten","Selected":"no"}},"CATEGORIE_825":{"type":"categorie","content":{"ID":825,"Text":"*","Selected":"no"}},"CATEGORIE_206":{"type":"categorie","content":{"ID":206,"Text":"100jahre","Selected":"no"}},"CATEGORIE_197":{"type":"categorie","content":{"ID":197,"Text":"21. Jamboree","Selected":"no"}},"CATEGORIE_521":{"type":"categorie","content":{"ID":521,"Text":"22. Jamboree","Selected":"no"}},"CATEGORIE_798":{"type":"categorie","content":{"ID":798,"Text":"23. Jamboree","Selected":"no"}},"CATEGORIE_847":{"type":"categorie","content":{"ID":847,"Text":"24. Jamboree","Selected":"no"}},"CATEGORIE_70":{"type":"categorie","content":{"ID":70,"Text":"3 Abendeinheiten","Selected":"no"}},"CATEGORIE_245":{"type":"categorie","content":{"ID":245,"Text":"3d","Selected":"no"}},"CATEGORIE_687":{"type":"categorie","content":{"ID":687,"Text":"50. Stufenjubil\u00e4um","Selected":"no"}},"CATEGORIE_412":{"type":"categorie","content":{"ID":412,"Text":"50j\u00e4hriges","Selected":"no"}},"CATEGORIE_301":{"type":"categorie","content":{"ID":301,"Text":"9","Selected":"no"}},"CATEGORIE_954":{"type":"categorie","content":{"ID":954,"Text":"abc","Selected":"no"}},"CATEGORIE_907":{"type":"categorie","content":{"ID":907,"Text":"Action","Selected":"no"}},"CATEGORIE_892":{"type":"categorie","content":{"ID":892,"Text":"Afrika","Selected":"no"}},"CATEGORIE_575":{"type":"categorie","content":{"ID":575,"Text":"AG A","Selected":"no"}},"CATEGORIE_507":{"type":"categorie","content":{"ID":507,"Text":"AG Ausbildung","Selected":"no"}},"CATEGORIE_822":{"type":"categorie","content":{"ID":822,"Text":"AG Friedenslicht M\u00fcnchen rdp\/VDAPG","Selected":"no"}},"CATEGORIE_869":{"type":"categorie","content":{"ID":869,"Text":"AG Internationales","Selected":"no"}},"CATEGORIE_694":{"type":"categorie","content":{"ID":694,"Text":"AG Medien","Selected":"no"}},"CATEGORIE_872":{"type":"categorie","content":{"ID":872,"Text":"AG \u00d6ffentlichkeitsarbeit","Selected":"no"}},"CATEGORIE_603":{"type":"categorie","content":{"ID":603,"Text":"AG-Medien","Selected":"no"}},"CATEGORIE_510":{"type":"categorie","content":{"ID":510,"Text":"AgMedien","Selected":"no"}},"CATEGORIE_858":{"type":"categorie","content":{"ID":858,"Text":"AGMedien","Selected":"no"}},"CATEGORIE_661":{"type":"categorie","content":{"ID":661,"Text":"AK AKS","Selected":"no"}},"CATEGORIE_584":{"type":"categorie","content":{"ID":584,"Text":"AK All-In","Selected":"no"}},"CATEGORIE_616":{"type":"categorie","content":{"ID":616,"Text":"AK Altkleider","Selected":"no"}},"CATEGORIE_171":{"type":"categorie","content":{"ID":171,"Text":"AK Brex","Selected":"no"}},"CATEGORIE_708":{"type":"categorie","content":{"ID":708,"Text":"AK Di\u00f6zesanlager","Selected":"no"}},"CATEGORIE_637":{"type":"categorie","content":{"ID":637,"Text":"AK Hochstapler","Selected":"no"}},"CATEGORIE_438":{"type":"categorie","content":{"ID":438,"Text":"AK Programmplanung","Selected":"no"}},"CATEGORIE_887":{"type":"categorie","content":{"ID":887,"Text":"AK-Mitglieder \u00d6kologie","Selected":"no"}},"CATEGORIE_321":{"type":"categorie","content":{"ID":321,"Text":"AKPV","Selected":"no"}},"CATEGORIE_4":{"type":"categorie","content":{"ID":4,"Text":"Aktion","Selected":"no"}},"CATEGORIE_988":{"type":"categorie","content":{"ID":988,"Text":"Aktion im Saarland","Selected":"no"}},"CATEGORIE_989":{"type":"categorie","content":{"ID":989,"Text":"Aktion in vielen saarl\u00e4ndischen St\u00e4dten und Gemeinden","Selected":"no"}},"CATEGORIE_744":{"type":"categorie","content":{"ID":744,"Text":"Aktion von einem anderen Stamm","Selected":"no"}},"CATEGORIE_376":{"type":"categorie","content":{"ID":376,"Text":"AlbertusMagnus-VobTref","Selected":"no"}},"CATEGORIE_672":{"type":"categorie","content":{"ID":672,"Text":"All in","Selected":"no"}},"CATEGORIE_310":{"type":"categorie","content":{"ID":310,"Text":"Alle","Selected":"no"}},"CATEGORIE_620":{"type":"categorie","content":{"ID":620,"Text":"alle DAK und FAK","Selected":"no"}},"CATEGORIE_309":{"type":"categorie","content":{"ID":309,"Text":"Alle die Intresse haben zu Feiern","Selected":"no"}},"CATEGORIE_69":{"type":"categorie","content":{"ID":69,"Text":"Alle die Lust haben zu kommen","Selected":"no"}},"CATEGORIE_816":{"type":"categorie","content":{"ID":816,"Text":"Alle die mitmachen wollen","Selected":"no"}},"CATEGORIE_419":{"type":"categorie","content":{"ID":419,"Text":"alle Interessierten","Selected":"no"}},"CATEGORIE_633":{"type":"categorie","content":{"ID":633,"Text":"alle Jamboreeteilnehmer mit Eltern","Selected":"no"}},"CATEGORIE_240":{"type":"categorie","content":{"ID":240,"Text":"alle Juraner","Selected":"no"}},"CATEGORIE_276":{"type":"categorie","content":{"ID":276,"Text":"alle Leiter & Mitarbeiter","Selected":"no"}},"CATEGORIE_307":{"type":"categorie","content":{"ID":307,"Text":"Alle Leiter im Bezirk-Erft","Selected":"no"}},"CATEGORIE_96":{"type":"categorie","content":{"ID":96,"Text":"alle Module und Bausteine","Selected":"no"}},"CATEGORIE_308":{"type":"categorie","content":{"ID":308,"Text":"Alle Rover im Bezirk-Erft","Selected":"no"}},"CATEGORIE_329":{"type":"categorie","content":{"ID":329,"Text":"Alle St\u00e4mme","Selected":"no"}},"CATEGORIE_621":{"type":"categorie","content":{"ID":621,"Text":"alle Stufen","Selected":"no"}},"CATEGORIE_647":{"type":"categorie","content":{"ID":647,"Text":"Alles rund ums Messer","Selected":"no"}},"CATEGORIE_320":{"type":"categorie","content":{"ID":320,"Text":"Allgemeiner Termin","Selected":"no"}},"CATEGORIE_394":{"type":"categorie","content":{"ID":394,"Text":"ALT Assisent Leader Training","Selected":"no"}},"CATEGORIE_298":{"type":"categorie","content":{"ID":298,"Text":"Altenberg","Selected":"no"}},"CATEGORIE_838":{"type":"categorie","content":{"ID":838,"Text":"Altkleider","Selected":"no"}},"CATEGORIE_609":{"type":"categorie","content":{"ID":609,"Text":"Altleiter","Selected":"no"}},"CATEGORIE_146":{"type":"categorie","content":{"ID":146,"Text":"Altpapier","Selected":"no"}},"CATEGORIE_497":{"type":"categorie","content":{"ID":497,"Text":"Altpapiersammlung","Selected":"no"}},"CATEGORIE_780":{"type":"categorie","content":{"ID":780,"Text":"Altpfadfinder","Selected":"no"}},"CATEGORIE_218":{"type":"categorie","content":{"ID":218,"Text":"Altrover","Selected":"no"}},"CATEGORIE_371":{"type":"categorie","content":{"ID":371,"Text":"AmPl","Selected":"no"}},"CATEGORIE_924":{"type":"categorie","content":{"ID":924,"Text":"Andacht","Selected":"no"}},"CATEGORIE_291":{"type":"categorie","content":{"ID":291,"Text":"andere St\u00e4mme","Selected":"no"}},"CATEGORIE_111":{"type":"categorie","content":{"ID":111,"Text":"Anlage","Selected":"no"}},"CATEGORIE_551":{"type":"categorie","content":{"ID":551,"Text":"Anmeldefrist","Selected":"no"}},"CATEGORIE_76":{"type":"categorie","content":{"ID":76,"Text":"Anmeldeschluss","Selected":"no"}},"CATEGORIE_338":{"type":"categorie","content":{"ID":338,"Text":"anp","Selected":"no"}},"CATEGORIE_913":{"type":"categorie","content":{"ID":913,"Text":"aoesunth","Selected":"no"}},"CATEGORIE_505":{"type":"categorie","content":{"ID":505,"Text":"Arbeitsaktion","Selected":"no"}},"CATEGORIE_695":{"type":"categorie","content":{"ID":695,"Text":"Arbeitseinsatz","Selected":"no"}},"CATEGORIE_639":{"type":"categorie","content":{"ID":639,"Text":"Arbeitsgemeinschaft","Selected":"no"}},"CATEGORIE_140":{"type":"categorie","content":{"ID":140,"Text":"Arbeitskreis","Selected":"no"}},"CATEGORIE_489":{"type":"categorie","content":{"ID":489,"Text":"Assistent Leader Training (ALT)","Selected":"no"}},"CATEGORIE_596":{"type":"categorie","content":{"ID":596,"Text":"Aufbau","Selected":"no"}},"CATEGORIE_941":{"type":"categorie","content":{"ID":941,"Text":"Aufbauschulung","Selected":"no"}},"CATEGORIE_648":{"type":"categorie","content":{"ID":648,"Text":"Aufnahme","Selected":"no"}},"CATEGORIE_646":{"type":"categorie","content":{"ID":646,"Text":"Aufr\u00e4umen, Schaffen, Werkeln","Selected":"no"}},"CATEGORIE_617":{"type":"categorie","content":{"ID":617,"Text":"Auftakt B-Lager","Selected":"no"}},"CATEGORIE_863":{"type":"categorie","content":{"ID":863,"Text":"Aus- und Fortbildungswochenende","Selected":"no"}},"CATEGORIE_138":{"type":"categorie","content":{"ID":138,"Text":"Ausbildung","Selected":"no"}},"CATEGORIE_453":{"type":"categorie","content":{"ID":453,"Text":"Ausbildung Di\u00f6zese","Selected":"no"}},"CATEGORIE_408":{"type":"categorie","content":{"ID":408,"Text":"Ausbildung Modul","Selected":"no"}},"CATEGORIE_576":{"type":"categorie","content":{"ID":576,"Text":"Ausbildungs AG","Selected":"no"}},"CATEGORIE_337":{"type":"categorie","content":{"ID":337,"Text":"Ausbildungsstammtisch","Selected":"no"}},"CATEGORIE_36":{"type":"categorie","content":{"ID":36,"Text":"Ausbildungstagung","Selected":"no"}},"CATEGORIE_615":{"type":"categorie","content":{"ID":615,"Text":"Ausbildungsteam","Selected":"no"}},"CATEGORIE_322":{"type":"categorie","content":{"ID":322,"Text":"Ausbildungsveranstaltung","Selected":"no"}},"CATEGORIE_795":{"type":"categorie","content":{"ID":795,"Text":"Ausflug","Selected":"no"}},"CATEGORIE_162":{"type":"categorie","content":{"ID":162,"Text":"Ausland","Selected":"no"}},"CATEGORIE_90":{"type":"categorie","content":{"ID":90,"Text":"Auslandsfahrt Rover","Selected":"no"}},"CATEGORIE_979":{"type":"categorie","content":{"ID":979,"Text":"Auslandslager","Selected":"no"}},"CATEGORIE_431":{"type":"categorie","content":{"ID":431,"Text":"Ausstellung","Selected":"no"}},"CATEGORIE_884":{"type":"categorie","content":{"ID":884,"Text":"Austausch","Selected":"no"}},"CATEGORIE_966":{"type":"categorie","content":{"ID":966,"Text":"Austausch mit dem Bundesamt","Selected":"no"}},"CATEGORIE_311":{"type":"categorie","content":{"ID":311,"Text":"Austausch, Organisation, Weiterbildung","Selected":"no"}},"CATEGORIE_349":{"type":"categorie","content":{"ID":349,"Text":"Austauschtreffen","Selected":"no"}},"CATEGORIE_604":{"type":"categorie","content":{"ID":604,"Text":"Ball","Selected":"no"}},"CATEGORIE_755":{"type":"categorie","content":{"ID":755,"Text":"Band","Selected":"no"}},"CATEGORIE_610":{"type":"categorie","content":{"ID":610,"Text":"Bannerabordnung","Selected":"no"}},"CATEGORIE_664":{"type":"categorie","content":{"ID":664,"Text":"B\u00e4r","Selected":"no"}},"CATEGORIE_623":{"type":"categorie","content":{"ID":623,"Text":"Bauh\u00fctte","Selected":"no"}},"CATEGORIE_671":{"type":"categorie","content":{"ID":671,"Text":"B\u00e4ume pflanzen","Selected":"no"}},"CATEGORIE_331":{"type":"categorie","content":{"ID":331,"Text":"Baustein 1 a","Selected":"no"}},"CATEGORIE_330":{"type":"categorie","content":{"ID":330,"Text":"Baustein 1 b","Selected":"no"}},"CATEGORIE_477":{"type":"categorie","content":{"ID":477,"Text":"Baustein 1 c","Selected":"no"}},"CATEGORIE_865":{"type":"categorie","content":{"ID":865,"Text":"Baustein 1 d","Selected":"no"}},"CATEGORIE_23":{"type":"categorie","content":{"ID":23,"Text":"Baustein 1a (alt)","Selected":"no"}},"CATEGORIE_387":{"type":"categorie","content":{"ID":387,"Text":"Baustein 1a (neu)","Selected":"no"}},"CATEGORIE_24":{"type":"categorie","content":{"ID":24,"Text":"Baustein 1b","Selected":"no"}},"CATEGORIE_25":{"type":"categorie","content":{"ID":25,"Text":"Baustein 1c (alt)","Selected":"no"}},"CATEGORIE_388":{"type":"categorie","content":{"ID":388,"Text":"Baustein 1c (neu)","Selected":"no"}},"CATEGORIE_478":{"type":"categorie","content":{"ID":478,"Text":"Baustein 2 a","Selected":"no"}},"CATEGORIE_479":{"type":"categorie","content":{"ID":479,"Text":"Baustein 2 b","Selected":"no"}},"CATEGORIE_333":{"type":"categorie","content":{"ID":333,"Text":"Baustein 2 c","Selected":"no"}},"CATEGORIE_480":{"type":"categorie","content":{"ID":480,"Text":"Baustein 2 d","Selected":"no"}},"CATEGORIE_820":{"type":"categorie","content":{"ID":820,"Text":"Baustein 2 e","Selected":"no"}},"CATEGORIE_26":{"type":"categorie","content":{"ID":26,"Text":"Baustein 2a","Selected":"no"}},"CATEGORIE_27":{"type":"categorie","content":{"ID":27,"Text":"Baustein 2b","Selected":"no"}},"CATEGORIE_28":{"type":"categorie","content":{"ID":28,"Text":"Baustein 2c","Selected":"no"}},"CATEGORIE_389":{"type":"categorie","content":{"ID":389,"Text":"Baustein 2d","Selected":"no"}},"CATEGORIE_332":{"type":"categorie","content":{"ID":332,"Text":"Baustein 3 a","Selected":"no"}},"CATEGORIE_328":{"type":"categorie","content":{"ID":328,"Text":"Baustein 3 b","Selected":"no"}},"CATEGORIE_481":{"type":"categorie","content":{"ID":481,"Text":"Baustein 3 c","Selected":"no"}},"CATEGORIE_482":{"type":"categorie","content":{"ID":482,"Text":"Baustein 3 d","Selected":"no"}},"CATEGORIE_483":{"type":"categorie","content":{"ID":483,"Text":"Baustein 3 e","Selected":"no"}},"CATEGORIE_484":{"type":"categorie","content":{"ID":484,"Text":"Baustein 3 f","Selected":"no"}},"CATEGORIE_29":{"type":"categorie","content":{"ID":29,"Text":"Baustein 3a","Selected":"no"}},"CATEGORIE_30":{"type":"categorie","content":{"ID":30,"Text":"Baustein 3b","Selected":"no"}},"CATEGORIE_31":{"type":"categorie","content":{"ID":31,"Text":"Baustein 3c","Selected":"no"}},"CATEGORIE_32":{"type":"categorie","content":{"ID":32,"Text":"Baustein 3d (alt)","Selected":"no"}},"CATEGORIE_390":{"type":"categorie","content":{"ID":390,"Text":"Baustein 3d (neu)","Selected":"no"}},"CATEGORIE_33":{"type":"categorie","content":{"ID":33,"Text":"Baustein 3e","Selected":"no"}},"CATEGORIE_391":{"type":"categorie","content":{"ID":391,"Text":"Baustein 3f","Selected":"no"}},"CATEGORIE_882":{"type":"categorie","content":{"ID":882,"Text":"Bausteinwochenende","Selected":"no"}},"CATEGORIE_734":{"type":"categorie","content":{"ID":734,"Text":"Bauwochenende","Selected":"no"}},"CATEGORIE_972":{"type":"categorie","content":{"ID":972,"Text":"Bayernlager ","Selected":"no"}},"CATEGORIE_8":{"type":"categorie","content":{"ID":8,"Text":"BDKJ","Selected":"no"}},"CATEGORIE_852":{"type":"categorie","content":{"ID":852,"Text":"BDKJ Erding","Selected":"no"}},"CATEGORIE_526":{"type":"categorie","content":{"ID":526,"Text":"BDKJ Kreisversammlung","Selected":"no"}},"CATEGORIE_632":{"type":"categorie","content":{"ID":632,"Text":"BdP","Selected":"no"}},"CATEGORIE_654":{"type":"categorie","content":{"ID":654,"Text":"Bedienen, Essen ausgeben, Sp\u00fclen, Kinderbetreuung","Selected":"no"}},"CATEGORIE_277":{"type":"categorie","content":{"ID":277,"Text":"Beerdigung","Selected":"no"}},"CATEGORIE_295":{"type":"categorie","content":{"ID":295,"Text":"Begegnung","Selected":"no"}},"CATEGORIE_692":{"type":"categorie","content":{"ID":692,"Text":"Begegnungswochenende","Selected":"no"}},"CATEGORIE_651":{"type":"categorie","content":{"ID":651,"Text":"begeisterte \/ interessierte","Selected":"no"}},"CATEGORIE_400":{"type":"categorie","content":{"ID":400,"Text":"Behinderte","Selected":"no"}},"CATEGORIE_231":{"type":"categorie","content":{"ID":231,"Text":"Behindertenarbei","Selected":"no"}},"CATEGORIE_51":{"type":"categorie","content":{"ID":51,"Text":"Behindertenarbeit","Selected":"no"}},"CATEGORIE_368":{"type":"categorie","content":{"ID":368,"Text":"Behindertenarbeit, Integration","Selected":"no"}},"CATEGORIE_50":{"type":"categorie","content":{"ID":50,"Text":"Bejindertenarbeit","Selected":"no"}},"CATEGORIE_585":{"type":"categorie","content":{"ID":585,"Text":"BeKo","Selected":"no"}},"CATEGORIE_396":{"type":"categorie","content":{"ID":396,"Text":"Belegungskalender","Selected":"no"}},"CATEGORIE_957":{"type":"categorie","content":{"ID":957,"Text":"BerBil","Selected":"no"}},"CATEGORIE_680":{"type":"categorie","content":{"ID":680,"Text":"Besinnung","Selected":"no"}},"CATEGORIE_378":{"type":"categorie","content":{"ID":378,"Text":"Besprechung","Selected":"no"}},"CATEGORIE_525":{"type":"categorie","content":{"ID":525,"Text":"BeVers","Selected":"no"}},"CATEGORIE_946":{"type":"categorie","content":{"ID":946,"Text":"BeVo - StaVo Runde","Selected":"no"}},"CATEGORIE_504":{"type":"categorie","content":{"ID":504,"Text":"Bewegungslandschaft","Selected":"no"}},"CATEGORIE_493":{"type":"categorie","content":{"ID":493,"Text":"BeWo","Selected":"no"}},"CATEGORIE_39":{"type":"categorie","content":{"ID":39,"Text":"Bezirk","Selected":"no"}},"CATEGORIE_876":{"type":"categorie","content":{"ID":876,"Text":"Bezirk Augsburg","Selected":"no"}},"CATEGORIE_533":{"type":"categorie","content":{"ID":533,"Text":"Bezirks-Aktion","Selected":"no"}},"CATEGORIE_503":{"type":"categorie","content":{"ID":503,"Text":"Bezirks-W\u00f6Tag","Selected":"no"}},"CATEGORIE_341":{"type":"categorie","content":{"ID":341,"Text":"Bezirksaktion","Selected":"no"}},"CATEGORIE_123":{"type":"categorie","content":{"ID":123,"Text":"Bezirksarbeitskreise","Selected":"no"}},"CATEGORIE_735":{"type":"categorie","content":{"ID":735,"Text":"Bezirksjugendring Obb","Selected":"no"}},"CATEGORIE_727":{"type":"categorie","content":{"ID":727,"Text":"Bezirkskurs","Selected":"no"}},"CATEGORIE_362":{"type":"categorie","content":{"ID":362,"Text":"Bezirkslager","Selected":"no"}},"CATEGORIE_494":{"type":"categorie","content":{"ID":494,"Text":"Bezirksleiterrunde","Selected":"no"}},"CATEGORIE_472":{"type":"categorie","content":{"ID":472,"Text":"Bezirksleiterrunde \/ Jufis","Selected":"no"}},"CATEGORIE_7":{"type":"categorie","content":{"ID":7,"Text":"Bezirksleitung","Selected":"no"}},"CATEGORIE_220":{"type":"categorie","content":{"ID":220,"Text":"Bezirksmette","Selected":"no"}},"CATEGORIE_927":{"type":"categorie","content":{"ID":927,"Text":"Bezirksschulung","Selected":"no"}},"CATEGORIE_586":{"type":"categorie","content":{"ID":586,"Text":"Bezirkstag","Selected":"no"}},"CATEGORIE_52":{"type":"categorie","content":{"ID":52,"Text":"Bezirksversammlung","Selected":"no"}},"CATEGORIE_210":{"type":"categorie","content":{"ID":210,"Text":"Bezirksverst\u00e4nde","Selected":"no"}},"CATEGORIE_304":{"type":"categorie","content":{"ID":304,"Text":"Bezirksvorstand","Selected":"no"}},"CATEGORIE_211":{"type":"categorie","content":{"ID":211,"Text":"Bezirksvorst\u00e4nde","Selected":"no"}},"CATEGORIE_363":{"type":"categorie","content":{"ID":363,"Text":"Bezirksvorst\u00e4nde - Di\u00f6zesantag","Selected":"no"}},"CATEGORIE_359":{"type":"categorie","content":{"ID":359,"Text":"BezJR","Selected":"no"}},"CATEGORIE_122":{"type":"categorie","content":{"ID":122,"Text":"Bezriksarbeitskreise","Selected":"no"}},"CATEGORIE_663":{"type":"categorie","content":{"ID":663,"Text":"Biber","Selected":"no"}},"CATEGORIE_886":{"type":"categorie","content":{"ID":886,"Text":"Biber","Selected":"no"}},"CATEGORIE_952":{"type":"categorie","content":{"ID":952,"Text":"Biber","Selected":"no"}},"CATEGORIE_844":{"type":"categorie","content":{"ID":844,"Text":"Bildung","Selected":"no"}},"CATEGORIE_271":{"type":"categorie","content":{"ID":271,"Text":"Bildungsfahrt","Selected":"no"}},"CATEGORIE_864":{"type":"categorie","content":{"ID":864,"Text":"Bildungsveranstaltung","Selected":"no"}},"CATEGORIE_194":{"type":"categorie","content":{"ID":194,"Text":"Bistum","Selected":"no"}},"CATEGORIE_926":{"type":"categorie","content":{"ID":926,"Text":"Bistum Eichst\u00e4tt","Selected":"no"}},"CATEGORIE_437":{"type":"categorie","content":{"ID":437,"Text":"BLR","Selected":"no"}},"CATEGORIE_788":{"type":"categorie","content":{"ID":788,"Text":"Boele","Selected":"no"}},"CATEGORIE_786":{"type":"categorie","content":{"ID":786,"Text":"Boele 1","Selected":"no"}},"CATEGORIE_785":{"type":"categorie","content":{"ID":785,"Text":"Boele 2","Selected":"no"}},"CATEGORIE_789":{"type":"categorie","content":{"ID":789,"Text":"Boele2","Selected":"no"}},"CATEGORIE_597":{"type":"categorie","content":{"ID":597,"Text":"BoExLeitung","Selected":"no"}},"CATEGORIE_195":{"type":"categorie","content":{"ID":195,"Text":"Bolivien","Selected":"no"}},"CATEGORIE_274":{"type":"categorie","content":{"ID":274,"Text":"Bolivien 2009","Selected":"no"}},"CATEGORIE_856":{"type":"categorie","content":{"ID":856,"Text":"Bolivienbegegnungsreise","Selected":"no"}},"CATEGORIE_933":{"type":"categorie","content":{"ID":933,"Text":"Bolivienpartnerschaft","Selected":"no"}},"CATEGORIE_883":{"type":"categorie","content":{"ID":883,"Text":"BuKo","Selected":"no"}},"CATEGORIE_372":{"type":"categorie","content":{"ID":372,"Text":"Bunderslager","Selected":"no"}},"CATEGORIE_361":{"type":"categorie","content":{"ID":361,"Text":"Bundesaktion","Selected":"no"}},"CATEGORIE_471":{"type":"categorie","content":{"ID":471,"Text":"Bundesebene","Selected":"no"}},"CATEGORIE_230":{"type":"categorie","content":{"ID":230,"Text":"Bundesfachkonferenz","Selected":"no"}},"CATEGORIE_848":{"type":"categorie","content":{"ID":848,"Text":"BundesFachKonferenz","Selected":"no"}},"CATEGORIE_691":{"type":"categorie","content":{"ID":691,"Text":"Bundeskonferenz","Selected":"no"}},"CATEGORIE_340":{"type":"categorie","content":{"ID":340,"Text":"Bundeslager","Selected":"no"}},"CATEGORIE_473":{"type":"categorie","content":{"ID":473,"Text":"Bundeslager 2010","Selected":"no"}},"CATEGORIE_13":{"type":"categorie","content":{"ID":13,"Text":"Bundesleitung","Selected":"no"}},"CATEGORIE_176":{"type":"categorie","content":{"ID":176,"Text":"Bundesrat","Selected":"no"}},"CATEGORIE_964":{"type":"categorie","content":{"ID":964,"Text":"Bundesstufenkonferenz","Selected":"no"}},"CATEGORIE_961":{"type":"categorie","content":{"ID":961,"Text":"Bundesunternehmen","Selected":"no"}},"CATEGORIE_422":{"type":"categorie","content":{"ID":422,"Text":"Bundesunternehmen Pfadfinderstufe","Selected":"no"}},"CATEGORIE_257":{"type":"categorie","content":{"ID":257,"Text":"Bundesveranstaltung","Selected":"no"}},"CATEGORIE_115":{"type":"categorie","content":{"ID":115,"Text":"Bundesversammlung","Selected":"no"}},"CATEGORIE_970":{"type":"categorie","content":{"ID":970,"Text":"Bundesversammlung Organisationsteam","Selected":"no"}},"CATEGORIE_797":{"type":"categorie","content":{"ID":797,"Text":"B\u00fcro","Selected":"no"}},"CATEGORIE_198":{"type":"categorie","content":{"ID":198,"Text":"B\u00fcro Team","Selected":"no"}},"CATEGORIE_193":{"type":"categorie","content":{"ID":193,"Text":"BV meets DV","Selected":"no"}},"CATEGORIE_839":{"type":"categorie","content":{"ID":839,"Text":"BVDV","Selected":"no"}},"CATEGORIE_62":{"type":"categorie","content":{"ID":62,"Text":"Caravelle","Selected":"no"}},"CATEGORIE_851":{"type":"categorie","content":{"ID":851,"Text":"Caravelles","Selected":"no"}},"CATEGORIE_686":{"type":"categorie","content":{"ID":686,"Text":"Challenge Helferteam","Selected":"no"}},"CATEGORIE_685":{"type":"categorie","content":{"ID":685,"Text":"Challenge Helferteamt","Selected":"no"}},"CATEGORIE_353":{"type":"categorie","content":{"ID":353,"Text":"Chill'n Grill","Selected":"no"}},"CATEGORIE_614":{"type":"categorie","content":{"ID":614,"Text":"Ch\u00f6re","Selected":"no"}},"CATEGORIE_109":{"type":"categorie","content":{"ID":109,"Text":"Club","Selected":"no"}},"CATEGORIE_114":{"type":"categorie","content":{"ID":114,"Text":"Club-W\u00f6lflinge","Selected":"no"}},"CATEGORIE_512":{"type":"categorie","content":{"ID":512,"Text":"DAG Medien","Selected":"no"}},"CATEGORIE_370":{"type":"categorie","content":{"ID":370,"Text":"DAK rover","Selected":"no"}},"CATEGORIE_283":{"type":"categorie","content":{"ID":283,"Text":"DAK und Vorst\u00e4nde der Region","Selected":"no"}},"CATEGORIE_156":{"type":"categorie","content":{"ID":156,"Text":"Dankefest","Selected":"no"}},"CATEGORIE_414":{"type":"categorie","content":{"ID":414,"Text":"Dekanat","Selected":"no"}},"CATEGORIE_217":{"type":"categorie","content":{"ID":217,"Text":"Delegierte","Selected":"no"}},"CATEGORIE_219":{"type":"categorie","content":{"ID":219,"Text":"Delegierte der Eltern in den Stufen","Selected":"no"}},"CATEGORIE_313":{"type":"categorie","content":{"ID":313,"Text":"Delegierte der Stufen","Selected":"no"}},"CATEGORIE_736":{"type":"categorie","content":{"ID":736,"Text":"Delegierte\/r","Selected":"no"}},"CATEGORIE_305":{"type":"categorie","content":{"ID":305,"Text":"Delegirte der stufen","Selected":"no"}},"CATEGORIE_912":{"type":"categorie","content":{"ID":912,"Text":"Deligierte","Selected":"no"}},"CATEGORIE_895":{"type":"categorie","content":{"ID":895,"Text":"Deligierte Jungleiter","Selected":"no"}},"CATEGORIE_790":{"type":"categorie","content":{"ID":790,"Text":"Deligierte und Interessierte","Selected":"no"}},"CATEGORIE_645":{"type":"categorie","content":{"ID":645,"Text":"Den inneren Schweinehund besiegen","Selected":"no"}},"CATEGORIE_938":{"type":"categorie","content":{"ID":938,"Text":"Denkfabrik","Selected":"no"}},"CATEGORIE_552":{"type":"categorie","content":{"ID":552,"Text":"Deutsch-Franz\u00f6sisch","Selected":"no"}},"CATEGORIE_558":{"type":"categorie","content":{"ID":558,"Text":"Die Falken D\u00fcsseldorf","Selected":"no"}},"CATEGORIE_655":{"type":"categorie","content":{"ID":655,"Text":"Die Vesperkirche will deutlich machen, dass es immer mehr Menschen gibt, die sich eine warme Mahlzeit kaum noch leisten k\u00f6nnen. Dennoch versteht sich die Vesperkirche nicht in erster Linie als Armuts- sondern vielmehr als Begegnungsprojekt von ganz unter","Selected":"no"}},"CATEGORIE_968":{"type":"categorie","content":{"ID":968,"Text":"Digitales Angebot","Selected":"no"}},"CATEGORIE_555":{"type":"categorie","content":{"ID":555,"Text":"DiLa","Selected":"no"}},"CATEGORIE_121":{"type":"categorie","content":{"ID":121,"Text":"Di\u00f6zesan-Leitertag der W\u00f6lflingsstufe","Selected":"no"}},"CATEGORIE_804":{"type":"categorie","content":{"ID":804,"Text":"Di\u00f6zesanb\u00fcro geschlossen","Selected":"no"}},"CATEGORIE_977":{"type":"categorie","content":{"ID":977,"Text":"Di\u00f6zesanes Sommerlager","Selected":"no"}},"CATEGORIE_904":{"type":"categorie","content":{"ID":904,"Text":"Di\u00f6zesankonferenz","Selected":"no"}},"CATEGORIE_514":{"type":"categorie","content":{"ID":514,"Text":"Di\u00f6zesankuratinnen-und kuraten","Selected":"no"}},"CATEGORIE_314":{"type":"categorie","content":{"ID":314,"Text":"Di\u00f6zesanlager","Selected":"no"}},"CATEGORIE_12":{"type":"categorie","content":{"ID":12,"Text":"Di\u00f6zesanleitung","Selected":"no"}},"CATEGORIE_40":{"type":"categorie","content":{"ID":40,"Text":"Di\u00f6zesanverband","Selected":"no"}},"CATEGORIE_85":{"type":"categorie","content":{"ID":85,"Text":"Di\u00f6zesanverband K\u00f6ln","Selected":"no"}},"CATEGORIE_155":{"type":"categorie","content":{"ID":155,"Text":"Di\u00f6zesanversammlung","Selected":"no"}},"CATEGORIE_451":{"type":"categorie","content":{"ID":451,"Text":"Di\u00f6zesanzeitschrift","Selected":"no"}},"CATEGORIE_312":{"type":"categorie","content":{"ID":312,"Text":"Di\u00f6zese","Selected":"no"}},"CATEGORIE_949":{"type":"categorie","content":{"ID":949,"Text":"Di\u00f6zese Eichst\u00e4tt","Selected":"no"}},"CATEGORIE_731":{"type":"categorie","content":{"ID":731,"Text":"Di\u00f6zese Limburg","Selected":"no"}},"CATEGORIE_830":{"type":"categorie","content":{"ID":830,"Text":"Di\u00f6zese M\u00fcncehn Freising","Selected":"no"}},"CATEGORIE_831":{"type":"categorie","content":{"ID":831,"Text":"Di\u00f6zese M\u00fcnchen Freising","Selected":"no"}},"CATEGORIE_960":{"type":"categorie","content":{"ID":960,"Text":"DiVers","Selected":"no"}},"CATEGORIE_506":{"type":"categorie","content":{"ID":506,"Text":"DJJK","Selected":"no"}},"CATEGORIE_606":{"type":"categorie","content":{"ID":606,"Text":"DL, StaVo\u00b4s, Delegierte","Selected":"no"}},"CATEGORIE_599":{"type":"categorie","content":{"ID":599,"Text":"Dombezirk","Selected":"no"}},"CATEGORIE_538":{"type":"categorie","content":{"ID":538,"Text":"Dorfgemeinschaft","Selected":"no"}},"CATEGORIE_415":{"type":"categorie","content":{"ID":415,"Text":"D\u00f6zese","Selected":"no"}},"CATEGORIE_511":{"type":"categorie","content":{"ID":511,"Text":"DPSG","Selected":"no"}},"CATEGORIE_342":{"type":"categorie","content":{"ID":342,"Text":"DPSG \/ VCP","Selected":"no"}},"CATEGORIE_870":{"type":"categorie","content":{"ID":870,"Text":"DPSG Bezirk Ludwigshafen","Selected":"no"}},"CATEGORIE_190":{"type":"categorie","content":{"ID":190,"Text":"DPSG K\u00f6ln","Selected":"no"}},"CATEGORIE_842":{"type":"categorie","content":{"ID":842,"Text":"DPSG L\u00fcdinghausen","Selected":"no"}},"CATEGORIE_880":{"type":"categorie","content":{"ID":880,"Text":"DPSG-Ausbildung","Selected":"no"}},"CATEGORIE_665":{"type":"categorie","content":{"ID":665,"Text":"Drache","Selected":"no"}},"CATEGORIE_823":{"type":"categorie","content":{"ID":823,"Text":"DV M\u00fcnchen-Freising","Selected":"no"}},"CATEGORIE_595":{"type":"categorie","content":{"ID":595,"Text":"Dwingeloo","Selected":"no"}},"CATEGORIE_185":{"type":"categorie","content":{"ID":185,"Text":"e.V Mitglieder \/ Stamm","Selected":"no"}},"CATEGORIE_57":{"type":"categorie","content":{"ID":57,"Text":"e.V.","Selected":"no"}},"CATEGORIE_286":{"type":"categorie","content":{"ID":286,"Text":"E.V. Aktion","Selected":"no"}},"CATEGORIE_768":{"type":"categorie","content":{"ID":768,"Text":"e.V. Mitglieder","Selected":"no"}},"CATEGORIE_280":{"type":"categorie","content":{"ID":280,"Text":"E.V. Sitzung","Selected":"no"}},"CATEGORIE_410":{"type":"categorie","content":{"ID":410,"Text":"e.V. Versammlung","Selected":"no"}},"CATEGORIE_857":{"type":"categorie","content":{"ID":857,"Text":"e.V. Vorstand","Selected":"no"}},"CATEGORIE_80":{"type":"categorie","content":{"ID":80,"Text":"e.V.-Mitglieder","Selected":"no"}},"CATEGORIE_87":{"type":"categorie","content":{"ID":87,"Text":"E.V.-Mitglieder","Selected":"no"}},"CATEGORIE_624":{"type":"categorie","content":{"ID":624,"Text":"e.V.-Vollversammlung","Selected":"no"}},"CATEGORIE_165":{"type":"categorie","content":{"ID":165,"Text":"Ehemalige","Selected":"no"}},"CATEGORIE_275":{"type":"categorie","content":{"ID":275,"Text":"Ehemalige + Freunde","Selected":"no"}},"CATEGORIE_441":{"type":"categorie","content":{"ID":441,"Text":"Ehemalige Mitglieder","Selected":"no"}},"CATEGORIE_224":{"type":"categorie","content":{"ID":224,"Text":"ehemalige Pfadfinder","Selected":"no"}},"CATEGORIE_805":{"type":"categorie","content":{"ID":805,"Text":"Ehemalige Stammesmitglieder","Selected":"no"}},"CATEGORIE_344":{"type":"categorie","content":{"ID":344,"Text":"Ehemalige und aktive Leiter","Selected":"no"}},"CATEGORIE_208":{"type":"categorie","content":{"ID":208,"Text":"Ehemalige und Mitarbeiter","Selected":"no"}},"CATEGORIE_753":{"type":"categorie","content":{"ID":753,"Text":"ehemalige und neue Pfadfinder","Selected":"no"}},"CATEGORIE_762":{"type":"categorie","content":{"ID":762,"Text":"Ehemaligentreffen","Selected":"no"}},"CATEGORIE_590":{"type":"categorie","content":{"ID":590,"Text":"Eigene","Selected":"no"}},"CATEGORIE_874":{"type":"categorie","content":{"ID":874,"Text":"Eigene Kategorie1","Selected":"no"}},"CATEGORIE_875":{"type":"categorie","content":{"ID":875,"Text":"Eigene Kategorie2","Selected":"no"}},"CATEGORIE_501":{"type":"categorie","content":{"ID":501,"Text":"eigenebox","Selected":"no"}},"CATEGORIE_502":{"type":"categorie","content":{"ID":502,"Text":"eigenebox2","Selected":"no"}},"CATEGORIE_732":{"type":"categorie","content":{"ID":732,"Text":"eigener Schl\u00fcsselbegriff","Selected":"no"}},"CATEGORIE_674":{"type":"categorie","content":{"ID":674,"Text":"eignee begriff1","Selected":"no"}},"CATEGORIE_675":{"type":"categorie","content":{"ID":675,"Text":"eignee begriff2","Selected":"no"}},"CATEGORIE_147":{"type":"categorie","content":{"ID":147,"Text":"Einsteigertag","Selected":"no"}},"CATEGORIE_269":{"type":"categorie","content":{"ID":269,"Text":"Einstieg II","Selected":"no"}},"CATEGORIE_476":{"type":"categorie","content":{"ID":476,"Text":"Einstieg Schritt 1","Selected":"no"}},"CATEGORIE_179":{"type":"categorie","content":{"ID":179,"Text":"Einstieg Schritt 2","Selected":"no"}},"CATEGORIE_861":{"type":"categorie","content":{"ID":861,"Text":"Elterbeirat","Selected":"no"}},"CATEGORIE_67":{"type":"categorie","content":{"ID":67,"Text":"Eltern","Selected":"no"}},"CATEGORIE_925":{"type":"categorie","content":{"ID":925,"Text":"Eltern und Leiter","Selected":"no"}},"CATEGORIE_767":{"type":"categorie","content":{"ID":767,"Text":"Eltern, Ehemalige & Interessierte","Selected":"no"}},"CATEGORIE_475":{"type":"categorie","content":{"ID":475,"Text":"Eltern, Freunde","Selected":"no"}},"CATEGORIE_399":{"type":"categorie","content":{"ID":399,"Text":"Eltern, Verwandte und Freunde","Selected":"no"}},"CATEGORIE_92":{"type":"categorie","content":{"ID":92,"Text":"Elternabend","Selected":"no"}},"CATEGORIE_73":{"type":"categorie","content":{"ID":73,"Text":"Elternarbeit","Selected":"no"}},"CATEGORIE_779":{"type":"categorie","content":{"ID":779,"Text":"Elternarbend","Selected":"no"}},"CATEGORIE_395":{"type":"categorie","content":{"ID":395,"Text":"Elternbeirat","Selected":"no"}},"CATEGORIE_758":{"type":"categorie","content":{"ID":758,"Text":"Eltern\u00fcbernachtung","Selected":"no"}},"CATEGORIE_200":{"type":"categorie","content":{"ID":200,"Text":"Elternvertreter","Selected":"no"}},"CATEGORIE_380":{"type":"categorie","content":{"ID":380,"Text":"Energie","Selected":"no"}},"CATEGORIE_382":{"type":"categorie","content":{"ID":382,"Text":"Energieverbrauch","Selected":"no"}},"CATEGORIE_901":{"type":"categorie","content":{"ID":901,"Text":"ENTFALL","Selected":"no"}},"CATEGORIE_976":{"type":"categorie","content":{"ID":976,"Text":"Erinnerung","Selected":"no"}},"CATEGORIE_679":{"type":"categorie","content":{"ID":679,"Text":"Erlebnis","Selected":"no"}},"CATEGORIE_126":{"type":"categorie","content":{"ID":126,"Text":"Erwachsene","Selected":"no"}},"CATEGORIE_316":{"type":"categorie","content":{"ID":316,"Text":"Erwachsenentreffen","Selected":"no"}},"CATEGORIE_642":{"type":"categorie","content":{"ID":642,"Text":"Essen, Trinken, Spa\u00df haben","Selected":"no"}},"CATEGORIE_546":{"type":"categorie","content":{"ID":546,"Text":"Europa","Selected":"no"}},"CATEGORIE_247":{"type":"categorie","content":{"ID":247,"Text":"eV","Selected":"no"}},"CATEGORIE_529":{"type":"categorie","content":{"ID":529,"Text":"EV","Selected":"no"}},"CATEGORIE_668":{"type":"categorie","content":{"ID":668,"Text":"EV Aktiv","Selected":"no"}},"CATEGORIE_669":{"type":"categorie","content":{"ID":669,"Text":"EV Aktiv und EV Passiv","Selected":"no"}},"CATEGORIE_638":{"type":"categorie","content":{"ID":638,"Text":"EV F\u00f6rderverein","Selected":"no"}},"CATEGORIE_270":{"type":"categorie","content":{"ID":270,"Text":"EV Mitglieder","Selected":"no"}},"CATEGORIE_557":{"type":"categorie","content":{"ID":557,"Text":"ev. Jugend D\u00fcsseldorf","Selected":"no"}},"CATEGORIE_169":{"type":"categorie","content":{"ID":169,"Text":"F + F","Selected":"no"}},"CATEGORIE_192":{"type":"categorie","content":{"ID":192,"Text":"F+F","Selected":"no"}},"CATEGORIE_827":{"type":"categorie","content":{"ID":827,"Text":"Facebook-Event","Selected":"no"}},"CATEGORIE_339":{"type":"categorie","content":{"ID":339,"Text":"Fachgruppe","Selected":"no"}},"CATEGORIE_898":{"type":"categorie","content":{"ID":898,"Text":"Fachkonferenz","Selected":"no"}},"CATEGORIE_457":{"type":"categorie","content":{"ID":457,"Text":"FACHMESSE","Selected":"no"}},"CATEGORIE_365":{"type":"categorie","content":{"ID":365,"Text":"Fachsymposium","Selected":"no"}},"CATEGORIE_515":{"type":"categorie","content":{"ID":515,"Text":"Fachtag","Selected":"no"}},"CATEGORIE_919":{"type":"categorie","content":{"ID":919,"Text":"Fachtagung","Selected":"no"}},"CATEGORIE_981":{"type":"categorie","content":{"ID":981,"Text":"Fahrt","Selected":"no"}},"CATEGORIE_3":{"type":"categorie","content":{"ID":3,"Text":"Fahrt\/Lager","Selected":"no"}},"CATEGORIE_908":{"type":"categorie","content":{"ID":908,"Text":"FairTradeScouts","Selected":"no"}},"CATEGORIE_840":{"type":"categorie","content":{"ID":840,"Text":"FAK","Selected":"no"}},"CATEGORIE_855":{"type":"categorie","content":{"ID":855,"Text":"FAK-Angebot","Selected":"no"}},"CATEGORIE_110":{"type":"categorie","content":{"ID":110,"Text":"f\u00e4llt aus!","Selected":"no"}},"CATEGORIE_749":{"type":"categorie","content":{"ID":749,"Text":"Familie","Selected":"no"}},"CATEGORIE_791":{"type":"categorie","content":{"ID":791,"Text":"Familien","Selected":"no"}},"CATEGORIE_559":{"type":"categorie","content":{"ID":559,"Text":"Fanprojekt D\u00fcsseldorf","Selected":"no"}},"CATEGORIE_88":{"type":"categorie","content":{"ID":88,"Text":"Fasching","Selected":"no"}},"CATEGORIE_915":{"type":"categorie","content":{"ID":915,"Text":"Faschingsball","Selected":"no"}},"CATEGORIE_281":{"type":"categorie","content":{"ID":281,"Text":"Feier","Selected":"no"}},"CATEGORIE_292":{"type":"categorie","content":{"ID":292,"Text":"Feiertag","Selected":"no"}},"CATEGORIE_530":{"type":"categorie","content":{"ID":530,"Text":"Ferien","Selected":"no"}},"CATEGORIE_628":{"type":"categorie","content":{"ID":628,"Text":"Ferien!","Selected":"no"}},"CATEGORIE_629":{"type":"categorie","content":{"ID":629,"Text":"FERIEN!","Selected":"no"}},"CATEGORIE_535":{"type":"categorie","content":{"ID":535,"Text":"Fest","Selected":"no"}},"CATEGORIE_783":{"type":"categorie","content":{"ID":783,"Text":"Fest\/Feier","Selected":"no"}},"CATEGORIE_935":{"type":"categorie","content":{"ID":935,"Text":"Festival","Selected":"no"}},"CATEGORIE_357":{"type":"categorie","content":{"ID":357,"Text":"Fete","Selected":"no"}},"CATEGORIE_159":{"type":"categorie","content":{"ID":159,"Text":"Fettfrostig","Selected":"no"}},"CATEGORIE_214":{"type":"categorie","content":{"ID":214,"Text":"FFK","Selected":"no"}},"CATEGORIE_903":{"type":"categorie","content":{"ID":903,"Text":"Filmausschuss","Selected":"no"}},"CATEGORIE_433":{"type":"categorie","content":{"ID":433,"Text":"Finanzierung und Versicherung","Selected":"no"}},"CATEGORIE_953":{"type":"categorie","content":{"ID":953,"Text":"Finanzverantwortliche","Selected":"no"}},"CATEGORIE_47":{"type":"categorie","content":{"ID":47,"Text":"F\u00f6rderverein","Selected":"no"}},"CATEGORIE_499":{"type":"categorie","content":{"ID":499,"Text":"F\u00f6rderverein DPSG Olpe e. V.","Selected":"no"}},"CATEGORIE_657":{"type":"categorie","content":{"ID":657,"Text":"F\u00f6rderverein Pedro II","Selected":"no"}},"CATEGORIE_920":{"type":"categorie","content":{"ID":920,"Text":"F\u00f6rderverein-Mitglieder","Selected":"no"}},"CATEGORIE_442":{"type":"categorie","content":{"ID":442,"Text":"F\u00f6rdervereinsmitglieder","Selected":"no"}},"CATEGORIE_897":{"type":"categorie","content":{"ID":897,"Text":"Fort-\/Weiterbildung","Selected":"no"}},"CATEGORIE_463":{"type":"categorie","content":{"ID":463,"Text":"Fortbildung","Selected":"no"}},"CATEGORIE_761":{"type":"categorie","content":{"ID":761,"Text":"Fortbildung Modulteamer","Selected":"no"}},"CATEGORIE_896":{"type":"categorie","content":{"ID":896,"Text":"Fortbildung\/Weiterbildung","Selected":"no"}},"CATEGORIE_757":{"type":"categorie","content":{"ID":757,"Text":"Fotoabend","Selected":"no"}},"CATEGORIE_513":{"type":"categorie","content":{"ID":513,"Text":"freie Mitarbeiter","Selected":"no"}},"CATEGORIE_721":{"type":"categorie","content":{"ID":721,"Text":"Freiwillige Mitarbeiter","Selected":"no"}},"CATEGORIE_358":{"type":"categorie","content":{"ID":358,"Text":"Freizeit","Selected":"no"}},"CATEGORIE_409":{"type":"categorie","content":{"ID":409,"Text":"Freunde","Selected":"no"}},"CATEGORIE_921":{"type":"categorie","content":{"ID":921,"Text":"Freunde & F\u00f6rderer","Selected":"no"}},"CATEGORIE_587":{"type":"categorie","content":{"ID":587,"Text":"Freunde der DPSG Hochdahl","Selected":"no"}},"CATEGORIE_868":{"type":"categorie","content":{"ID":868,"Text":"Freunde und Familie","Selected":"no"}},"CATEGORIE_105":{"type":"categorie","content":{"ID":105,"Text":"Freunde und F\u00f6rderer","Selected":"no"}},"CATEGORIE_112":{"type":"categorie","content":{"ID":112,"Text":"Freunde und F\u00f6rderer der DPSG Stamm L\u00f6rick e.V.","Selected":"no"}},"CATEGORIE_983":{"type":"categorie","content":{"ID":983,"Text":"Freunde&F\u00f6rderer","Selected":"no"}},"CATEGORIE_518":{"type":"categorie","content":{"ID":518,"Text":"Freunde, Bekannte, Ehreng\u00e4ste","Selected":"no"}},"CATEGORIE_78":{"type":"categorie","content":{"ID":78,"Text":"Freundeskreis","Selected":"no"}},"CATEGORIE_873":{"type":"categorie","content":{"ID":873,"Text":"Freundeskreis des DPSG Stamm Coesfeld e.V.","Selected":"no"}},"CATEGORIE_336":{"type":"categorie","content":{"ID":336,"Text":"Freundeskreis Stamm Kurf\u00fcrst e.V.","Selected":"no"}},"CATEGORIE_157":{"type":"categorie","content":{"ID":157,"Text":"Friedenslicht","Selected":"no"}},"CATEGORIE_726":{"type":"categorie","content":{"ID":726,"Text":"Friedenslicht AG ~ RdP VDAPG","Selected":"no"}},"CATEGORIE_891":{"type":"categorie","content":{"ID":891,"Text":"Friedenslicht in K\u00f6ln","Selected":"no"}},"CATEGORIE_828":{"type":"categorie","content":{"ID":828,"Text":"Friedenslichtaktion","Selected":"no"}},"CATEGORIE_178":{"type":"categorie","content":{"ID":178,"Text":"Friedenslicht\u00fcbergabe","Selected":"no"}},"CATEGORIE_893":{"type":"categorie","content":{"ID":893,"Text":"Frist","Selected":"no"}},"CATEGORIE_77":{"type":"categorie","content":{"ID":77,"Text":"Fristende","Selected":"no"}},"CATEGORIE_403":{"type":"categorie","content":{"ID":403,"Text":"FT","Selected":"no"}},"CATEGORIE_430":{"type":"categorie","content":{"ID":430,"Text":"F\u00fchrerrunde","Selected":"no"}},"CATEGORIE_652":{"type":"categorie","content":{"ID":652,"Text":"Fun-Aktion","Selected":"no"}},"CATEGORIE_429":{"type":"categorie","content":{"ID":429,"Text":"f\u00fcr zuk\u00fcnftige SiF\u00fc","Selected":"no"}},"CATEGORIE_781":{"type":"categorie","content":{"ID":781,"Text":"Fu\u00dfball","Selected":"no"}},"CATEGORIE_417":{"type":"categorie","content":{"ID":417,"Text":"Fussball !!!","Selected":"no"}},"CATEGORIE_522":{"type":"categorie","content":{"ID":522,"Text":"futurscout","Selected":"no"}},"CATEGORIE_775":{"type":"categorie","content":{"ID":775,"Text":"FV-Mitglieder","Selected":"no"}},"CATEGORIE_201":{"type":"categorie","content":{"ID":201,"Text":"G\u00e4ste","Selected":"no"}},"CATEGORIE_432":{"type":"categorie","content":{"ID":432,"Text":"Gastl\u00e4nder entdecken","Selected":"no"}},"CATEGORIE_939":{"type":"categorie","content":{"ID":939,"Text":"Gaurat","Selected":"no"}},"CATEGORIE_656":{"type":"categorie","content":{"ID":656,"Text":"Geburtstag","Selected":"no"}},"CATEGORIE_532":{"type":"categorie","content":{"ID":532,"Text":"Geburtstage","Selected":"no"}},"CATEGORIE_424":{"type":"categorie","content":{"ID":424,"Text":"Gedenktag","Selected":"no"}},"CATEGORIE_461":{"type":"categorie","content":{"ID":461,"Text":"geistl. Leitung","Selected":"no"}},"CATEGORIE_517":{"type":"categorie","content":{"ID":517,"Text":"geladene St\u00e4mme","Selected":"no"}},"CATEGORIE_351":{"type":"categorie","content":{"ID":351,"Text":"Gel\u00e4ndespiel","Selected":"no"}},"CATEGORIE_5":{"type":"categorie","content":{"ID":5,"Text":"Gemeinde","Selected":"no"}},"CATEGORIE_360":{"type":"categorie","content":{"ID":360,"Text":"Gemeinde St. Jakobus","Selected":"no"}},"CATEGORIE_766":{"type":"categorie","content":{"ID":766,"Text":"Georgsrunde","Selected":"no"}},"CATEGORIE_849":{"type":"categorie","content":{"ID":849,"Text":"Georgstag","Selected":"no"}},"CATEGORIE_699":{"type":"categorie","content":{"ID":699,"Text":"Gew\u00e4hlte Vertreter","Selected":"no"}},"CATEGORIE_819":{"type":"categorie","content":{"ID":819,"Text":"Ghostbusters","Selected":"no"}},"CATEGORIE_811":{"type":"categorie","content":{"ID":811,"Text":"Gilde","Selected":"no"}},"CATEGORIE_936":{"type":"categorie","content":{"ID":936,"Text":"Gilden der Region NRW","Selected":"no"}},"CATEGORIE_990":{"type":"categorie","content":{"ID":990,"Text":"Gildenrunde","Selected":"no"}},"CATEGORIE_135":{"type":"categorie","content":{"ID":135,"Text":"Gilwellkurs f\u00fcr Landesleitungen","Selected":"no"}},"CATEGORIE_134":{"type":"categorie","content":{"ID":134,"Text":"Gilwellkurs f\u00fcr Stammesf\u00fchrungen","Selected":"no"}},"CATEGORIE_133":{"type":"categorie","content":{"ID":133,"Text":"Gilwellkurs f\u00fcr Stufenf\u00fchrungen","Selected":"no"}},"CATEGORIE_136":{"type":"categorie","content":{"ID":136,"Text":"Gilwellkurs f\u00fcr Trainer","Selected":"no"}},"CATEGORIE_579":{"type":"categorie","content":{"ID":579,"Text":"GJE","Selected":"no"}},"CATEGORIE_568":{"type":"categorie","content":{"ID":568,"Text":"Glauben","Selected":"no"}},"CATEGORIE_374":{"type":"categorie","content":{"ID":374,"Text":"Goofy","Selected":"no"}},"CATEGORIE_107":{"type":"categorie","content":{"ID":107,"Text":"Gottesdienst","Selected":"no"}},"CATEGORIE_229":{"type":"categorie","content":{"ID":229,"Text":"Gremien","Selected":"no"}},"CATEGORIE_11":{"type":"categorie","content":{"ID":11,"Text":"Gremium\/AK","Selected":"no"}},"CATEGORIE_272":{"type":"categorie","content":{"ID":272,"Text":"Grillabend","Selected":"no"}},"CATEGORIE_132":{"type":"categorie","content":{"ID":132,"Text":"Grundkurs","Selected":"no"}},"CATEGORIE_681":{"type":"categorie","content":{"ID":681,"Text":"Gruppenraum","Selected":"no"}},"CATEGORIE_182":{"type":"categorie","content":{"ID":182,"Text":"Gruppenstunde","Selected":"no"}},"CATEGORIE_605":{"type":"categorie","content":{"ID":605,"Text":"GSG","Selected":"no"}},"CATEGORIE_225":{"type":"categorie","content":{"ID":225,"Text":"G\u00fclsergemeinde","Selected":"no"}},"CATEGORIE_455":{"type":"categorie","content":{"ID":455,"Text":"Haus e.V.","Selected":"no"}},"CATEGORIE_251":{"type":"categorie","content":{"ID":251,"Text":"Hausparty","Selected":"no"}},"CATEGORIE_233":{"type":"categorie","content":{"ID":233,"Text":"Hausverein","Selected":"no"}},"CATEGORIE_528":{"type":"categorie","content":{"ID":528,"Text":"Hausvermietung","Selected":"no"}},"CATEGORIE_124":{"type":"categorie","content":{"ID":124,"Text":"Heilige Messe","Selected":"no"}},"CATEGORIE_787":{"type":"categorie","content":{"ID":787,"Text":"Helfe","Selected":"no"}},"CATEGORIE_153":{"type":"categorie","content":{"ID":153,"Text":"Helfer","Selected":"no"}},"CATEGORIE_613":{"type":"categorie","content":{"ID":613,"Text":"HGV","Selected":"no"}},"CATEGORIE_273":{"type":"categorie","content":{"ID":273,"Text":"Hike","Selected":"no"}},"CATEGORIE_878":{"type":"categorie","content":{"ID":878,"Text":"Hochschulgruppe","Selected":"no"}},"CATEGORIE_154":{"type":"categorie","content":{"ID":154,"Text":"Hofeinsatz","Selected":"no"}},"CATEGORIE_212":{"type":"categorie","content":{"ID":212,"Text":"Hofvermietung","Selected":"no"}},"CATEGORIE_237":{"type":"categorie","content":{"ID":237,"Text":"Holzmachen","Selected":"no"}},"CATEGORIE_462":{"type":"categorie","content":{"ID":462,"Text":"H\u00fcttenverein","Selected":"no"}},"CATEGORIE_449":{"type":"categorie","content":{"ID":449,"Text":"Ideen f\u00fcr Gruppenstunden","Selected":"no"}},"CATEGORIE_226":{"type":"categorie","content":{"ID":226,"Text":"Infektionsschutz","Selected":"no"}},"CATEGORIE_255":{"type":"categorie","content":{"ID":255,"Text":"Info Abend","Selected":"no"}},"CATEGORIE_249":{"type":"categorie","content":{"ID":249,"Text":"Info-Treffen","Selected":"no"}},"CATEGORIE_715":{"type":"categorie","content":{"ID":715,"Text":"Informationsveranstaltung","Selected":"no"}},"CATEGORIE_676":{"type":"categorie","content":{"ID":676,"Text":"Infoveranstalltung","Selected":"no"}},"CATEGORIE_598":{"type":"categorie","content":{"ID":598,"Text":"Infoveranstaltung","Selected":"no"}},"CATEGORIE_739":{"type":"categorie","content":{"ID":739,"Text":"INFOVERANSTALTUNG","Selected":"no"}},"CATEGORIE_248":{"type":"categorie","content":{"ID":248,"Text":"Infoverantaltung","Selected":"no"}},"CATEGORIE_955":{"type":"categorie","content":{"ID":955,"Text":"Inklusion","Selected":"no"}},"CATEGORIE_750":{"type":"categorie","content":{"ID":750,"Text":"Interessierte","Selected":"no"}},"CATEGORIE_335":{"type":"categorie","content":{"ID":335,"Text":"Interessierte Leiter","Selected":"no"}},"CATEGORIE_581":{"type":"categorie","content":{"ID":581,"Text":"Internat. Konferenz","Selected":"no"}},"CATEGORIE_239":{"type":"categorie","content":{"ID":239,"Text":"International","Selected":"no"}},"CATEGORIE_278":{"type":"categorie","content":{"ID":278,"Text":"Internationale Begegnung","Selected":"no"}},"CATEGORIE_456":{"type":"categorie","content":{"ID":456,"Text":"Internationale Gerechtigkeit","Selected":"no"}},"CATEGORIE_364":{"type":"categorie","content":{"ID":364,"Text":"Internationale Kontakte","Selected":"no"}},"CATEGORIE_564":{"type":"categorie","content":{"ID":564,"Text":"Internationales","Selected":"no"}},"CATEGORIE_608":{"type":"categorie","content":{"ID":608,"Text":"Intressierte","Selected":"no"}},"CATEGORIE_871":{"type":"categorie","content":{"ID":871,"Text":"Inventur ","Selected":"no"}},"CATEGORIE_826":{"type":"categorie","content":{"ID":826,"Text":"Ironscout","Selected":"no"}},"CATEGORIE_243":{"type":"categorie","content":{"ID":243,"Text":"JA","Selected":"no"}},"CATEGORIE_650":{"type":"categorie","content":{"ID":650,"Text":"Jagen und gejagt werden","Selected":"no"}},"CATEGORIE_537":{"type":"categorie","content":{"ID":537,"Text":"Jahresabschluss","Selected":"no"}},"CATEGORIE_14":{"type":"categorie","content":{"ID":14,"Text":"Jahresaktion","Selected":"no"}},"CATEGORIE_258":{"type":"categorie","content":{"ID":258,"Text":"jahresaktion","Selected":"no"}},"CATEGORIE_500":{"type":"categorie","content":{"ID":500,"Text":"Jahreshauptversammlung","Selected":"no"}},"CATEGORIE_626":{"type":"categorie","content":{"ID":626,"Text":"Jahresplanung","Selected":"no"}},"CATEGORIE_810":{"type":"categorie","content":{"ID":810,"Text":"Jamb","Selected":"no"}},"CATEGORIE_158":{"type":"categorie","content":{"ID":158,"Text":"Jamb de Cologne","Selected":"no"}},"CATEGORIE_170":{"type":"categorie","content":{"ID":170,"Text":"Jamboree","Selected":"no"}},"CATEGORIE_612":{"type":"categorie","content":{"ID":612,"Text":"Jamboree 2011","Selected":"no"}},"CATEGORIE_611":{"type":"categorie","content":{"ID":611,"Text":"Jamboreegruppe","Selected":"no"}},"CATEGORIE_640":{"type":"categorie","content":{"ID":640,"Text":"Jamboreetrupp","Selected":"no"}},"CATEGORIE_759":{"type":"categorie","content":{"ID":759,"Text":"JaTePla","Selected":"no"}},"CATEGORIE_914":{"type":"categorie","content":{"ID":914,"Text":"Jeder","Selected":"no"}},"CATEGORIE_241":{"type":"categorie","content":{"ID":241,"Text":"JOTA","Selected":"no"}},"CATEGORIE_15":{"type":"categorie","content":{"ID":15,"Text":"JOTA-JOTI","Selected":"no"}},"CATEGORIE_866":{"type":"categorie","content":{"ID":866,"Text":"Jota-Joti","Selected":"no"}},"CATEGORIE_242":{"type":"categorie","content":{"ID":242,"Text":"JOTI","Selected":"no"}},"CATEGORIE_236":{"type":"categorie","content":{"ID":236,"Text":"Jubil\u00e4um","Selected":"no"}},"CATEGORIE_445":{"type":"categorie","content":{"ID":445,"Text":"Jubil\u00e4um 2009","Selected":"no"}},"CATEGORIE_498":{"type":"categorie","content":{"ID":498,"Text":"Jubil\u00e4umsfeier","Selected":"no"}},"CATEGORIE_945":{"type":"categorie","content":{"ID":945,"Text":"Juffi AK","Selected":"no"}},"CATEGORIE_317":{"type":"categorie","content":{"ID":317,"Text":"Juffi-Leiter","Selected":"no"}},"CATEGORIE_184":{"type":"categorie","content":{"ID":184,"Text":"Juffi-Leiterrunde","Selected":"no"}},"CATEGORIE_323":{"type":"categorie","content":{"ID":323,"Text":"Juffileiter","Selected":"no"}},"CATEGORIE_771":{"type":"categorie","content":{"ID":771,"Text":"Juffis","Selected":"no"}},"CATEGORIE_446":{"type":"categorie","content":{"ID":446,"Text":"Juffistufe","Selected":"no"}},"CATEGORIE_756":{"type":"categorie","content":{"ID":756,"Text":"Juffitrupp Blue Gecko","Selected":"no"}},"CATEGORIE_574":{"type":"categorie","content":{"ID":574,"Text":"Jufi-Leiter","Selected":"no"}},"CATEGORIE_796":{"type":"categorie","content":{"ID":796,"Text":"Jugend Christk\u00f6nig","Selected":"no"}},"CATEGORIE_806":{"type":"categorie","content":{"ID":806,"Text":"Jugenddialogtag","Selected":"no"}},"CATEGORIE_622":{"type":"categorie","content":{"ID":622,"Text":"Jugendring","Selected":"no"}},"CATEGORIE_556":{"type":"categorie","content":{"ID":556,"Text":"Jugendring D\u00fcsseldorf","Selected":"no"}},"CATEGORIE_567":{"type":"categorie","content":{"ID":567,"Text":"Jugendtreffen","Selected":"no"}},"CATEGORIE_867":{"type":"categorie","content":{"ID":867,"Text":"Juleica","Selected":"no"}},"CATEGORIE_862":{"type":"categorie","content":{"ID":862,"Text":"Jump de Cologne 2016","Selected":"no"}},"CATEGORIE_17":{"type":"categorie","content":{"ID":17,"Text":"Jungpfadfinder","Selected":"no"}},"CATEGORIE_745":{"type":"categorie","content":{"ID":745,"Text":"Jungpfafinder","Selected":"no"}},"CATEGORIE_808":{"type":"categorie","content":{"ID":808,"Text":"Jungs","Selected":"no"}},"CATEGORIE_618":{"type":"categorie","content":{"ID":618,"Text":"Jupfileiter","Selected":"no"}},"CATEGORIE_324":{"type":"categorie","content":{"ID":324,"Text":"Jupfileiter-Termin","Selected":"no"}},"CATEGORIE_268":{"type":"categorie","content":{"ID":268,"Text":"Jupfistufe","Selected":"no"}},"CATEGORIE_859":{"type":"categorie","content":{"ID":859,"Text":"Jurchtenabend","Selected":"no"}},"CATEGORIE_666":{"type":"categorie","content":{"ID":666,"Text":"K\u00e4nguru","Selected":"no"}},"CATEGORIE_815":{"type":"categorie","content":{"ID":815,"Text":"Kapellenbau","Selected":"no"}},"CATEGORIE_104":{"type":"categorie","content":{"ID":104,"Text":"Karnevalssitzung","Selected":"no"}},"CATEGORIE_46":{"type":"categorie","content":{"ID":46,"Text":"Kassenpr\u00fcfer","Selected":"no"}},"CATEGORIE_300":{"type":"categorie","content":{"ID":300,"Text":"Kerpen \/ M\u00f6trath","Selected":"no"}},"CATEGORIE_129":{"type":"categorie","content":{"ID":129,"Text":"KfG Kurs f\u00fcr Gildenf\u00fchrungen","Selected":"no"}},"CATEGORIE_130":{"type":"categorie","content":{"ID":130,"Text":"KfM Kurs f\u00fcr Meutenf\u00fchrungen","Selected":"no"}},"CATEGORIE_131":{"type":"categorie","content":{"ID":131,"Text":"KfR Kurs f\u00fcr Ranger & Rover","Selected":"no"}},"CATEGORIE_366":{"type":"categorie","content":{"ID":366,"Text":"KFS","Selected":"no"}},"CATEGORIE_128":{"type":"categorie","content":{"ID":128,"Text":"KfS Kurs f\u00fcr Sippenf\u00fchrungen","Selected":"no"}},"CATEGORIE_765":{"type":"categorie","content":{"ID":765,"Text":"KIM","Selected":"no"}},"CATEGORIE_181":{"type":"categorie","content":{"ID":181,"Text":"Kinderbetreuung","Selected":"no"}},"CATEGORIE_60":{"type":"categorie","content":{"ID":60,"Text":"Kinderstufe","Selected":"no"}},"CATEGORIE_369":{"type":"categorie","content":{"ID":369,"Text":"Kirche","Selected":"no"}},"CATEGORIE_682":{"type":"categorie","content":{"ID":682,"Text":"Kirchengemeinde","Selected":"no"}},"CATEGORIE_443":{"type":"categorie","content":{"ID":443,"Text":"Kirchentag","Selected":"no"}},"CATEGORIE_168":{"type":"categorie","content":{"ID":168,"Text":"Kirmes","Selected":"no"}},"CATEGORIE_723":{"type":"categorie","content":{"ID":723,"Text":"KJG","Selected":"no"}},"CATEGORIE_423":{"type":"categorie","content":{"ID":423,"Text":"KJG & DPSG","Selected":"no"}},"CATEGORIE_101":{"type":"categorie","content":{"ID":101,"Text":"KJG Heerdt","Selected":"no"}},"CATEGORIE_402":{"type":"categorie","content":{"ID":402,"Text":"KJH","Selected":"no"}},"CATEGORIE_930":{"type":"categorie","content":{"ID":930,"Text":"KJR","Selected":"no"}},"CATEGORIE_824":{"type":"categorie","content":{"ID":824,"Text":"KJR ED","Selected":"no"}},"CATEGORIE_714":{"type":"categorie","content":{"ID":714,"Text":"KJR Landsberg am Lech","Selected":"no"}},"CATEGORIE_737":{"type":"categorie","content":{"ID":737,"Text":"KJR-Landsberg","Selected":"no"}},"CATEGORIE_627":{"type":"categorie","content":{"ID":627,"Text":"KJRB","Selected":"no"}},"CATEGORIE_72":{"type":"categorie","content":{"ID":72,"Text":"KJU","Selected":"no"}},"CATEGORIE_91":{"type":"categorie","content":{"ID":91,"Text":"KKG St. Marien & St. Joseph","Selected":"no"}},"CATEGORIE_877":{"type":"categorie","content":{"ID":877,"Text":"Klausur","Selected":"no"}},"CATEGORIE_383":{"type":"categorie","content":{"ID":383,"Text":"Klimaschutz","Selected":"no"}},"CATEGORIE_116":{"type":"categorie","content":{"ID":116,"Text":"KLT Kursleitungstraining","Selected":"no"}},"CATEGORIE_204":{"type":"categorie","content":{"ID":204,"Text":"Koeln","Selected":"no"}},"CATEGORIE_928":{"type":"categorie","content":{"ID":928,"Text":"Kommunale Jugendarbeit","Selected":"no"}},"CATEGORIE_296":{"type":"categorie","content":{"ID":296,"Text":"Konferenz","Selected":"no"}},"CATEGORIE_215":{"type":"categorie","content":{"ID":215,"Text":"Kongress","Selected":"no"}},"CATEGORIE_284":{"type":"categorie","content":{"ID":284,"Text":"Kontakttreffen f\u00fcr Pfadileiter","Selected":"no"}},"CATEGORIE_974":{"type":"categorie","content":{"ID":974,"Text":"Kreisjugendring Breisgau-Hochschwarzwald","Selected":"no"}},"CATEGORIE_845":{"type":"categorie","content":{"ID":845,"Text":"Kreuzpfadfinder","Selected":"no"}},"CATEGORIE_411":{"type":"categorie","content":{"ID":411,"Text":"Krippenbau","Selected":"no"}},"CATEGORIE_906":{"type":"categorie","content":{"ID":906,"Text":"Kundgebung","Selected":"no"}},"CATEGORIE_969":{"type":"categorie","content":{"ID":969,"Text":"Kurat*innen","Selected":"no"}},"CATEGORIE_963":{"type":"categorie","content":{"ID":963,"Text":"Kurat:innen","Selected":"no"}},"CATEGORIE_440":{"type":"categorie","content":{"ID":440,"Text":"Kuraten","Selected":"no"}},"CATEGORIE_684":{"type":"categorie","content":{"ID":684,"Text":"Kuratenausbildung","Selected":"no"}},"CATEGORIE_754":{"type":"categorie","content":{"ID":754,"Text":"KuratInnen","Selected":"no"}},"CATEGORIE_460":{"type":"categorie","content":{"ID":460,"Text":"Kuratinnen und Kuraten","Selected":"no"}},"CATEGORIE_102":{"type":"categorie","content":{"ID":102,"Text":"Kurier","Selected":"no"}},"CATEGORIE_428":{"type":"categorie","content":{"ID":428,"Text":"Kurs f\u00fcr Sippenf\u00fchrungen","Selected":"no"}},"CATEGORIE_683":{"type":"categorie","content":{"ID":683,"Text":"Kurs Spiritualit\u00e4t","Selected":"no"}},"CATEGORIE_459":{"type":"categorie","content":{"ID":459,"Text":"Kurs-S\u00fcd","Selected":"no"}},"CATEGORIE_488":{"type":"categorie","content":{"ID":488,"Text":"Kursleitungstraining (KLT)","Selected":"no"}},"CATEGORIE_49":{"type":"categorie","content":{"ID":49,"Text":"KWG","Selected":"no"}},"CATEGORIE_910":{"type":"categorie","content":{"ID":910,"Text":"Laf\u00fc","Selected":"no"}},"CATEGORIE_814":{"type":"categorie","content":{"ID":814,"Text":"Lager info Abend","Selected":"no"}},"CATEGORIE_902":{"type":"categorie","content":{"ID":902,"Text":"Lager und Fahrt","Selected":"no"}},"CATEGORIE_516":{"type":"categorie","content":{"ID":516,"Text":"Lagerleitung","Selected":"no"}},"CATEGORIE_253":{"type":"categorie","content":{"ID":253,"Text":"Lagerrat","Selected":"no"}},"CATEGORIE_801":{"type":"categorie","content":{"ID":801,"Text":"Lagervorbereitung","Selected":"no"}},"CATEGORIE_404":{"type":"categorie","content":{"ID":404,"Text":"Landesleitung","Selected":"no"}},"CATEGORIE_216":{"type":"categorie","content":{"ID":216,"Text":"Landesverband","Selected":"no"}},"CATEGORIE_860":{"type":"categorie","content":{"ID":860,"Text":"Landesversammlung","Selected":"no"}},"CATEGORIE_841":{"type":"categorie","content":{"ID":841,"Text":"Landesversammlung Bayern","Selected":"no"}},"CATEGORIE_743":{"type":"categorie","content":{"ID":743,"Text":"Landesvorst\u00e4nde","Selected":"no"}},"CATEGORIE_145":{"type":"categorie","content":{"ID":145,"Text":"Langerwehe","Selected":"no"}},"CATEGORIE_117":{"type":"categorie","content":{"ID":117,"Text":"LAV-Klausur","Selected":"no"}},"CATEGORIE_20":{"type":"categorie","content":{"ID":20,"Text":"Leiter","Selected":"no"}},"CATEGORIE_950":{"type":"categorie","content":{"ID":950,"Text":"Leiter*innen","Selected":"no"}},"CATEGORIE_108":{"type":"categorie","content":{"ID":108,"Text":"Leiter-WE","Selected":"no"}},"CATEGORIE_660":{"type":"categorie","content":{"ID":660,"Text":"Leiter\/innen","Selected":"no"}},"CATEGORIE_730":{"type":"categorie","content":{"ID":730,"Text":"Leiterabend","Selected":"no"}},"CATEGORIE_853":{"type":"categorie","content":{"ID":853,"Text":"Leiteraktion","Selected":"no"}},"CATEGORIE_89":{"type":"categorie","content":{"ID":89,"Text":"Leiterausbildung","Selected":"no"}},"CATEGORIE_315":{"type":"categorie","content":{"ID":315,"Text":"Leiterausflug","Selected":"no"}},"CATEGORIE_205":{"type":"categorie","content":{"ID":205,"Text":"Leiterdankesch\u00f6n","Selected":"no"}},"CATEGORIE_64":{"type":"categorie","content":{"ID":64,"Text":"Leiterinnen","Selected":"no"}},"CATEGORIE_809":{"type":"categorie","content":{"ID":809,"Text":"LeiterInnen","Selected":"no"}},"CATEGORIE_418":{"type":"categorie","content":{"ID":418,"Text":"Leiterkontress","Selected":"no"}},"CATEGORIE_43":{"type":"categorie","content":{"ID":43,"Text":"Leiterrunde","Selected":"no"}},"CATEGORIE_94":{"type":"categorie","content":{"ID":94,"Text":"Leitertreffen","Selected":"no"}},"CATEGORIE_978":{"type":"categorie","content":{"ID":978,"Text":"Leitungsrunde","Selected":"no"}},"CATEGORIE_439":{"type":"categorie","content":{"ID":439,"Text":"ljr","Selected":"no"}},"CATEGORIE_807":{"type":"categorie","content":{"ID":807,"Text":"M\u00e4dchen","Selected":"no"}},"CATEGORIE_984":{"type":"categorie","content":{"ID":984,"Text":"Maker Wochenende","Selected":"no"}},"CATEGORIE_738":{"type":"categorie","content":{"ID":738,"Text":"Markt Ro\u00dftal","Selected":"no"}},"CATEGORIE_95":{"type":"categorie","content":{"ID":95,"Text":"Material","Selected":"no"}},"CATEGORIE_722":{"type":"categorie","content":{"ID":722,"Text":"Materialpflege","Selected":"no"}},"CATEGORIE_958":{"type":"categorie","content":{"ID":958,"Text":"Medien","Selected":"no"}},"CATEGORIE_763":{"type":"categorie","content":{"ID":763,"Text":"Merzig","Selected":"no"}},"CATEGORIE_264":{"type":"categorie","content":{"ID":264,"Text":"Messdiener","Selected":"no"}},"CATEGORIE_265":{"type":"categorie","content":{"ID":265,"Text":"Messdiener MiNor","Selected":"no"}},"CATEGORIE_709":{"type":"categorie","content":{"ID":709,"Text":"Messe","Selected":"no"}},"CATEGORIE_854":{"type":"categorie","content":{"ID":854,"Text":"Methoden-Training zum Einstieg","Selected":"no"}},"CATEGORIE_425":{"type":"categorie","content":{"ID":425,"Text":"MeuF\u00fc-Treffen","Selected":"no"}},"CATEGORIE_221":{"type":"categorie","content":{"ID":221,"Text":"Meuterei - W\u00f6lflinge am Ruder! (Bundeslager 2008)","Selected":"no"}},"CATEGORIE_223":{"type":"categorie","content":{"ID":223,"Text":"MEUTErei - W\u00f6lflinge am Ruder! (Bundeslager)","Selected":"no"}},"CATEGORIE_222":{"type":"categorie","content":{"ID":222,"Text":"MEUTErei 2008","Selected":"no"}},"CATEGORIE_607":{"type":"categorie","content":{"ID":607,"Text":"mi mundo","Selected":"no"}},"CATEGORIE_531":{"type":"categorie","content":{"ID":531,"Text":"mit Eltern und Freunden","Selected":"no"}},"CATEGORIE_548":{"type":"categorie","content":{"ID":548,"Text":"mit Stamm Winfried","Selected":"no"}},"CATEGORIE_188":{"type":"categorie","content":{"ID":188,"Text":"Mitarbeiter","Selected":"no"}},"CATEGORIE_189":{"type":"categorie","content":{"ID":189,"Text":"Mitarbeiterrunde","Selected":"no"}},"CATEGORIE_65":{"type":"categorie","content":{"ID":65,"Text":"Mitglied","Selected":"no"}},"CATEGORIE_172":{"type":"categorie","content":{"ID":172,"Text":"Mitglieder","Selected":"no"}},"CATEGORIE_345":{"type":"categorie","content":{"ID":345,"Text":"Mitglieder des Wahlausschusses","Selected":"no"}},"CATEGORIE_347":{"type":"categorie","content":{"ID":347,"Text":"Mitglieder H\u00fcttenverein","Selected":"no"}},"CATEGORIE_401":{"type":"categorie","content":{"ID":401,"Text":"Mitglieder VFF und Freunde der DPSG Hochdahl","Selected":"no"}},"CATEGORIE_542":{"type":"categorie","content":{"ID":542,"Text":"Mitgliederversammlung","Selected":"no"}},"CATEGORIE_35":{"type":"categorie","content":{"ID":35,"Text":"MLT Modulleitungstraining","Selected":"no"}},"CATEGORIE_367":{"type":"categorie","content":{"ID":367,"Text":"Modul 3c","Selected":"no"}},"CATEGORIE_244":{"type":"categorie","content":{"ID":244,"Text":"Module: 2a, 2b, 2c, 3d","Selected":"no"}},"CATEGORIE_392":{"type":"categorie","content":{"ID":392,"Text":"Modulkurs","Selected":"no"}},"CATEGORIE_450":{"type":"categorie","content":{"ID":450,"Text":"Modulkurs - Teamer","Selected":"no"}},"CATEGORIE_56":{"type":"categorie","content":{"ID":56,"Text":"Modulkursteamer","Selected":"no"}},"CATEGORIE_486":{"type":"categorie","content":{"ID":486,"Text":"Modulleitungstraining (MLT)","Selected":"no"}},"CATEGORIE_703":{"type":"categorie","content":{"ID":703,"Text":"Modulteamer","Selected":"no"}},"CATEGORIE_635":{"type":"categorie","content":{"ID":635,"Text":"Modulteamertraining","Selected":"no"}},"CATEGORIE_588":{"type":"categorie","content":{"ID":588,"Text":"Modulveranstaltung","Selected":"no"}},"CATEGORIE_527":{"type":"categorie","content":{"ID":527,"Text":"Moorhaus","Selected":"no"}},"CATEGORIE_467":{"type":"categorie","content":{"ID":467,"Text":"Moorhaus KWG","Selected":"no"}},"CATEGORIE_900":{"type":"categorie","content":{"ID":900,"Text":"Moot","Selected":"no"}},"CATEGORIE_947":{"type":"categorie","content":{"ID":947,"Text":"Multiplikator*innen","Selected":"no"}},"CATEGORIE_427":{"type":"categorie","content":{"ID":427,"Text":"musisches Treffen","Selected":"no"}},"CATEGORIE_582":{"type":"categorie","content":{"ID":582,"Text":"Musisches Treffen","Selected":"no"}},"CATEGORIE_167":{"type":"categorie","content":{"ID":167,"Text":"Nachtreffen","Selected":"no"}},"CATEGORIE_213":{"type":"categorie","content":{"ID":213,"Text":"Nami","Selected":"no"}},"CATEGORIE_259":{"type":"categorie","content":{"ID":259,"Text":"nat\u00fcrlich pfadfinden","Selected":"no"}},"CATEGORIE_561":{"type":"categorie","content":{"ID":561,"Text":"neue Leiter","Selected":"no"}},"CATEGORIE_566":{"type":"categorie","content":{"ID":566,"Text":"Nord AG","Selected":"no"}},"CATEGORIE_894":{"type":"categorie","content":{"ID":894,"Text":"NRW Ferien","Selected":"no"}},"CATEGORIE_667":{"type":"categorie","content":{"ID":667,"Text":"Octopus","Selected":"no"}},"CATEGORIE_202":{"type":"categorie","content":{"ID":202,"Text":"\u00f6ffentliche Sitzung","Selected":"no"}},"CATEGORIE_948":{"type":"categorie","content":{"ID":948,"Text":"\u00f6ffentliche Veranstaltung","Selected":"no"}},"CATEGORIE_751":{"type":"categorie","content":{"ID":751,"Text":"\u00d6ffentlichkeit","Selected":"no"}},"CATEGORIE_688":{"type":"categorie","content":{"ID":688,"Text":"\u00d6ffentlichkeits AG","Selected":"no"}},"CATEGORIE_58":{"type":"categorie","content":{"ID":58,"Text":"\u00d6ffentlichkeitsarbeit","Selected":"no"}},"CATEGORIE_381":{"type":"categorie","content":{"ID":381,"Text":"\u00d6kologie","Selected":"no"}},"CATEGORIE_174":{"type":"categorie","content":{"ID":174,"Text":"Oldies","Selected":"no"}},"CATEGORIE_690":{"type":"categorie","content":{"ID":690,"Text":"Oldtimer","Selected":"no"}},"CATEGORIE_719":{"type":"categorie","content":{"ID":719,"Text":"OLDTIMER","Selected":"no"}},"CATEGORIE_962":{"type":"categorie","content":{"ID":962,"Text":"Online-Ausbildung","Selected":"no"}},"CATEGORIE_967":{"type":"categorie","content":{"ID":967,"Text":"Online-Veranstaltung","Selected":"no"}},"CATEGORIE_262":{"type":"categorie","content":{"ID":262,"Text":"Orga","Selected":"no"}},"CATEGORIE_592":{"type":"categorie","content":{"ID":592,"Text":"Organisation","Selected":"no"}},"CATEGORIE_846":{"type":"categorie","content":{"ID":846,"Text":"Osterfeuer","Selected":"no"}},"CATEGORIE_752":{"type":"categorie","content":{"ID":752,"Text":"Panther","Selected":"no"}},"CATEGORIE_812":{"type":"categorie","content":{"ID":812,"Text":"Partnerschaft Bolivien","Selected":"no"}},"CATEGORIE_491":{"type":"categorie","content":{"ID":491,"Text":"Part\u00fc\u00fc","Selected":"no"}},"CATEGORIE_84":{"type":"categorie","content":{"ID":84,"Text":"Party","Selected":"no"}},"CATEGORIE_256":{"type":"categorie","content":{"ID":256,"Text":"Party!!!","Selected":"no"}},"CATEGORIE_74":{"type":"categorie","content":{"ID":74,"Text":"Passwort Blau","Selected":"no"}},"CATEGORIE_496":{"type":"categorie","content":{"ID":496,"Text":"Pfadfinden100 in Deutschland","Selected":"no"}},"CATEGORIE_18":{"type":"categorie","content":{"ID":18,"Text":"Pfadfinder","Selected":"no"}},"CATEGORIE_509":{"type":"categorie","content":{"ID":509,"Text":"Pfadfinder Freunde Kulmain","Selected":"no"}},"CATEGORIE_570":{"type":"categorie","content":{"ID":570,"Text":"Pfadfindertermin-Weltweit","Selected":"no"}},"CATEGORIE_944":{"type":"categorie","content":{"ID":944,"Text":"Pfadi-AK","Selected":"no"}},"CATEGORIE_539":{"type":"categorie","content":{"ID":539,"Text":"Pfadichor","Selected":"no"}},"CATEGORIE_466":{"type":"categorie","content":{"ID":466,"Text":"Pfadileiter","Selected":"no"}},"CATEGORIE_148":{"type":"categorie","content":{"ID":148,"Text":"Pfadileiter-Stammtisch","Selected":"no"}},"CATEGORIE_61":{"type":"categorie","content":{"ID":61,"Text":"Pfadis","Selected":"no"}},"CATEGORIE_659":{"type":"categorie","content":{"ID":659,"Text":"Pfadis Donnerstag","Selected":"no"}},"CATEGORIE_267":{"type":"categorie","content":{"ID":267,"Text":"Pfadistufe","Selected":"no"}},"CATEGORIE_75":{"type":"categorie","content":{"ID":75,"Text":"Pfarrei","Selected":"no"}},"CATEGORIE_710":{"type":"categorie","content":{"ID":710,"Text":"Pfarrer","Selected":"no"}},"CATEGORIE_468":{"type":"categorie","content":{"ID":468,"Text":"Pfarrfest","Selected":"no"}},"CATEGORIE_770":{"type":"categorie","content":{"ID":770,"Text":"Pfarrgemeinde","Selected":"no"}},"CATEGORIE_68":{"type":"categorie","content":{"ID":68,"Text":"Pfarrjugend","Selected":"no"}},"CATEGORIE_594":{"type":"categorie","content":{"ID":594,"Text":"Pfarrveranstaltung","Selected":"no"}},"CATEGORIE_474":{"type":"categorie","content":{"ID":474,"Text":"Pfarrverband","Selected":"no"}},"CATEGORIE_800":{"type":"categorie","content":{"ID":800,"Text":"PFG AK","Selected":"no"}},"CATEGORIE_571":{"type":"categorie","content":{"ID":571,"Text":"PJL","Selected":"no"}},"CATEGORIE_42":{"type":"categorie","content":{"ID":42,"Text":"pl","Selected":"no"}},"CATEGORIE_776":{"type":"categorie","content":{"ID":776,"Text":"Planung","Selected":"no"}},"CATEGORIE_550":{"type":"categorie","content":{"ID":550,"Text":"Planungen","Selected":"no"}},"CATEGORIE_985":{"type":"categorie","content":{"ID":985,"Text":"Planungh\u00fctte","Selected":"no"}},"CATEGORIE_420":{"type":"categorie","content":{"ID":420,"Text":"Planungsgruppe & Interessierte","Selected":"no"}},"CATEGORIE_421":{"type":"categorie","content":{"ID":421,"Text":"Planungsgruppe und Interessierte","Selected":"no"}},"CATEGORIE_379":{"type":"categorie","content":{"ID":379,"Text":"Planungsteam","Selected":"no"}},"CATEGORIE_263":{"type":"categorie","content":{"ID":263,"Text":"Planungstreffen","Selected":"no"}},"CATEGORIE_160":{"type":"categorie","content":{"ID":160,"Text":"Platsch","Selected":"no"}},"CATEGORIE_689":{"type":"categorie","content":{"ID":689,"Text":"Plauderkasten","Selected":"no"}},"CATEGORIE_764":{"type":"categorie","content":{"ID":764,"Text":"PR-Sitzung","Selected":"no"}},"CATEGORIE_741":{"type":"categorie","content":{"ID":741,"Text":"Pr\u00e4vention","Selected":"no"}},"CATEGORIE_760":{"type":"categorie","content":{"ID":760,"Text":"Pr\u00e4ventionskurs","Selected":"no"}},"CATEGORIE_799":{"type":"categorie","content":{"ID":799,"Text":"Pr\u00e4ventionsschulung","Selected":"no"}},"CATEGORIE_917":{"type":"categorie","content":{"ID":917,"Text":"PReklaM","Selected":"no"}},"CATEGORIE_625":{"type":"categorie","content":{"ID":625,"Text":"Projektgruppe","Selected":"no"}},"CATEGORIE_706":{"type":"categorie","content":{"ID":706,"Text":"PSG","Selected":"no"}},"CATEGORIE_832":{"type":"categorie","content":{"ID":832,"Text":"PSG Bayern","Selected":"no"}},"CATEGORIE_833":{"type":"categorie","content":{"ID":833,"Text":"PSG Di\u00f6zese M\u00fcnchen Freising","Selected":"no"}},"CATEGORIE_850":{"type":"categorie","content":{"ID":850,"Text":"PSG Di\u00f6zese M\u00fcnchen-Fresing","Selected":"no"}},"CATEGORIE_965":{"type":"categorie","content":{"ID":965,"Text":"Radioscouting","Selected":"no"}},"CATEGORIE_980":{"type":"categorie","content":{"ID":980,"Text":"RAMMADAMMA 23","Selected":"no"}},"CATEGORIE_63":{"type":"categorie","content":{"ID":63,"Text":"Ranger","Selected":"no"}},"CATEGORIE_125":{"type":"categorie","content":{"ID":125,"Text":"Ranger & Rover","Selected":"no"}},"CATEGORIE_932":{"type":"categorie","content":{"ID":932,"Text":"Ranger &amp; Rover","Selected":"no"}},"CATEGORIE_59":{"type":"categorie","content":{"ID":59,"Text":"Ranger\/Rover","Selected":"no"}},"CATEGORIE_444":{"type":"categorie","content":{"ID":444,"Text":"Ratstreffen","Selected":"no"}},"CATEGORIE_398":{"type":"categorie","content":{"ID":398,"Text":"RBU08","Selected":"no"}},"CATEGORIE_183":{"type":"categorie","content":{"ID":183,"Text":"RdP","Selected":"no"}},"CATEGORIE_495":{"type":"categorie","content":{"ID":495,"Text":"rdp","Selected":"no"}},"CATEGORIE_705":{"type":"categorie","content":{"ID":705,"Text":"rdp","Selected":"no"}},"CATEGORIE_707":{"type":"categorie","content":{"ID":707,"Text":"RDP","Selected":"no"}},"CATEGORIE_266":{"type":"categorie","content":{"ID":266,"Text":"RdP Baden-W\u00fcrttemberg","Selected":"no"}},"CATEGORIE_712":{"type":"categorie","content":{"ID":712,"Text":"RdP\/VDAPG","Selected":"no"}},"CATEGORIE_79":{"type":"categorie","content":{"ID":79,"Text":"Rechtstr\u00e4ger","Selected":"no"}},"CATEGORIE_540":{"type":"categorie","content":{"ID":540,"Text":"Referenten","Selected":"no"}},"CATEGORIE_718":{"type":"categorie","content":{"ID":718,"Text":"Reflektion","Selected":"no"}},"CATEGORIE_836":{"type":"categorie","content":{"ID":836,"Text":"Reflexion","Selected":"no"}},"CATEGORIE_959":{"type":"categorie","content":{"ID":959,"Text":"Regenbogen","Selected":"no"}},"CATEGORIE_458":{"type":"categorie","content":{"ID":458,"Text":"Region","Selected":"no"}},"CATEGORIE_821":{"type":"categorie","content":{"ID":821,"Text":"REgion","Selected":"no"}},"CATEGORIE_285":{"type":"categorie","content":{"ID":285,"Text":"Region ISAR","Selected":"no"}},"CATEGORIE_326":{"type":"categorie","content":{"ID":326,"Text":"Region Isar","Selected":"no"}},"CATEGORIE_725":{"type":"categorie","content":{"ID":725,"Text":"Region-Isar Kurs-S\u00fcd","Selected":"no"}},"CATEGORIE_733":{"type":"categorie","content":{"ID":733,"Text":"Regionaltreffen","Selected":"no"}},"CATEGORIE_319":{"type":"categorie","content":{"ID":319,"Text":"Regionsrat","Selected":"no"}},"CATEGORIE_228":{"type":"categorie","content":{"ID":228,"Text":"Regionstreffen","Selected":"no"}},"CATEGORIE_318":{"type":"categorie","content":{"ID":318,"Text":"Regionsversammlung","Selected":"no"}},"CATEGORIE_899":{"type":"categorie","content":{"ID":899,"Text":"Repr\u00e4sentation","Selected":"no"}},"CATEGORIE_889":{"type":"categorie","content":{"ID":889,"Text":"Ringtreffen","Selected":"no"}},"CATEGORIE_293":{"type":"categorie","content":{"ID":293,"Text":"Ringveranstaltung","Selected":"no"}},"CATEGORIE_207":{"type":"categorie","content":{"ID":207,"Text":"ritterrunde","Selected":"no"}},"CATEGORIE_299":{"type":"categorie","content":{"ID":299,"Text":"Rohlandstrasse \/ K\u00f6ln","Selected":"no"}},"CATEGORIE_19":{"type":"categorie","content":{"ID":19,"Text":"Rover","Selected":"no"}},"CATEGORIE_658":{"type":"categorie","content":{"ID":658,"Text":"Rover Donnerstag","Selected":"no"}},"CATEGORIE_837":{"type":"categorie","content":{"ID":837,"Text":"Rover,","Selected":"no"}},"CATEGORIE_942":{"type":"categorie","content":{"ID":942,"Text":"RoverAK","Selected":"no"}},"CATEGORIE_100":{"type":"categorie","content":{"ID":100,"Text":"Roverrunde","Selected":"no"}},"CATEGORIE_662":{"type":"categorie","content":{"ID":662,"Text":"Roverrunden","Selected":"no"}},"CATEGORIE_696":{"type":"categorie","content":{"ID":696,"Text":"RsP","Selected":"no"}},"CATEGORIE_778":{"type":"categorie","content":{"ID":778,"Text":"rsp","Selected":"no"}},"CATEGORIE_560":{"type":"categorie","content":{"ID":560,"Text":"RsP-Aktion","Selected":"no"}},"CATEGORIE_746":{"type":"categorie","content":{"ID":746,"Text":"rsp-Stammtisch","Selected":"no"}},"CATEGORIE_164":{"type":"categorie","content":{"ID":164,"Text":"RTA","Selected":"no"}},"CATEGORIE_161":{"type":"categorie","content":{"ID":161,"Text":"R\u00fcsthaus","Selected":"no"}},"CATEGORIE_583":{"type":"categorie","content":{"ID":583,"Text":"Sabi, Linda","Selected":"no"}},"CATEGORIE_45":{"type":"categorie","content":{"ID":45,"Text":"Sammlung","Selected":"no"}},"CATEGORIE_649":{"type":"categorie","content":{"ID":649,"Text":"Schaffen, Essen, Spa\u00df haben","Selected":"no"}},"CATEGORIE_177":{"type":"categorie","content":{"ID":177,"Text":"Schatzmeister","Selected":"no"}},"CATEGORIE_677":{"type":"categorie","content":{"ID":677,"Text":"Schlaue F\u00fcchse","Selected":"no"}},"CATEGORIE_697":{"type":"categorie","content":{"ID":697,"Text":"schlaue F\u00fcchse","Selected":"no"}},"CATEGORIE_406":{"type":"categorie","content":{"ID":406,"Text":"Schlauen F\u00fcchse","Selected":"no"}},"CATEGORIE_909":{"type":"categorie","content":{"ID":909,"Text":"Schlie\u00dfzeiten","Selected":"no"}},"CATEGORIE_346":{"type":"categorie","content":{"ID":346,"Text":"Schritt 2","Selected":"no"}},"CATEGORIE_918":{"type":"categorie","content":{"ID":918,"Text":"Schulung","Selected":"no"}},"CATEGORIE_10":{"type":"categorie","content":{"ID":10,"Text":"Schulung\/Kurs","Selected":"no"}},"CATEGORIE_142":{"type":"categorie","content":{"ID":142,"Text":"Sch\u00fctzen","Selected":"no"}},"CATEGORIE_729":{"type":"categorie","content":{"ID":729,"Text":"Schwalbennest AK","Selected":"no"}},"CATEGORIE_141":{"type":"categorie","content":{"ID":141,"Text":"schwarzFAHREN","Selected":"no"}},"CATEGORIE_782":{"type":"categorie","content":{"ID":782,"Text":"Scoutabilly","Selected":"no"}},"CATEGORIE_186":{"type":"categorie","content":{"ID":186,"Text":"scouting100","Selected":"no"}},"CATEGORIE_187":{"type":"categorie","content":{"ID":187,"Text":"Scouting100","Selected":"no"}},"CATEGORIE_238":{"type":"categorie","content":{"ID":238,"Text":"ScoutNet","Selected":"no"}},"CATEGORIE_591":{"type":"categorie","content":{"ID":591,"Text":"sdfs","Selected":"no"}},"CATEGORIE_426":{"type":"categorie","content":{"ID":426,"Text":"Seminar","Selected":"no"}},"CATEGORIE_81":{"type":"categorie","content":{"ID":81,"Text":"Seminarteamer","Selected":"no"}},"CATEGORIE_127":{"type":"categorie","content":{"ID":127,"Text":"SFT Sippenf\u00fchrungstraining","Selected":"no"}},"CATEGORIE_137":{"type":"categorie","content":{"ID":137,"Text":"Sichtwechsel","Selected":"no"}},"CATEGORIE_803":{"type":"categorie","content":{"ID":803,"Text":"Singeabend","Selected":"no"}},"CATEGORIE_619":{"type":"categorie","content":{"ID":619,"Text":"Singen","Selected":"no"}},"CATEGORIE_569":{"type":"categorie","content":{"ID":569,"Text":"Singetreffen","Selected":"no"}},"CATEGORIE_971":{"type":"categorie","content":{"ID":971,"Text":"Sippenaktion","Selected":"no"}},"CATEGORIE_294":{"type":"categorie","content":{"ID":294,"Text":"SJR","Selected":"no"}},"CATEGORIE_602":{"type":"categorie","content":{"ID":602,"Text":"Skatspieler","Selected":"no"}},"CATEGORIE_728":{"type":"categorie","content":{"ID":728,"Text":"SL","Selected":"no"}},"CATEGORIE_163":{"type":"categorie","content":{"ID":163,"Text":"SoLa","Selected":"no"}},"CATEGORIE_469":{"type":"categorie","content":{"ID":469,"Text":"Sommerfest","Selected":"no"}},"CATEGORIE_143":{"type":"categorie","content":{"ID":143,"Text":"Sommerlager","Selected":"no"}},"CATEGORIE_716":{"type":"categorie","content":{"ID":716,"Text":"Sonntagstreff","Selected":"no"}},"CATEGORIE_1":{"type":"categorie","content":{"ID":1,"Text":"Sonstiges","Selected":"no"}},"CATEGORIE_203":{"type":"categorie","content":{"ID":203,"Text":"sonstiges","Selected":"no"}},"CATEGORIE_448":{"type":"categorie","content":{"ID":448,"Text":"Spiel & Spa\u00df","Selected":"no"}},"CATEGORIE_534":{"type":"categorie","content":{"ID":534,"Text":"Spiel und Spa\u00df","Selected":"no"}},"CATEGORIE_377":{"type":"categorie","content":{"ID":377,"Text":"Spieletag","Selected":"no"}},"CATEGORIE_490":{"type":"categorie","content":{"ID":490,"Text":"Spiri","Selected":"no"}},"CATEGORIE_196":{"type":"categorie","content":{"ID":196,"Text":"Spiritualit\u00e4t","Selected":"no"}},"CATEGORIE_234":{"type":"categorie","content":{"ID":234,"Text":"Spiritualit\u00e4t\/Religion","Selected":"no"}},"CATEGORIE_554":{"type":"categorie","content":{"ID":554,"Text":"Stadt","Selected":"no"}},"CATEGORIE_544":{"type":"categorie","content":{"ID":544,"Text":"Stadt Br\u00fchl","Selected":"no"}},"CATEGORIE_508":{"type":"categorie","content":{"ID":508,"Text":"Stadt Gevelsberg","Selected":"no"}},"CATEGORIE_553":{"type":"categorie","content":{"ID":553,"Text":"Stadtjugendring","Selected":"no"}},"CATEGORIE_973":{"type":"categorie","content":{"ID":973,"Text":"Stadtjugendring Freiburg","Selected":"no"}},"CATEGORIE_261":{"type":"categorie","content":{"ID":261,"Text":"Stadtspiel","Selected":"no"}},"CATEGORIE_774":{"type":"categorie","content":{"ID":774,"Text":"Stadtteil","Selected":"no"}},"CATEGORIE_931":{"type":"categorie","content":{"ID":931,"Text":"Staemme","Selected":"no"}},"CATEGORIE_2":{"type":"categorie","content":{"ID":2,"Text":"Stamm","Selected":"no"}},"CATEGORIE_547":{"type":"categorie","content":{"ID":547,"Text":"Stamm Bruno","Selected":"no"}},"CATEGORIE_670":{"type":"categorie","content":{"ID":670,"Text":"Stamm Horsadal e.V.","Selected":"no"}},"CATEGORIE_549":{"type":"categorie","content":{"ID":549,"Text":"Stamm Winfried","Selected":"no"}},"CATEGORIE_934":{"type":"categorie","content":{"ID":934,"Text":"St\u00e4mme","Selected":"no"}},"CATEGORIE_678":{"type":"categorie","content":{"ID":678,"Text":"Stammesaktion","Selected":"no"}},"CATEGORIE_287":{"type":"categorie","content":{"ID":287,"Text":"Stammesfeier","Selected":"no"}},"CATEGORIE_139":{"type":"categorie","content":{"ID":139,"Text":"Stammesf\u00fchrungen","Selected":"no"}},"CATEGORIE_254":{"type":"categorie","content":{"ID":254,"Text":"Stammesjubil\u00e4um","Selected":"no"}},"CATEGORIE_397":{"type":"categorie","content":{"ID":397,"Text":"Stammeskalender","Selected":"no"}},"CATEGORIE_987":{"type":"categorie","content":{"ID":987,"Text":"Stammesleitende","Selected":"no"}},"CATEGORIE_41":{"type":"categorie","content":{"ID":41,"Text":"Stammesleitung","Selected":"no"}},"CATEGORIE_373":{"type":"categorie","content":{"ID":373,"Text":"Stammesrat","Selected":"no"}},"CATEGORIE_940":{"type":"categorie","content":{"ID":940,"Text":"Stammestag","Selected":"no"}},"CATEGORIE_492":{"type":"categorie","content":{"ID":492,"Text":"Stammestermin","Selected":"no"}},"CATEGORIE_565":{"type":"categorie","content":{"ID":565,"Text":"Stammestermine","Selected":"no"}},"CATEGORIE_44":{"type":"categorie","content":{"ID":44,"Text":"Stammesversammlung","Selected":"no"}},"CATEGORIE_306":{"type":"categorie","content":{"ID":306,"Text":"Stammesvorst\u00e4nde","Selected":"no"}},"CATEGORIE_53":{"type":"categorie","content":{"ID":53,"Text":"Stammesvorst\u00e4nde und Bezirksvorstand","Selected":"no"}},"CATEGORIE_103":{"type":"categorie","content":{"ID":103,"Text":"Stammtisch","Selected":"no"}},"CATEGORIE_334":{"type":"categorie","content":{"ID":334,"Text":"Staovs \/ Delegierte","Selected":"no"}},"CATEGORIE_951":{"type":"categorie","content":{"ID":951,"Text":"Staudammtreffen","Selected":"no"}},"CATEGORIE_572":{"type":"categorie","content":{"ID":572,"Text":"StaVer","Selected":"no"}},"CATEGORIE_600":{"type":"categorie","content":{"ID":600,"Text":"StaVo","Selected":"no"}},"CATEGORIE_937":{"type":"categorie","content":{"ID":937,"Text":"StaVo Treff","Selected":"no"}},"CATEGORIE_452":{"type":"categorie","content":{"ID":452,"Text":"StaVo-Runde","Selected":"no"}},"CATEGORIE_769":{"type":"categorie","content":{"ID":769,"Text":"Stavo-Runde","Selected":"no"}},"CATEGORIE_792":{"type":"categorie","content":{"ID":792,"Text":"StaVo-Treff","Selected":"no"}},"CATEGORIE_436":{"type":"categorie","content":{"ID":436,"Text":"Stavo-Treffen","Selected":"no"}},"CATEGORIE_303":{"type":"categorie","content":{"ID":303,"Text":"Stavos","Selected":"no"}},"CATEGORIE_577":{"type":"categorie","content":{"ID":577,"Text":"StaVos","Selected":"no"}},"CATEGORIE_407":{"type":"categorie","content":{"ID":407,"Text":"Stavotreff","Selected":"no"}},"CATEGORIE_916":{"type":"categorie","content":{"ID":916,"Text":"Stra\u00dfenfest","Selected":"no"}},"CATEGORIE_464":{"type":"categorie","content":{"ID":464,"Text":"Studientagung","Selected":"no"}},"CATEGORIE_589":{"type":"categorie","content":{"ID":589,"Text":"Stufen","Selected":"no"}},"CATEGORIE_227":{"type":"categorie","content":{"ID":227,"Text":"Stufenaktion","Selected":"no"}},"CATEGORIE_724":{"type":"categorie","content":{"ID":724,"Text":"Stufendelegierte","Selected":"no"}},"CATEGORIE_288":{"type":"categorie","content":{"ID":288,"Text":"Stufendeligierte","Selected":"no"}},"CATEGORIE_435":{"type":"categorie","content":{"ID":435,"Text":"Stufengespr\u00e4ch","Selected":"no"}},"CATEGORIE_9":{"type":"categorie","content":{"ID":9,"Text":"Stufenkonferenz","Selected":"no"}},"CATEGORIE_818":{"type":"categorie","content":{"ID":818,"Text":"Stufenstammtisch","Selected":"no"}},"CATEGORIE_470":{"type":"categorie","content":{"ID":470,"Text":"Stufentraining","Selected":"no"}},"CATEGORIE_144":{"type":"categorie","content":{"ID":144,"Text":"Stufentreffen","Selected":"no"}},"CATEGORIE_748":{"type":"categorie","content":{"ID":748,"Text":"Stufenwanderung","Selected":"no"}},"CATEGORIE_747":{"type":"categorie","content":{"ID":747,"Text":"Stufenwechsel","Selected":"no"}},"CATEGORIE_302":{"type":"categorie","content":{"ID":302,"Text":"Stuko","Selected":"no"}},"CATEGORIE_541":{"type":"categorie","content":{"ID":541,"Text":"StuKo","Selected":"no"}},"CATEGORIE_86":{"type":"categorie","content":{"ID":86,"Text":"Stuko W\u00f6lflinge","Selected":"no"}},"CATEGORIE_524":{"type":"categorie","content":{"ID":524,"Text":"StVers","Selected":"no"}},"CATEGORIE_151":{"type":"categorie","content":{"ID":151,"Text":"STW-Programm","Selected":"no"}},"CATEGORIE_354":{"type":"categorie","content":{"ID":354,"Text":"Subregion Zentraleuropa","Selected":"no"}},"CATEGORIE_66":{"type":"categorie","content":{"ID":66,"Text":"S\u00fcdafrika","Selected":"no"}},"CATEGORIE_523":{"type":"categorie","content":{"ID":523,"Text":"SVers","Selected":"no"}},"CATEGORIE_905":{"type":"categorie","content":{"ID":905,"Text":"Tagesaktion","Selected":"no"}},"CATEGORIE_643":{"type":"categorie","content":{"ID":643,"Text":"Tagesmarsch mit Action","Selected":"no"}},"CATEGORIE_630":{"type":"categorie","content":{"ID":630,"Text":"Tagung","Selected":"no"}},"CATEGORIE_834":{"type":"categorie","content":{"ID":834,"Text":"TdE","Selected":"no"}},"CATEGORIE_536":{"type":"categorie","content":{"ID":536,"Text":"TEAM","Selected":"no"}},"CATEGORIE_543":{"type":"categorie","content":{"ID":543,"Text":"Teamer","Selected":"no"}},"CATEGORIE_881":{"type":"categorie","content":{"ID":881,"Text":"Teamer Starter Training","Selected":"no"}},"CATEGORIE_519":{"type":"categorie","content":{"ID":519,"Text":"Teamer-Training","Selected":"no"}},"CATEGORIE_701":{"type":"categorie","content":{"ID":701,"Text":"Teamer-Training I","Selected":"no"}},"CATEGORIE_702":{"type":"categorie","content":{"ID":702,"Text":"Teamer-Training II","Selected":"no"}},"CATEGORIE_487":{"type":"categorie","content":{"ID":487,"Text":"Teamertraining (TT)","Selected":"no"}},"CATEGORIE_742":{"type":"categorie","content":{"ID":742,"Text":"Teilnehmer SoLa","Selected":"no"}},"CATEGORIE_653":{"type":"categorie","content":{"ID":653,"Text":"test","Selected":"no"}},"CATEGORIE_802":{"type":"categorie","content":{"ID":802,"Text":"Test","Selected":"no"}},"CATEGORIE_975":{"type":"categorie","content":{"ID":975,"Text":"Thing","Selected":"no"}},"CATEGORIE_232":{"type":"categorie","content":{"ID":232,"Text":"Thinking Day","Selected":"no"}},"CATEGORIE_54":{"type":"categorie","content":{"ID":54,"Text":"Tr\u00e4gerverein","Selected":"no"}},"CATEGORIE_813":{"type":"categorie","content":{"ID":813,"Text":"Tr\u00e4gerverrein","Selected":"no"}},"CATEGORIE_98":{"type":"categorie","content":{"ID":98,"Text":"Treffen","Selected":"no"}},"CATEGORIE_817":{"type":"categorie","content":{"ID":817,"Text":"Truppfahrt","Selected":"no"}},"CATEGORIE_38":{"type":"categorie","content":{"ID":38,"Text":"Truppstunde","Selected":"no"}},"CATEGORIE_393":{"type":"categorie","content":{"ID":393,"Text":"TT Teamer-Training","Selected":"no"}},"CATEGORIE_71":{"type":"categorie","content":{"ID":71,"Text":"\u00fcb","Selected":"no"}},"CATEGORIE_384":{"type":"categorie","content":{"ID":384,"Text":"\u00dcberb\u00fcndisch","Selected":"no"}},"CATEGORIE_520":{"type":"categorie","content":{"ID":520,"Text":"\u00dcberg\u00e4nge","Selected":"no"}},"CATEGORIE_740":{"type":"categorie","content":{"ID":740,"Text":"\u00dcbernachtung","Selected":"no"}},"CATEGORIE_235":{"type":"categorie","content":{"ID":235,"Text":"Untergriesbach","Selected":"no"}},"CATEGORIE_986":{"type":"categorie","content":{"ID":986,"Text":"V-Team","Selected":"no"}},"CATEGORIE_252":{"type":"categorie","content":{"ID":252,"Text":"V\u00e4ter","Selected":"no"}},"CATEGORIE_631":{"type":"categorie","content":{"ID":631,"Text":"VCP","Selected":"no"}},"CATEGORIE_711":{"type":"categorie","content":{"ID":711,"Text":"VCP Bayern","Selected":"no"}},"CATEGORIE_327":{"type":"categorie","content":{"ID":327,"Text":"VCP Landesverband Bayern","Selected":"no"}},"CATEGORIE_720":{"type":"categorie","content":{"ID":720,"Text":"VCP Landsberg ~ Dominikus Zimemrmann","Selected":"no"}},"CATEGORIE_713":{"type":"categorie","content":{"ID":713,"Text":"VCP Region ISAR","Selected":"no"}},"CATEGORIE_355":{"type":"categorie","content":{"ID":355,"Text":"VDAPG","Selected":"no"}},"CATEGORIE_152":{"type":"categorie","content":{"ID":152,"Text":"Veranstaltungen","Selected":"no"}},"CATEGORIE_454":{"type":"categorie","content":{"ID":454,"Text":"Veranstaltungen in Gevelsberg","Selected":"no"}},"CATEGORIE_297":{"type":"categorie","content":{"ID":297,"Text":"Verdammlung","Selected":"no"}},"CATEGORIE_93":{"type":"categorie","content":{"ID":93,"Text":"Verein","Selected":"no"}},"CATEGORIE_578":{"type":"categorie","content":{"ID":578,"Text":"Vereinsmitglieder","Selected":"no"}},"CATEGORIE_717":{"type":"categorie","content":{"ID":717,"Text":"Verkauf","Selected":"no"}},"CATEGORIE_416":{"type":"categorie","content":{"ID":416,"Text":"Verkehrsverein","Selected":"no"}},"CATEGORIE_279":{"type":"categorie","content":{"ID":279,"Text":"Verleih","Selected":"no"}},"CATEGORIE_48":{"type":"categorie","content":{"ID":48,"Text":"Vermietung","Selected":"no"}},"CATEGORIE_673":{"type":"categorie","content":{"ID":673,"Text":"Verona","Selected":"no"}},"CATEGORIE_119":{"type":"categorie","content":{"ID":119,"Text":"Versammlung","Selected":"no"}},"CATEGORIE_150":{"type":"categorie","content":{"ID":150,"Text":"Versprechen","Selected":"no"}},"CATEGORIE_562":{"type":"categorie","content":{"ID":562,"Text":"Versprechensfeier","Selected":"no"}},"CATEGORIE_601":{"type":"categorie","content":{"ID":601,"Text":"Versprechenswochenende","Selected":"no"}},"CATEGORIE_929":{"type":"categorie","content":{"ID":929,"Text":"Vertiefungsschulung","Selected":"no"}},"CATEGORIE_118":{"type":"categorie","content":{"ID":118,"Text":"Verwaltungsrat","Selected":"no"}},"CATEGORIE_911":{"type":"categorie","content":{"ID":911,"Text":"Vollj\u00e4hrige","Selected":"no"}},"CATEGORIE_843":{"type":"categorie","content":{"ID":843,"Text":"Vollversammlung","Selected":"no"}},"CATEGORIE_593":{"type":"categorie","content":{"ID":593,"Text":"Vorbereitung","Selected":"no"}},"CATEGORIE_180":{"type":"categorie","content":{"ID":180,"Text":"Vorbereitungsteam Dekoration","Selected":"no"}},"CATEGORIE_636":{"type":"categorie","content":{"ID":636,"Text":"Vorbereitungstreffen","Selected":"no"}},"CATEGORIE_260":{"type":"categorie","content":{"ID":260,"Text":"Vorbereitungstrupp","Selected":"no"}},"CATEGORIE_191":{"type":"categorie","content":{"ID":191,"Text":"Vorbereitungswochenende","Selected":"no"}},"CATEGORIE_700":{"type":"categorie","content":{"ID":700,"Text":"Vorstand + Referenten","Selected":"no"}},"CATEGORIE_777":{"type":"categorie","content":{"ID":777,"Text":"Vorstand Rechtst\u00e4ger","Selected":"no"}},"CATEGORIE_6":{"type":"categorie","content":{"ID":6,"Text":"Vorst\u00e4nde","Selected":"no"}},"CATEGORIE_888":{"type":"categorie","content":{"ID":888,"Text":"Vorstandstraining ","Selected":"no"}},"CATEGORIE_246":{"type":"categorie","content":{"ID":246,"Text":"Vortour halt","Selected":"no"}},"CATEGORIE_545":{"type":"categorie","content":{"ID":545,"Text":"Vortreffen","Selected":"no"}},"CATEGORIE_375":{"type":"categorie","content":{"ID":375,"Text":"Wahl","Selected":"no"}},"CATEGORIE_879":{"type":"categorie","content":{"ID":879,"Text":"Wahlausschuss","Selected":"no"}},"CATEGORIE_106":{"type":"categorie","content":{"ID":106,"Text":"Wallfahrt","Selected":"no"}},"CATEGORIE_465":{"type":"categorie","content":{"ID":465,"Text":"Wandertag","Selected":"no"}},"CATEGORIE_385":{"type":"categorie","content":{"ID":385,"Text":"WB-Einstieg Schritt 1","Selected":"no"}},"CATEGORIE_386":{"type":"categorie","content":{"ID":386,"Text":"WB-Einstieg Schritt 2","Selected":"no"}},"CATEGORIE_343":{"type":"categorie","content":{"ID":343,"Text":"WB-Tr\u00e4ger","Selected":"no"}},"CATEGORIE_175":{"type":"categorie","content":{"ID":175,"Text":"WBK","Selected":"no"}},"CATEGORIE_250":{"type":"categorie","content":{"ID":250,"Text":"WBK (neu)","Selected":"no"}},"CATEGORIE_97":{"type":"categorie","content":{"ID":97,"Text":"WBK (neues Konzept)","Selected":"no"}},"CATEGORIE_21":{"type":"categorie","content":{"ID":21,"Text":"WBK 1","Selected":"no"}},"CATEGORIE_34":{"type":"categorie","content":{"ID":34,"Text":"WBK 2","Selected":"no"}},"CATEGORIE_37":{"type":"categorie","content":{"ID":37,"Text":"WBK Woodbadgekurs","Selected":"no"}},"CATEGORIE_348":{"type":"categorie","content":{"ID":348,"Text":"Webmaster","Selected":"no"}},"CATEGORIE_704":{"type":"categorie","content":{"ID":704,"Text":"Webteam","Selected":"no"}},"CATEGORIE_835":{"type":"categorie","content":{"ID":835,"Text":"Weiberfasching","Selected":"no"}},"CATEGORIE_644":{"type":"categorie","content":{"ID":644,"Text":"Weihnachtesfeier","Selected":"no"}},"CATEGORIE_209":{"type":"categorie","content":{"ID":209,"Text":"Weihnachtsfeier","Selected":"no"}},"CATEGORIE_693":{"type":"categorie","content":{"ID":693,"Text":"Weihnachtsmarkt","Selected":"no"}},"CATEGORIE_22":{"type":"categorie","content":{"ID":22,"Text":"Weiterbildung","Selected":"no"}},"CATEGORIE_290":{"type":"categorie","content":{"ID":290,"Text":"Welfe","Selected":"no"}},"CATEGORIE_289":{"type":"categorie","content":{"ID":289,"Text":"Welfen","Selected":"no"}},"CATEGORIE_325":{"type":"categorie","content":{"ID":325,"Text":"Werbeaktion","Selected":"no"}},"CATEGORIE_434":{"type":"categorie","content":{"ID":434,"Text":"Werkeln","Selected":"no"}},"CATEGORIE_352":{"type":"categorie","content":{"ID":352,"Text":"Wettkampf","Selected":"no"}},"CATEGORIE_829":{"type":"categorie","content":{"ID":829,"Text":"Wichtel","Selected":"no"}},"CATEGORIE_83":{"type":"categorie","content":{"ID":83,"Text":"Wichtiges Datum","Selected":"no"}},"CATEGORIE_563":{"type":"categorie","content":{"ID":563,"Text":"Winterlager","Selected":"no"}},"CATEGORIE_641":{"type":"categorie","content":{"ID":641,"Text":"Wir putzen Esslingen","Selected":"no"}},"CATEGORIE_82":{"type":"categorie","content":{"ID":82,"Text":"wl","Selected":"no"}},"CATEGORIE_943":{"type":"categorie","content":{"ID":943,"Text":"W\u00f6 AK","Selected":"no"}},"CATEGORIE_199":{"type":"categorie","content":{"ID":199,"Text":"W\u00f6 Bundeslager 2008","Selected":"no"}},"CATEGORIE_580":{"type":"categorie","content":{"ID":580,"Text":"W\u00f6-Leiter","Selected":"no"}},"CATEGORIE_120":{"type":"categorie","content":{"ID":120,"Text":"Wochenende","Selected":"no"}},"CATEGORIE_890":{"type":"categorie","content":{"ID":890,"Text":"Wochenendfahrt","Selected":"no"}},"CATEGORIE_16":{"type":"categorie","content":{"ID":16,"Text":"W\u00f6lflinge","Selected":"no"}},"CATEGORIE_149":{"type":"categorie","content":{"ID":149,"Text":"W\u00f6lflinge wollen\u00b4s wissen!","Selected":"no"}},"CATEGORIE_922":{"type":"categorie","content":{"ID":922,"Text":"W\u00f6lflings Leiter","Selected":"no"}},"CATEGORIE_698":{"type":"categorie","content":{"ID":698,"Text":"W\u00f6lflingseltern","Selected":"no"}},"CATEGORIE_350":{"type":"categorie","content":{"ID":350,"Text":"W\u00f6lflingsleiter-Termin","Selected":"no"}},"CATEGORIE_447":{"type":"categorie","content":{"ID":447,"Text":"W\u00f6lflingsstufe","Selected":"no"}},"CATEGORIE_485":{"type":"categorie","content":{"ID":485,"Text":"Woodbadgekurs","Selected":"no"}},"CATEGORIE_923":{"type":"categorie","content":{"ID":923,"Text":"World Scout Jamboree","Selected":"no"}},"CATEGORIE_772":{"type":"categorie","content":{"ID":772,"Text":"W\u00f6s","Selected":"no"}},"CATEGORIE_773":{"type":"categorie","content":{"ID":773,"Text":"W\u00f6s, Juffis","Selected":"no"}},"CATEGORIE_166":{"type":"categorie","content":{"ID":166,"Text":"wosm","Selected":"no"}},"CATEGORIE_173":{"type":"categorie","content":{"ID":173,"Text":"WOSM","Selected":"no"}},"CATEGORIE_413":{"type":"categorie","content":{"ID":413,"Text":"W\u00fcrstchengrillen","Selected":"no"}},"CATEGORIE_794":{"type":"categorie","content":{"ID":794,"Text":"yxcv","Selected":"no"}},"CATEGORIE_793":{"type":"categorie","content":{"ID":793,"Text":"yxcvb","Selected":"no"}},"CATEGORIE_885":{"type":"categorie","content":{"ID":885,"Text":"Zeitung","Selected":"no"}},"CATEGORIE_982":{"type":"categorie","content":{"ID":982,"Text":"Zeltlager","Selected":"no"}},"CATEGORIE_282":{"type":"categorie","content":{"ID":282,"Text":"Zeltplatz","Selected":"no"}},"CATEGORIE_55":{"type":"categorie","content":{"ID":55,"Text":"Zeltplatzvermietung","Selected":"no"}},"CATEGORIE_356":{"type":"categorie","content":{"ID":356,"Text":"ZEM","Selected":"no"}},"CATEGORIE_113":{"type":"categorie","content":{"ID":113,"Text":"Zusammen mit den Minis","Selected":"no"}},"CATEGORIE_99":{"type":"categorie","content":{"ID":99,"Text":"Zusammen mit Stamm Ehingen","Selected":"no"}}},"[[4],{\"categories\":{\"generatedCategoriesForEventId\":123}}]":{"CATEGORIE_4":{"type":"categorie","content":{"ID":4,"Text":"Aktion","Selected":"no"}},"CATEGORIE_26":{"type":"categorie","content":{"ID":26,"Text":"Baustein 2a","Selected":"yes"}},"CATEGORIE_27":{"type":"categorie","content":{"ID":27,"Text":"Baustein 2b","Selected":"yes"}},"CATEGORIE_8":{"type":"categorie","content":{"ID":8,"Text":"BDKJ","Selected":"no"}},"CATEGORIE_7":{"type":"categorie","content":{"ID":7,"Text":"Bezirksleitung","Selected":"no"}},"CATEGORIE_12":{"type":"categorie","content":{"ID":12,"Text":"Di\u00f6zesanleitung","Selected":"no"}},"CATEGORIE_67":{"type":"categorie","content":{"ID":67,"Text":"Eltern","Selected":"no"}},"CATEGORIE_192":{"type":"categorie","content":{"ID":192,"Text":"F+F","Selected":"no"}},"CATEGORIE_3":{"type":"categorie","content":{"ID":3,"Text":"Fahrt\/Lager","Selected":"no"}},"CATEGORIE_5":{"type":"categorie","content":{"ID":5,"Text":"Gemeinde","Selected":"no"}},"CATEGORIE_11":{"type":"categorie","content":{"ID":11,"Text":"Gremium\/AK","Selected":"no"}},"CATEGORIE_182":{"type":"categorie","content":{"ID":182,"Text":"Gruppenstunde","Selected":"no"}},"CATEGORIE_60":{"type":"categorie","content":{"ID":60,"Text":"Kinderstufe","Selected":"no"}},"CATEGORIE_950":{"type":"categorie","content":{"ID":950,"Text":"Leiter*innen","Selected":"no"}},"CATEGORIE_43":{"type":"categorie","content":{"ID":43,"Text":"Leiterrunde","Selected":"no"}},"CATEGORIE_125":{"type":"categorie","content":{"ID":125,"Text":"Ranger & Rover","Selected":"no"}},"CATEGORIE_59":{"type":"categorie","content":{"ID":59,"Text":"Ranger\/Rover","Selected":"no"}},"CATEGORIE_10":{"type":"categorie","content":{"ID":10,"Text":"Schulung\/Kurs","Selected":"yes"}},"CATEGORIE_2":{"type":"categorie","content":{"ID":2,"Text":"Stamm","Selected":"no"}},"CATEGORIE_9":{"type":"categorie","content":{"ID":9,"Text":"Stufenkonferenz","Selected":"no"}},"CATEGORIE_38":{"type":"categorie","content":{"ID":38,"Text":"Truppstunde","Selected":"no"}},"CATEGORIE_6":{"type":"categorie","content":{"ID":6,"Text":"Vorst\u00e4nde","Selected":"no"}}}}